id,pais,categoria,descripcion,fuente,lat,lon,mgrs,place,admin1,admin2,accuracy,geocode_source,created_at,updated_at
1,colombia,Sin clasificar,"Plan √©xodo en Bogot√° por el puente festivo del 17 de noviembre: siga el minuto a minuto de la movilidad, v√≠as, horarios y restricciones https://www.eltiempo.com/bogota/movilidad-bogota-asi-amanece-la-ciudad-este-viernes-14-de-noviembre-3508853 En este portal utilizamos datos de navegaci√≥n / cookies propias y de terceros para gestionar el portal, elaborar informaci√≥n estad√≠stica, optimizar la fu...",WEB www.eltiempo.com,,,,Bogot√° por el puente festivo del 17 de noviembre: siga el minuto a minuto de la movilidad,,,,mensajes,2025-11-14T13:57:45,2025-11-14T13:57:45
2,colombia,Criminalidad,Salvatore Mancuso se retracta de acusaci√≥n contra √Ålvaro Uribe V√©lez por caso de asesinato de alcalde en Sucre: 'No me consta' https://www.eltiempo.com/justicia/conflicto-y-narcotrafico/salvatore-mancuso-se-retracta-de-acusacion-contra-alvaro-uribe-velez-por-caso-de-asesinato-de-alcalde-en-sucre-no-me-consta-3508832 En este portal utilizamos datos de navegaci√≥n / cookies propias y de terceros p...,WEB www.eltiempo.com,35.661543,139.698750,54SUE8221947189,Sucre: 'No me consta' https://www,,Ê∏ãË∞∑Âå∫,theatre,nominatim,2025-11-14T13:57:46,2025-11-14T13:57:46
3,colombia,Sin clasificar,"Joven de 15 a√±os lucha por su vida tras recibir dos descargas el√©ctricas por un cable suelto en Mosquera, Cundinamarca https://www.eltiempo.com/bogota/joven-de-15-anos-lucha-por-su-vida-tras-recibir-dos-descargas-electricas-por-un-cable-suelto-en-mosquera-cundinamarca-3508848 En este portal utilizamos datos de navegaci√≥n / cookies propias y de terceros para gestionar el portal, elaborar informa...",WEB www.eltiempo.com,4.700200,-74.238506,18NWL8445419570,Mosquera,Cundinamarca,,administrative,nominatim,2025-11-14T13:57:46,2025-11-14T13:57:46
4,colombia,Sin clasificar,Juez rega√±√≥ al abogado de 'Pap√° Pitufo' durante la audiencia de acusaci√≥n de la Fiscal√≠a: 'Deja mucho que desear de su comportamiento' https://www.eltiempo.com/justicia/delitos/el-regano-de-un-juez-al-abogado-de-papa-pitufo-durante-la-audiencia-de-acusacion-de-la-fiscalia-dejan-mucho-que-desear-de-su-comportamiento-3508844 En este portal utilizamos datos de navegaci√≥n / cookies propias y de ter...,WEB www.eltiempo.com,,,,este portal utilizamos datos de navegaci√≥n / cookies propias y de ter,,,,mensajes,2025-11-14T13:57:47,2025-11-14T13:57:47
5,colombia,Sin clasificar,Veh√≠culos no matriculados en Bogot√° tendr√°n pico y placa dos s√°bados de cada mes ¬øPor qu√© se tom√≥ esta medida?,WEB www.eltiempo.com,,,,Bogot√° tendr√°n pico y placa dos s√°bados de cada mes ¬øPor qu√© se tom√≥ esta medida?,,,,mensajes,2025-11-14T14:47:13,2025-11-14T14:47:13
6,colombia,Sin clasificar,"Alcalde Carlos Fernando Gal√°n anuncia aumento en el precio del pico y placa solidario para carros no matriculados en Bogot√° https://www.eltiempo.com/bogota/alcalde-carlos-fernando-galan-anuncia-aumento-en-el-precio-del-pico-y-placa-solidario-para-carros-no-matriculados-en-bogota-3508877 En este portal utilizamos datos de navegaci√≥n / cookies propias y de terceros para gestionar el portal, elabo...",WEB www.eltiempo.com,35.661543,139.698750,54SUE8221947189,precio del pico y placa solidario para carros no matriculados en Bogot√° https://www,,Ê∏ãË∞∑Âå∫,theatre,nominatim,2025-11-14T14:57:17,2025-11-14T14:57:17
7,colombia,Sin clasificar,"Siguen los l√≠os internos en el Centro Democr√°tico: Andr√©s Guerra se baja de su aspiraci√≥n presidencial https://www.eltiempo.com/politica/partidos-politicos/siguen-los-lios-internos-en-el-centro-democratico-andres-guerra-se-baja-de-su-aspiracion-presidencial-3508870 En este portal utilizamos datos de navegaci√≥n / cookies propias y de terceros para gestionar el portal, elaborar informaci√≥n estad√≠...",WEB www.eltiempo.com,35.661543,139.698750,54SUE8221947189,Centro Democr√°tico: Andr√©s Guerra se baja de su aspiraci√≥n presidencial https://www,,Ê∏ãË∞∑Âå∫,theatre,nominatim,2025-11-14T14:57:18,2025-11-14T14:57:18
8,colombia,Sin clasificar,"#Ciudad ‚úäCon cantos, palabras y caminos compartidos, la Escuela Kimy Pern√≠a Domic√≥ cerr√≥ un nuevo ciclo de la Escuela Territorial de Memoria ¬´Minga de Pueblos en Resistencia¬ª, un proceso que teji√≥ saberes, territorios y luchas por la vida digna en la ciudad. üîç https://www.colombiainforma.info/escuela-territorial-de-memoria-minga-de-pueblos-en-resistencia-siembra-paz-y-vida-en-bogota/",@colombiainforma,-27.604883,-59.193200,21JTK8354744645,Resistencia¬ª,Chaco,Municipio de Resistencia,administrative,nominatim,2025-11-14T19:22:39,2025-11-14T19:22:39
9,colombia,Sin clasificar,"Polic√≠a descart√≥ presencia de artefacto explosivo en la Universidad Cat√≥lica en Bogot√° tras evacuaci√≥n de emergencia https://www.eltiempo.com/bogota/evacuan-universidad-catolica-en-bogota-por-presunta-amenaza-de-artefacto-explosivo-esto-es-lo-que-se-sabe-3508909 En este portal utilizamos datos de navegaci√≥n / cookies propias y de terceros para gestionar el portal, elaborar informaci√≥n estad√≠sti...",WEB www.eltiempo.com,35.661543,139.698750,54SUE8221947189,Universidad Cat√≥lica en Bogot√° tras evacuaci√≥n de emergencia https://www,,Ê∏ãË∞∑Âå∫,theatre,nominatim,2025-11-14T19:31:57,2025-11-14T19:31:57
10,colombia,Sin clasificar,"El d√≥lar rebota con fuerza, gana m√°s de 40 pesos y vuelve a subir en Colombia https://www.eltiempo.com/economia/sector-financiero/el-dolar-rebota-con-fuerza-gana-mas-de-40-pesos-y-vuelve-a-subir-en-colombia-3508936 En este portal utilizamos datos de navegaci√≥n / cookies propias y de terceros para gestionar el portal, elaborar informaci√≥n estad√≠stica, optimizar la funcionalidad del sitio y mostr...",WEB www.eltiempo.com,50.701555,-120.426166,10UFB8174919797,Colombia https://www,British Columbia,Thompson-Nicola Regional District,dog_park,cache,2025-11-14T19:31:58,2025-11-14T19:31:58
11,colombia,Sin clasificar,Demora del Consejo Nacional Electoral (CNE) para decidir sobre cuentas de la campa√±a Petro 2022 pone en riesgo listas al Congreso del Pacto Hist√≥rico https://www.eltiempo.com/politica/elecciones-colombia-2026/demora-del-consejo-nacional-electoral-cne-para-decidir-sobre-cuentas-de-la-campana-petro-2022-pone-en-riesgo-listas-al-congreso-del-pacto-historico-3508957 En este portal utilizamos datos...,WEB www.eltiempo.com,35.661543,139.698750,54SUE8221947189,riesgo listas al Congreso del Pacto Hist√≥rico https://www,,Ê∏ãË∞∑Âå∫,theatre,nominatim,2025-11-14T19:31:59,2025-11-14T19:31:59
12,colombia,Sin clasificar,La carta que lleg√≥ a Mindefensa de la magistrada Cristina Lombana sobre allanamiento a casa del ministro Armando Benedetti https://www.eltiempo.com/justicia/cortes/la-carta-que-llego-a-mindefensa-de-la-magistrada-cristina-lombana-sobre-allanamiento-a-casa-del-ministro-armando-benedetti-3509004 En este portal utilizamos datos de navegaci√≥n / cookies propias y de terceros para gestionar el portal...,WEB www.eltiempo.com,,,,este portal utilizamos datos de navegaci√≥n / cookies propias y de terceros para gestionar el portal,,,,mensajes,2025-11-14T21:59:03,2025-11-14T21:59:03
13,colombia,Sin clasificar,Sergio Fajardo se reuni√≥ en Bogot√° con empresarios y diplom√°ticos estadounidenses: ¬øde qu√© hablaron?,WEB www.eltiempo.com,,,,Bogot√° con empresarios y diplom√°ticos estadounidenses: ¬øde qu√© hablaron?,,,,mensajes,2025-11-14T21:59:04,2025-11-14T21:59:04
14,colombia,Sin clasificar,Trump pedir√° investigar al expresidente Bill Clinton y otras figuras por su supuesta relaci√≥n con Epstein tras filtraci√≥n de correos que lo mencionan https://www.eltiempo.com/mundo/eeuu-y-canada/trump-pedira-al-fbi-investigar-al-expresidente-bill-clinton-y-otras-figuras-por-su-supuesta-relacion-con-jeffrey-epstein-tras-filtracion-de-correos-que-lo-mencionan-3508999 En este portal utilizamos dat...,WEB www.eltiempo.com,,,,este portal utilizamos dat,,,,mensajes,2025-11-14T21:59:06,2025-11-14T21:59:06
15,colombia,Sin clasificar,"Llega a Colombia el DongFeng Box, el primer carro el√©ctrico de la marca: uno de los estrenos del Sal√≥n del Autom√≥vil de Bogot√° https://www.eltiempo.com/economia/sectores/llega-a-colombia-el-dongfeng-box-el-primer-carro-electrico-de-la-marca-uno-de-los-estrenos-del-salon-del-automovil-de-bogota-3509001 En este portal utilizamos datos de navegaci√≥n / cookies propias y de terceros para gestionar e...",WEB www.eltiempo.com,,,,este portal utilizamos datos de navegaci√≥n / cookies propias y de terceros para gestionar e,,,,mensajes,2025-11-14T23:58:51,2025-11-14T23:58:51
16,colombia,Sin clasificar,"Las declaraciones que llevaron a la senadora Isabel Zuleta a retractarse frente al alcalde de Medell√≠n Federico Guti√©rrez https://www.eltiempo.com/justicia/cortes/las-declaraciones-que-llevaron-a-la-senadora-isabel-zuleta-a-retractarse-frente-al-alcalde-de-medellin-federico-gutierrez-3509049 En este portal utilizamos datos de navegaci√≥n / cookies propias y de terceros para gestionar el portal,...",WEB www.eltiempo.com,,,,este portal utilizamos datos de navegaci√≥n / cookies propias y de terceros para gestionar el portal,,,,mensajes,2025-11-15T00:27:25,2025-11-15T00:27:25
17,colombia,Sin clasificar,"Viernes de ataques sicariales con tres muertos en Cali: dos hombres, las v√≠ctimas en helader√≠a de la ciudad; el segundo caso fue cerca de un colegio https://www.eltiempo.com/colombia/cali/viernes-de-ataques-sicariales-con-tres-muertos-en-cali-dos-hombres-las-victimas-en-heladeria-de-la-ciudad-el-segundo-caso-fue-cerca-de-un-colegio-3509054 En este portal utilizamos datos de navegaci√≥n / cookies...",WEB www.eltiempo.com,,,,Cali: dos hombres,,,,mensajes,2025-11-15T00:27:27,2025-11-15T00:27:27
18,colombia,Sin clasificar,"La Selecci√≥n Colombia ya tiene rival europeo para la fecha Fifa de marzo, a la espera del resultado del sorteo del Mundial 2026 https://www.eltiempo.com/deportes/futbol-internacional/la-seleccion-colombia-ya-tiene-rival-europeo-para-la-fecha-fifa-de-marzo-a-la-espera-del-resultado-del-sorteo-del-mundial-3509040 En este portal utilizamos datos de navegaci√≥n / cookies propias y de terceros para g...",WEB www.eltiempo.com,,,,este portal utilizamos datos de navegaci√≥n / cookies propias y de terceros para g,,,,mensajes,2025-11-15T00:27:28,2025-11-15T00:27:28
19,colombia,Criminalidad,"Env√≠an a prisi√≥n a Ricardo Rafael Gonz√°lez, el segundo capturado por el asesinato de Jaime Esteban Moreno en Bogot√° https://www.eltiempo.com/justicia/delitos/ricardo-rafael-gonzalez-el-segundo-capturado-por-el-homicidio-de-jaime-esteban-moreno-en-bogota-sera-enviado-a-la-carcel-3509138 En este portal utilizamos datos de navegaci√≥n / cookies propias y de terceros para gestionar el portal, elabor...",WEB www.eltiempo.com,35.661543,139.698750,54SUE8221947189,Bogot√° https://www,,Ê∏ãË∞∑Âå∫,theatre,cache,2025-11-15T02:38:24,2025-11-15T02:38:24
20,colombia,Sin clasificar,Presidente Petro hizo oficial la adquisici√≥n de 17 aviones Gripen para Fuerza Aeroespacial Colombiana: desde Cali habl√≥ de la contrataci√≥n hist√≥rica https://www.eltiempo.com/colombia/cali/presidente-petro-hizo-oficial-la-llegada-de-17-aeronaves-gripen-para-la-fuerza-aeroespacial-colombiana-desde-cali-hablo-de-la-contratacion-historica-3509126 En este portal utilizamos datos de navegaci√≥n / cook...,WEB www.eltiempo.com,41.819738,-87.756525,16TDM3716930038,este portal utilizamos datos de navegaci√≥n / cook,Illinois,Cook County,administrative,nominatim,2025-11-15T02:38:25,2025-11-15T02:38:25
21,colombia,Sin clasificar,"Trump eval√∫a 'opciones militares' contra Venezuela mientras tropas se preparan para un posible ataque, seg√∫n reuni√≥n que revel√≥ The Washington Post https://www.eltiempo.com/mundo/eeuu-y-canada/trump-evalua-opciones-militares-contra-venezuela-mientras-tropas-de-ee-uu-se-preparan-para-un-posible-ataque-segun-reunion-secreta-que-revelo-the-washington-post-3509131 En este portal utilizamos datos de...",WEB www.eltiempo.com,,,,este portal utilizamos datos de,,,,mensajes,2025-11-15T02:38:25,2025-11-15T02:38:25
22,colombia,Sin clasificar,"El Papa Le√≥n XIV pide cautela frente a supuestos fen√≥menos sobrenaturales para evitar caer en supersticiones https://www.eltiempo.com/cultura/gente/el-papa-leon-xiv-pide-cautela-frente-a-supuestos-fenomenos-sobrenaturales-para-evitar-caer-en-supersticiones-3509064 En este portal utilizamos datos de navegaci√≥n / cookies propias y de terceros para gestionar el portal, elaborar informaci√≥n estad√≠s...",WEB www.eltiempo.com,35.661543,139.698750,54SUE8221947189,supersticiones https://www,,Ê∏ãË∞∑Âå∫,theatre,nominatim,2025-11-15T05:23:22,2025-11-15T05:23:22
23,colombia,Sin clasificar,"Utilidad neta de Grupo Argos acumul√≥ una ca√≠da del 44 % y lleg√≥ a $ 4,1 billones al cierre del tercer trimestre de 2025 https://www.eltiempo.com/economia/empresas/utilidad-neta-de-grupo-argos-acumulo-una-caida-del-44-y-llego-a-4-1-billones-al-cierre-del-tercer-trimestre-de-2025-3509110 En este portal utilizamos datos de navegaci√≥n / cookies propias y de terceros para gestionar el portal, elabor...",WEB www.eltiempo.com,,,,este portal utilizamos datos de navegaci√≥n / cookies propias y de terceros para gestionar el portal,,,,mensajes,2025-11-15T05:23:23,2025-11-15T05:23:23
24,colombia,Sin clasificar,"Manuel Turizo explora el reggae con 'Cosas de Enamorao', un sencillo que mira de frente al amor https://www.eltiempo.com/cultura/gente/manuel-turizo-explora-el-reggae-con-cosas-de-enamorao-un-sencillo-que-mira-de-frente-al-amor-3509088 En este portal utilizamos datos de navegaci√≥n / cookies propias y de terceros para gestionar el portal, elaborar informaci√≥n estad√≠stica, optimizar la funcionali...",WEB www.eltiempo.com,,,,este portal utilizamos datos de navegaci√≥n / cookies propias y de terceros para gestionar el portal,,,,mensajes,2025-11-15T05:23:23,2025-11-15T05:23:23
25,colombia,Sin clasificar,"Noticias Principales de Colombia y el Mundo - El Tiempo https://www.eltiempo.com ¬°Hola !, Tu correo ha sido verficado.",WEB www.eltiempo.com,,,,Noticias Principales de Colombia y el Mundo,,,,mensajes,2025-11-15T05:23:24,2025-11-15T05:23:24
