id,pais,categoria,descripcion,fuente,lat,lon,mgrs,place,admin1,admin2,accuracy,geocode_source,created_at,updated_at
1,campello,Sin clasificar,"DOSIER DE PRENSA (11 DE NOVIEMBRE) | Noticias del Ayuntamiento de Calp https://noticias.calp.es/es/noticia/dosier-de-prensa-11-de-noviembre-2 Mario Conde, Albert Rivera y Arnaldo Otegi, los tres nombres que tambalean el tripartito de Calp M√©s de 200 voluntaris recullen a Calp 1.800 quilos de residus en les II Jornades Mediambientals de la Mar ‚ÄúCalp Blau‚Äù Jornadas Calp Blau: M√°s de 200 voluntari...",WEB noticias.calp.es,,,,les II Jornades Mediambientals de la Mar ‚ÄúCalp Blau‚Äù Jornadas Calp Blau: M√°s de 200 voluntari,,,,mensajes,2025-11-11T09:14:35,2025-11-11T09:14:35
2,campello,Sin clasificar,üí• Comen√ßa la desc√†rrega general dels BONS CONSUM 2025! üïò Primera desc√†rrega: 9 h üïí Segona ronda: 15 h ---------- üí• ¬°Empieza la descarga general de los BONS CONSUM 2025! üïò Primera descarga: 9 h üïí Segunda ronda: 15 h üëâ https://bonsconsum.denia.es,@AjuntamentDeDenia,39.670428,2.576356,31SDD6366491264,Comen√ßa,Illes Balears,Serra de Tramuntana,artwork,nominatim,2025-11-11T09:32:00,2025-11-11T09:32:00
3,campello,Sin clasificar,Dosier de prensa üëÄ Consulta el dosier de prensa de hoy martes 11 de noviembre. ‚¨áÔ∏è‚¨áÔ∏è üìÖ 11/11/2025 üåê https://noticias.calp.es/es/noticia/dosier-de-prensa-11-de-noviembre-2 üîñ #Noticia,@AyuntamientodeCalp,60.399324,25.110255,35VLG9587697377,Noticia,Uusimaa,Helsingin seutukunta,company,cache,2025-11-11T09:37:01,2025-11-11T09:37:01
4,campello,Sin clasificar,Cielos despejados y ligero descenso de las m√°ximas en el litoral sur de Alicante https://diariodealicante.net/cielos-despejados-descenso-maximas/,@diarioAlicante,,,,litoral sur de Alicante https://diariodealicante,,,,mensajes,2025-11-11T09:58:01,2025-11-11T09:58:01
5,campello,Sin clasificar,Noticias de Alicante La previsi√≥n de Aemet para este martes en la provincia da continuidad al buen tiempo oto√±al: ambientes con nubes altas pero sol durante buena parte del d√≠a en la mayor√≠a del territorio.,@AlicanteDirectoNews,,,,da continuidad al buen tiempo oto√±al: ambientes con nubes altas pero sol durante buena parte del d√≠a,,,,mensajes,2025-11-11T10:09:01,2025-11-11T10:09:01
6,campello,Sin clasificar,La Asociaci√≥n de Belenistas anticipa la Navidad con el Preg√≥n del 22 de noviembre de Federico Jim√©nez de Cisneros https://diariodealicante.net/asociacion-belenistas-pregon/,@diarioAlicante,40.479549,-3.684726,30TVK4196281209,Asociaci√≥n,Comunidad de Madrid,Madrid,pub,nominatim,2025-11-11T10:23:01,2025-11-11T10:23:01
7,campello,Hazards,Extinguido un incendio en una nave industrial que gener√≥ una intensa columna de humo en San Fulgencio https://diariodealicante.net/incendio-nave-industrial-san-fulgencio/,@diarioAlicante,,,,una nave industrial,,,,mensajes,2025-11-11T10:37:01,2025-11-11T10:37:01
8,campello,Sin clasificar,"G√©nova intenta imponer su ritmo frente a Vox, que pide un candidato cercano a Maz√≥n https://www.informacion.es/comunidad-valenciana/2025/11/11/genova-imponer-ritmo-frente-vox-pide-candidato-cercano-mazon-123580988.html G√©nova intenta imponer su ritmo frente a Vox, que pide un candidato cercano a Maz√≥n P√©rez Llorca admite en su regreso a las Corts que ha hablado con Feij√≥o, pero dice que no se l...",WEB www.informacion.es,,,,su regreso a las Corts,,,,mensajes,2025-11-11T10:44:39,2025-11-11T10:44:39
9,campello,Sin clasificar,Las v√≠ctimas no podr√°n estar en la comparecencia de Maz√≥n en las Cortes al copar Presidencia las invitaciones con sus asesores https://www.informacion.es/comunidad-valenciana/2025/11/10/comparecencia-mazon-cortes-deja-fuera-victimas-dana-valencia-123575398.html Las v√≠ctimas no podr√°n estar en la comparecencia de Maz√≥n en las Cortes al copar Presidencia las invitaciones con sus asesores La direc...,WEB www.informacion.es,,,,comparecencia de Maz√≥n,,,,mensajes,2025-11-11T10:44:39,2025-11-11T10:44:39
10,campello,Sin clasificar,La Polic√≠a Nacional intercepta en Alicante 27 toneladas de pulpa de fruta mezcladas con coca√≠na https://www.informacion.es/sucesos/sucesos-en-alicante/2025/11/11/cocaina-puerto-de-valencia-policia-nacional-intercepta-alicante-27-toneladas-cocaina-mezclada-pulpa-fruta-123582285.html La Polic√≠a Nacional intercepta en Alicante 27 toneladas de pulpa de fruta mezcladas con coca√≠na Agentes antinarc√≥t...,WEB www.informacion.es,35.661543,139.698750,54SUE8221947189,Alicante 27 toneladas de pulpa de fruta mezcladas con coca√≠na https://www,,Ê∏ãË∞∑Âå∫,theatre,nominatim,2025-11-11T10:44:40,2025-11-11T10:44:40
11,campello,Sin clasificar,Una app y una web para conocer el estado del tr√°fico y de los aparcamientos en tiempo real de Alicante https://www.informacion.es/alicante/2025/11/10/alicante-lanza-app-web-conocer-trafico-aparcamiento-123573227.html Una app y una web para conocer el estado del tr√°fico y de los aparcamientos en tiempo real de Alicante Las nuevas herramientas impulsadas por el Ayuntamiento forman parte del proye...,WEB www.informacion.es,35.661543,139.698750,54SUE8221947189,tiempo real de Alicante https://www,,Ê∏ãË∞∑Âå∫,theatre,nominatim,2025-11-11T10:44:40,2025-11-11T10:44:40
12,campello,Sin clasificar,"#ReunionsDeBarri üë•üí¨ En parlem? Hui, dimarts 11, 2‚É£ noves cites del calendari de novembre: üôãüèª‚Äç‚ôÄÔ∏è La Faroleta-Diana, amb Melani Ivars (üìç Centre Social) üôãüèª‚Äç‚ôÄÔ∏è Oest-Campaments, amb M.",@AjuntamentDeDenia,,,,parlem? Hui,,,,mensajes,2025-11-11T10:55:00,2025-11-11T10:55:00
13,campello,Sin clasificar,Golpe al menudeo de drogas en una vivienda de Elche https://diariodealicante.net/golpe-menudeo-drogas-vivienda-elche/,@diarioAlicante,,,,una vivienda de Elche https://diariodealicante,,,,mensajes,2025-11-11T10:55:01,2025-11-11T10:55:01
14,campello,Sin clasificar,Pleno 11 de noviembre ‚û° El Ayuntamiento de #Calp celebrar√° hoy martes 11 de noviembre a las 17 horas pleno ordinario con el siguiente orden del d√≠a‚¨áÔ∏è. üì± Podr√©is seguirlo a trav√©s del canal de YouTube del Ayuntamiento de Calp. üëá üìÖ 11/11/2025 00:00 https://calpcomunica.calp.es/event/pleno-11-de-noviembre/?lang=es üîñ #Anuncios,@AyuntamientodeCalp,38.644325,0.046012,31SBC4290881448,Calp,Comunitat Valenciana,,administrative,cache,2025-11-11T11:01:01,2025-11-11T11:01:01
15,campello,Sin clasificar,"La Guardia Civil promueve la VII Ciberliga, un reto nacional de ciberseguridad para estudiantes de 4¬∫ de ESO https://diariodealicante.net/la-guardia-civil-promueve-la-vii-ciberliga-un-reto-nacional-de-ciberseguridad-para-estudiantes-de-4o-de-eso/",@diarioAlicante,37.381825,-5.736136,30STG5774740744,Guardia Civil,Andaluc√≠a,,police,nominatim,2025-11-11T11:29:01,2025-11-11T11:29:01
16,campello,Sin clasificar,Tellado asegura que Feij√≥o anunciar√° en breve al sustituto de Maz√≥n https://diariodealicante.net/tellado-feijoo-anunciara-breve-sustituto-mazon/,@diarioAlicante,,,,breve al sustituto de Maz√≥n https://diariodealicante,,,,mensajes,2025-11-11T11:49:01,2025-11-11T11:49:01
17,campello,Sin clasificar,Torrevieja ser√° la sede del Low Festival 2026 tras su salida de Benidorm https://www.informacion.es/vega-baja/2025/11/11/low-festival-muda-torrevieja-beni-123585537.html Torrevieja ser√° la sede del Low Festival 2026 tras su salida de Benidorm Los promotores del festival y el Ayuntamiento de Torrevieja tienen previsto anunciarlo oficialmente en una rueda de prensa este martes tras su trayectoria...,WEB www.informacion.es,,,,una rueda de prensa este martes tras su trayectoria,,,,mensajes,2025-11-11T11:54:40,2025-11-11T11:54:40
18,campello,Sin clasificar,"As√≠ es el ¬´b√∫nker¬ª en el que vivir√° Messi durante esta semana en Alicante https://www.informacion.es/deportes/2025/11/10/bunker-vivira-messi-durante-semana-123569188.html As√≠ es el ¬´b√∫nker¬ª en el que vivir√° Messi durante esta semana en Alicante La Finca Resort, en Algorfa, ser√° el cuartel general de la selecci√≥n argentina hasta su viaje a Angola Imagen de La Finca Resort; en el detalle, Messi c...",WEB www.informacion.es,51.208697,89.234375,45UXS5607275405,As√≠,,,continent,cache,2025-11-11T11:54:41,2025-11-11T11:54:41
19,campello,Sin clasificar,Inscripciones Feria de Navidad üéÑüå†üîî Se ampl√≠a dos d√≠as m√°s el plazo de inscripciones en la Fira de Nadal.,@AyuntamientodeCalp,,,,Fira de Nadal,,,,mensajes,2025-11-11T12:01:38,2025-11-11T12:01:38
20,campello,Sin clasificar,"Noticias de Alicante Dicen que todo lo bueno se acaba, y aunque ¬´Menjars de la Terra¬ª, las jornadas gastron√≥micas m√°s populares de la provincia, preparan ya la √∫ltima etapa de una brillante temporada, seguro que las pr√≥ximas ser√°n tambi√©n inolvidables.",@AlicanteDirectoNews,,,,Alicante Dicen,,,,mensajes,2025-11-11T12:20:01,2025-11-11T12:20:01
21,campello,Sin clasificar,Presentaci√≥n del proyecto Calp Next Solutions üóì Mi√©rcoles 12 de noviembre ¬∑ 19:30 h.,@AyuntamientodeCalp,13.710158,123.745659,51PWR8062615795,Presentaci√≥n,Camarines Sur,,town,nominatim,2025-11-11T13:33:33,2025-11-11T13:33:33
22,campello,Sin clasificar,La empresa Callnak del Parque Cient√≠fico de la UMH cierra una inyecci√≥n de capital por valor de 200.000 euros https://diariodealicante.net/callnak-parque-cientifico-umh-cierra-inyeccion-capital/,@diarioAlicante,,,,Callnak,,,,mensajes,2025-11-11T13:33:34,2025-11-11T13:33:34
23,campello,Sin clasificar,"Aspe y la Asociaci√≥n Musical firman un convenio Noticias de Aspe (RSS) El Ayuntamiento de Aspe y la Asociaci√≥n Musical La Esperanza han formalizado un convenio de colaboraci√≥n con el objetivo de fomentar aspectos culturales, art√≠sticos y recreativos en la localidad. El alcalde de Aspe, Antonio...",@santaelenaaspe,-25.753739,-65.592584,20JKS3994649029,localidad,Salta,,locality,nominatim,2025-11-11T13:33:34,2025-11-11T13:33:34
24,campello,Sin clasificar,"El Ayuntamiento de Aspe y la Asociaci√≥n Musical firman un convenio Ayuntamiento de Aspe (RSS) El Ayuntamiento de Aspe y la Asociaci√≥n Musical La Esperanza han formalizado un convenio de colaboraci√≥n con el objetivo de fomentar aspectos culturales, art√≠sticos y recreativos en la localidad.",@santaelenaaspe,-25.753739,-65.592584,20JKS3994649029,localidad,Salta,,locality,cache,2025-11-11T13:33:34,2025-11-11T13:33:34
25,campello,Sin clasificar,"¬øQuieres acreditarte como gestor/a de colonias felinas? Ayuntamiento de Aspe (RSS) Si te interesa colaborar en el cuidado y control de las colonias felinas del municipio, inf√≥rmate sobre c√≥mo obtener tu acreditaci√≥n en el Departamento de Servicios a las Personas (La Posada) o en el Punto de Informaci√≥n del propio Ayuntamiento de Aspe.",@santaelenaaspe,,,,cuidado y control de las colonias felinas del municipio,,,,mensajes,2025-11-11T13:33:34,2025-11-11T13:33:34
26,campello,Sin clasificar,AVISO IMPORTANTE- Corte de agua Ayuntamiento de Aspe (RSS) Previsto para ma√±ana mi√©rcoles 12 de noviembre de 2025 a partir de las 09:00h.,@santaelenaaspe,,,,Aviso Importante,,,,mensajes,2025-11-11T13:33:34,2025-11-11T13:33:34
27,campello,Sin clasificar,"Ayuntamiento y Cofrad√≠a reclaman mejoras en las instalaciones del puerto | Noticias del Ayuntamiento de Calp https://noticias.calp.es/es/noticia/ayuntamiento-y-cofrad%C3%ADa-reclaman-mejoras-en-las-instalaciones-del-puerto Ayuntamiento y Cofrad√≠a reclaman mejoras en las instalaciones del puerto La alcaldesa de Calp, Ana Sala, y la concejal de Pesca, Mariola Mulet, junto al Patr√≥n Mayor de la Co...",WEB noticias.calp.es,-25.974568,32.572207,36JVS5717827062,instalaciones del puerto | Noticias del Ayuntamiento de Calp https://noticias,Zona Sul,Cidade de Maputo,office,nominatim,2025-11-11T13:54:03,2025-11-11T13:54:03
28,campello,Sin clasificar,Calp se incorpora al proyecto Alicante Renace con su primer emplazamiento ecol√≥gico en Las Salinas | Noticias del Ayuntamiento de Calp https://noticias.calp.es/es/noticia/calp-se-incorpora-al-proyecto-alicante-renace-con-su-primer-emplazamiento-ecol%C3%B3gico-en-las Calp se incorpora al proyecto Alicante Renace con su primer emplazamiento ecol√≥gico en Las Salinas El Ayuntamiento de Calp ha form...,WEB noticias.calp.es,-25.974568,32.572207,36JVS5717827062,Salinas | Noticias del Ayuntamiento de Calp https://noticias,Zona Sul,Cidade de Maputo,office,nominatim,2025-11-11T13:54:04,2025-11-11T13:54:04
29,campello,Sin clasificar,Expedici√≥n y renovaci√≥n de DNIs y pasaportes ‚ÑπÔ∏è La Unidad de Veh√≠culos Integrales de Documentaci√≥n de la Polic√≠a Nacional visitar√° Calp el 4 de diciembre para la expedici√≥n y renovaci√≥n de DNIs y pasaportes.,@AyuntamientodeCalp,36.537062,-6.291978,29SQA4242846931,Expedici√≥n,Andaluc√≠a,Bah√≠a de C√°diz,memorial,nominatim,2025-11-11T14:00:42,2025-11-11T14:00:42
30,campello,Sin clasificar,Feij√≥o propone a P√©rez Llorca para sustituir a Maz√≥n como presidente de la Generalitat https://diariodealicante.net/feijoo-propone-perez-llorca-sustituir-mazon/,@diarioAlicante,-32.931667,-60.699511,20HQJ1509153940,Feij√≥o,Gran Rosario,Distrito Noroeste,residential,nominatim,2025-11-11T14:10:43,2025-11-11T14:10:43
31,campello,Sin clasificar,Santa Pola cobrar√° directamente a partir de este a√±o la tasa de alcantarillado y aguas pluviales https://diariodealicante.net/santa-pola-cobrara-directamente-tasa-alcantarillado-aguas-pluviales/,@diarioAlicante,38.192364,-0.555546,30SYH1407029983,Santa Pola,Comunitat Valenciana,,administrative,nominatim,2025-11-11T14:28:42,2025-11-11T14:28:42
32,campello,Sin clasificar,Desmantelan en Alicante un laboratorio de coca√≠na oculto tras env√≠os de pulpa de fruta https://diariodealicante.net/alicante-laboratorio-cocaina-pulpa-fruta/,@diarioAlicante,,,,Alicante un laboratorio de coca√≠na oculto tras env√≠os de pulpa de fruta https://diariodealicante,,,,mensajes,2025-11-11T14:33:43,2025-11-11T14:33:43
33,campello,Sin clasificar,El IX Duatl√≥n CTB ‚ÄòCiudad de Elche‚Äô se celebrar√° el 16 de noviembre https://diariodealicante.net/ix-duatlon-ctb-ciudad-elche-16-de-noviembre/,@diarioAlicante,,,,IX Duatl√≥n CTB,,,,mensajes,2025-11-11T14:38:43,2025-11-11T14:38:43
34,campello,Sin clasificar,"Alicante sigue creciendo, pero la mejor√≠a no llega a las familias ni a las pymes https://diariodealicante.net/alicante-mejoria-no-familias-pymes/",@diarioAlicante,38.343637,-0.488171,30SYH1951546929,Alicante,Comunitat Valenciana,Alacant / Alicante,administrative,cache,2025-11-11T14:41:33,2025-11-11T14:41:33
35,campello,Sin clasificar,Feij√≥o propone a P√©rez Llorca para relevar a Maz√≥n como president de la Generalitat https://www.informacion.es/nacional/2025/11/11/feijoo-elige-perez-llorca-candidato-123593528.html Feij√≥o propone a P√©rez Llorca para relevar a Maz√≥n como president de la Generalitat El l√≠der del PP ha hablado ya con el valenciano para comunicar que se propondr√° su nombre a Vox como nuevo president Valencia VLC R...,WEB www.informacion.es,-32.931667,-60.699511,20HQJ1509153940,Feij√≥o,Gran Rosario,Distrito Noroeste,residential,cache,2025-11-11T14:52:10,2025-11-11T14:52:10
36,campello,Sin clasificar,Messi y Argentina entrenar√°n este jueves en Elche...,WEB www.informacion.es,38.265331,-0.698839,30SYH0131837759,Elche,Comunitat Valenciana,Elx / Elche,administrative,cache,2025-11-11T14:52:10,2025-11-11T14:52:10
37,campello,Sin clasificar,MAPAS | Consulta la ubicaci√≥n exacta de los seis nuevos radares de la DGT en la provincia de Alicante https://www.informacion.es/alicante/2025/11/11/radares-alicante-mapa-ubicacion-dv-loc-123594128.html MAPAS | Consulta la ubicaci√≥n exacta de los seis nuevos radares de la DGT en la provincia de Alicante Tres de estos controles de velocidad son de tramo mientras que el resto son convencionales N...,WEB www.informacion.es,38.609596,-0.273310,30SYH3742076981,Alicante https://www,Comunitat Valenciana,,art,cache,2025-11-11T14:52:11,2025-11-11T14:52:11
38,campello,Sin clasificar,"Alicante ampl√≠a cinco millones su cr√©dito para reformar la plaza del Ayuntamiento, los Aba6 y diversas mejoras https://diariodealicante.net/alicante-reformar-plaza-ayuntamiento-aba6/",@diarioAlicante,38.343637,-0.488171,30SYH1951546929,Alicante,Comunitat Valenciana,Alacant / Alicante,administrative,cache,2025-11-11T14:54:33,2025-11-11T14:54:33
39,campello,Sin clasificar,"Ayuntamiento y Cofrad√≠a reclaman mejoras en las instalaciones del puerto La alcaldesa de Calp, Ana Sala, y la concejal de Pesca, Mariola Mulet, junto al Patr√≥n Mayor de la Cofrad√≠a, Paco Catal√°, y el Secretario de la entidad, Santos Pastor, mantuvieron ayer una reuni√≥n con el Director General de Costas y Puertos, Marc Garc√≠a, para conocer la situaci√≥n de las distintas reclamaciones sobre el pue...",@AyuntamientodeCalp,,,,instalaciones del puerto La alcaldesa de Calp,,,,mensajes,2025-11-11T15:00:33,2025-11-11T15:00:33
40,campello,Sin clasificar,https://cadenaser.com/comunitat-valenciana/2025/11/11/detenidos-tres-hombres-en-elda-por-robar-en-una-vivienda-radio-elda,@alicanteprensapolicianacional,,,,,,,,mensajes,2025-11-11T15:05:34,2025-11-11T15:05:34
41,campello,Sin clasificar,"Las obras del Mercado Central, Porfirio Pascual o San Ant√≥n centran las inversiones de Pimesa en 2026 https://diariodealicante.net/obras-mercado-central-porfirio-ascual-san-anton-2026/",@diarioAlicante,39.473492,-0.378905,30SYJ2545972602,Mercado Central,Comunitat Valenciana,Comarca de Val√®ncia,attraction,nominatim,2025-11-11T15:08:34,2025-11-11T15:08:34
42,campello,Sin clasificar,"Noticias de Alicante El declive de la Escuela de Arte y Superior de Dise√±o de Alicante, que ha encendido a los alumnos y profesores, tras estar cerrada cuatro semanas por una plaga de pulgas, ha saltado al terreno pol√≠tico.",@AlicanteDirectoNews,38.343637,-0.488171,30SYH1951546929,Alicante El,Comunitat Valenciana,Alacant / Alicante,administrative,cache,2025-11-11T15:09:33,2025-11-11T15:09:33
43,campello,Disturbios Civiles,"Noticias de Alicante Los centros educativos de la provincia de Alicante afrontan una cascada de protestas y varias jornadas de huelga durante este curso, convocadas por los sindicatos STEPV, CSIF, CCOO y UGT, y respaldadas por la Plataforma en Defensa de la Ense√±anza P√∫blica, para reivindicar a la Conselleria de Educaci√≥n mejoras salariales para los docentes, un refuerzo de las plantillas y la...",@AlicanteDirectoNews,,,,Defensa de la Ense√±anza P√∫blica,,,,mensajes,2025-11-11T15:09:33,2025-11-11T15:09:33
44,campello,Disturbios Civiles,"Noticias de Alicante La Direcci√≥n General de Tr√°fico (DGT) instalar√° seis nuevos radares en la provincia de Alicante. Estos nuevos medidores se pondr√°n en marcha en breve y de ellos, tres son de tramo. via Informaci√≥n - Alicante https://ift.tt/jcPyvm5 #AlicanteDirecto #Noticias #Alicante #Alacant #Fiestas #Eventos",@AlicanteDirectoNews,38.343637,-0.488171,30SYH1951546929,Alicante,Comunitat Valenciana,Alacant / Alicante,administrative,cache,2025-11-11T15:09:33,2025-11-11T15:09:33
45,campello,Sin clasificar,Noticias de Alicante Alicante se prepara para una Navidad llena de luz.,@AlicanteDirectoNews,38.343637,-0.488171,30SYH1951546929,Alicante Alicante,Comunitat Valenciana,Alacant / Alicante,administrative,cache,2025-11-11T16:21:53,2025-11-11T16:21:53
46,campello,Disturbios Civiles,"Noticias de Alicante Una semana despu√©s de arrancar la huelga indefinida del profesorado experto de Formaci√≥n Profesional (FP) los √°nimos de los estudiantes est√°n por las nubes, ya que a estas alturas del curso hay quienes no han recibido ninguna clase de ciertos m√≥dulos.",@AlicanteDirectoNews,,,,Noticias de Alicante Una semana despu√©s de arrancar la huelga indefinida del profesorado experto de Formaci√≥n Profesional (FP,,,,mensajes,2025-11-11T16:21:53,2025-11-11T16:21:53
47,campello,Sin clasificar,El Plan Casa F√°cil de Elche avanza en su primera fase con el inicio de la licitaci√≥n de 200 viviendas p√∫blicas https://diariodealicante.net/plan-casa-facil-elche-primera-fase-inicio-licitacion-viviendas-publicas/,@diarioAlicante,,,,su primera fase con el inicio de la licitaci√≥n de 200 viviendas p√∫blicas https://diariodealicante,,,,mensajes,2025-11-11T16:21:55,2025-11-11T16:21:55
48,campello,Sin clasificar,"Low Festival se traslada a Torrevieja y confirma a Editors, Alcal√° Norte y Fangoria para su pr√≥xima cita https://diariodealicante.net/low-festival-torrevieja-editors-alcala-norte-fangoria/",@diarioAlicante,52.487766,7.297971,32ULD8443316652,Low Festival,Niedersachsen,Landkreis Emsland,industrial,cache,2025-11-11T16:21:55,2025-11-11T16:21:55
49,campello,Sin clasificar,Alicante agiliza el inicio de las reformas en siete centros educativos con la aprobaci√≥n de los planes de seguridad https://diariodealicante.net/alicante-reformas-siete-centros-educativos/,@diarioAlicante,,,,siete centros educativos con la aprobaci√≥n de los planes de seguridad https://diariodealicante,,,,mensajes,2025-11-11T16:21:55,2025-11-11T16:21:55
50,campello,Sin clasificar,Elche celebra diversas actividades por el XXV aniversario del Palmeral como Patrimonio de la Humanidad https://diariodealicante.net/elche-actividades-anversario-palmeral-patrimonio-humanidad/,@diarioAlicante,38.265331,-0.698839,30SYH0131837759,Elche,Comunitat Valenciana,Elx / Elche,administrative,cache,2025-11-11T16:21:55,2025-11-11T16:21:55
51,campello,Sin clasificar,Vinoteando: un viaje por los vinos de Espa√±a sin salir de Alicante https://diariodealicante.net/vinoteando-alicante/,@diarioAlicante,,,,Vinoteando,,,,mensajes,2025-11-11T16:21:55,2025-11-11T16:21:55
52,campello,Sin clasificar,P√©rez Llorca asume el relevo de Maz√≥n con el compromiso de impulsar la reconstrucci√≥n de la Comunitat https://diariodealicante.net/perez-llorca-asume-relevo-mazon/,@diarioAlicante,39.468483,-0.392010,30SYJ2434872013,P√©rez Llorca,Comunitat Valenciana,Comarca de Val√®ncia,bus_stop,nominatim,2025-11-11T16:21:55,2025-11-11T16:21:55
53,campello,Sin clasificar,Unos 2.000 atletas participan en la Carrera de las Ciudades de Alicante el 23 de noviembre https://diariodealicante.net/carrera-ciudadesalicante/,@diarioAlicante,,,,Carrera de las Ciudades de Alicante el 23 de noviembre https://diariodealicante,,,,mensajes,2025-11-11T16:21:55,2025-11-11T16:21:55
54,campello,Sin clasificar,Feij√≥o propone a P√©rez Llorca para relevar a Maz√≥n como president de la Generalitat https://www.informacion.es/comunidad-valenciana/2025/11/11/feijoo-elige-perez-llorca-candidato-123593528.html Feij√≥o propone a P√©rez Llorca para relevar a Maz√≥n como president de la Generalitat El l√≠der del PP ha hablado ya con el secretario general del PPCV para anunciarle que propondr√° su nombre a Vox como nue...,WEB www.informacion.es,-32.931667,-60.699511,20HQJ1509153940,Feij√≥o,Gran Rosario,Distrito Noroeste,residential,cache,2025-11-11T16:22:25,2025-11-11T16:22:25
55,campello,Sin clasificar,"Las primeras confirmaciones del Low en Torrevieja https://www.informacion.es/cultura/2025/11/11/primeras-confirmaciones-low-festival-torrevieja-123590504.html Las primeras confirmaciones del Low en Torrevieja El cartel del festival de 2026 anuncia a Editors, Dani Fern√°ndez, Fangoria y Alcal√° Norte, entre la primera tanda de artistas y bandas.",WEB www.informacion.es,35.661543,139.698750,54SUE8221947189,Torrevieja https://www,,Ê∏ãË∞∑Âå∫,theatre,nominatim,2025-11-11T16:22:26,2025-11-11T16:22:26
56,campello,Sin clasificar,Avanza en J√°vea la construcci√≥n de 82 viviendas de protecci√≥n p√∫blica https://diariodealicante.net/javea-viviendas-proteccion-publica/,@diarioAlicante,,,,J√°vea la construcci√≥n de 82 viviendas de protecci√≥n p√∫blica https://diariodealicante,,,,mensajes,2025-11-11T16:52:22,2025-11-11T16:52:22
57,campello,Sin clasificar,"La Concejal√≠a de Urbanismo de Aspe contin√∫a con el asfaltado y mejora de caminos rurales Noticias de Aspe (RSS) La Concejal√≠a de Urbanismo del Ayuntamiento de Aspe sigue avanzando en el plan de mejora y acondicionamiento de los caminos rurales del municipio con una nueva licitaci√≥n valorada en torno a 200.000 euros, destinada al arreglo de diversos...",@santaelenaaspe,,,,plan de mejora y acondicionamiento de los caminos rurales del municipio con una nueva licitaci√≥n valorada en torno a 200,,,,mensajes,2025-11-11T16:52:23,2025-11-11T16:52:23
58,campello,Sin clasificar,El ADDA acoge el lunes 17 de noviembre la Gala de Entrega de los XLI Premios Provinciales del Deporte https://diariodealicante.net/adda-gala-premios-provinciales-deporte/,@diarioAlicante,45.747252,9.453909,32TNR3530666066,Adda,,,river,nominatim,2025-11-11T16:57:44,2025-11-11T16:57:44
59,campello,Sin clasificar,"La Concejal√≠a de Urbanismo contin√∫a con el asfaltado y mejora de caminos rurales Ayuntamiento de Aspe (RSS) La Concejal√≠a de Urbanismo del Ayuntamiento de Aspe sigue avanzando en el plan de mejora y acondicionamiento de los caminos rurales del municipio con una nueva licitaci√≥n valorada en torno a 200.000 euros, destinada al arreglo de diversos caminos en mal estado, entre ellos, el Camino Espa...",@santaelenaaspe,,,,plan de mejora y acondicionamiento de los caminos rurales del municipio con una nueva licitaci√≥n valorada en torno a 200,,,,mensajes,2025-11-11T16:57:44,2025-11-11T16:57:44
60,campello,Sin clasificar,Alicante habilita cinco parcelas para que Generalitat inicie la licitaci√≥n para construir 220 viviendas protegidas https://diariodealicante.net/alicante-220-viviendas-protegidas/,@diarioAlicante,38.343637,-0.488171,30SYH1951546929,Alicante,Comunitat Valenciana,Alacant / Alicante,administrative,cache,2025-11-11T17:02:44,2025-11-11T17:02:44
61,campello,Sin clasificar,"Nuevas subvenciones en apoyo a asociaciones, entidades agrarias y clubes deportivos en Orihuela https://diariodealicante.net/nuevas-subvenciones-asociaciones-entidades-agrarias-clubes-deportivos-orihuela/",@diarioAlicante,,,,apoyo a asociaciones,,,,mensajes,2025-11-11T17:05:44,2025-11-11T17:05:44
62,campello,Sin clasificar,"Noticias de Alicante El compromiso de la Conselleria de Sanidad es operar antes de 30 d√≠as a las personas de prioridad 1 o con riesgo vital, entre ellas a los enfermos de c√°ncer.",@AlicanteDirectoNews,38.343637,-0.488171,30SYH1951546929,Alicante El,Comunitat Valenciana,Alacant / Alicante,administrative,cache,2025-11-11T17:08:43,2025-11-11T17:08:43
63,campello,Sin clasificar,"Noticias de Alicante La oficina ""antiaborto"" de Alicante se queda en el aire por duplicidad de servicios.",@AlicanteDirectoNews,,,,aire por duplicidad de servicios,,,,mensajes,2025-11-11T17:08:43,2025-11-11T17:08:43
64,campello,Sin clasificar,Noticias de Alicante El c√°ncer de p√°ncreas es un tumor que va en aumento y solo el 20 % de los pacientes son operables.,@AlicanteDirectoNews,,,,aumento y solo el 20 % de los pacientes son operables,,,,mensajes,2025-11-11T17:08:43,2025-11-11T17:08:43
65,campello,Sin clasificar,El Consell autoriza la modificaci√≥n del contrato de ejecuci√≥n de las obras de la nueva depuradora de Almorad√≠ https://diariodealicante.net/modificacion-contrato-obras-depuradora-almoradi/,@diarioAlicante,39.668561,2.813442,31SDD8399890988,Consell,Illes Balears,Raiguer,administrative,nominatim,2025-11-11T17:19:44,2025-11-11T17:19:44
66,campello,Sin clasificar,Alicante cierra al tr√°fico la Plaza del Ayuntamiento desde el domingo 23 de noviembre https://diariodealicante.net/alicante-cierra-trafico-plaza-ayuntamiento/,@diarioAlicante,38.343637,-0.488171,30SYH1951546929,Alicante,Comunitat Valenciana,Alacant / Alicante,administrative,cache,2025-11-11T17:30:44,2025-11-11T17:30:44
67,campello,Sin clasificar,"EN DIRECTO | Maz√≥n entra en la sala https://www.levante-emv.com/comunitat-valenciana/2025/11/11/directo-mazon-declara-les-corts-123594402.html El expresident de la Generalitat est√° citado a las 16.00 horas en el parlamento auton√≥mico Sigue en directo la declaraci√≥n de Maz√≥n en les Corts Carlos Maz√≥n, expresident de la Generalitat Valenciana, declara esta tarde en les Corts Valencianes por su ge...",WEB www.levante-emv.com,,,,DIRECTO | Maz√≥n entra,,,,mensajes,2025-11-11T17:53:28,2025-11-11T17:53:28
68,campello,Sin clasificar,La jefa de prensa de Emergencias: 'Todos sab√≠amos que era una situaci√≥n extraordinaria.,WEB www.levante-emv.com,,,,jefa de prensa de Emergencias,,,,mensajes,2025-11-11T17:53:29,2025-11-11T17:53:29
69,campello,Sin clasificar,Feij√≥o propone a P√©rez Llorca para relevar a Maz√≥n https://www.levante-emv.com/comunitat-valenciana/2025/11/11/feijoo-propone-perez-llorca-relevar-123593464.html Feij√≥o propone a P√©rez Llorca para relevar a Maz√≥n El l√≠der del PP ha hablado ya con el secretario general del PPCV para anunciarle que propondr√° su nombre a Vox como nuevo 'president' y los tres presidentes provinciales lo han respald...,WEB www.levante-emv.com,-32.931667,-60.699511,20HQJ1509153940,Feij√≥o,Gran Rosario,Distrito Noroeste,residential,cache,2025-11-11T17:53:30,2025-11-11T17:53:30
70,campello,Sin clasificar,Fallece en Sicilia la joven de Requena que denunci√≥ a su t√≠o ante la sospecha de que la envenenaba https://www.levante-emv.com/sucesos/2025/11/11/envenenamientos-valencia-fallece-sicilia-joven-requena-denuncio-tio-camara-envenenaba-alimentos-herencia-123570199.html Fallece en Sicilia la joven de Requena que denunci√≥ a su t√≠o ante la sospecha de que la envenenaba Los m√©dicos detectan un derrame...,WEB www.levante-emv.com,,,,Sicilia la joven de Requena,,,,mensajes,2025-11-11T17:53:30,2025-11-11T17:53:30
71,campello,Sin clasificar,Noticias de Alicante La posibilidad de prolongar el trasvase J√∫car-Vinalop√≥ hasta la cuenca del Segura ha reabierto un debate que en la comarca valenciana Ribera se consideraba cerrado desde hace a√±os.,@AlicanteDirectoNews,,,,comarca valenciana Ribera se consideraba cerrado desde hace a√±os,,,,mensajes,2025-11-11T18:08:43,2025-11-11T18:08:43
72,campello,Sin clasificar,Noticias de Alicante El quinto cambio en menos de un a√±o.,@AlicanteDirectoNews,,,,menos de un a√±o,,,,mensajes,2025-11-11T18:08:43,2025-11-11T18:08:43
73,campello,Sin clasificar,"Noticias de Alicante J√≥venes empoderados con un consumo m√°s consciente, solidario y respetuoso con el planeta.",@AlicanteDirectoNews,,,,Alicante J√≥venes,,,,mensajes,2025-11-11T18:08:43,2025-11-11T18:08:43
74,campello,Sin clasificar,Noticias de Alicante Cinco parcelas del t√©rmino municipal de Alicante han sido habilitadas por el Ayuntamiento para que la Generalitat construya 221 viviendas protegidas una vez inicie la licitaci√≥n.,@AlicanteDirectoNews,38.329717,-0.740899,30SXH9746344813,Alicante Cinco,Comunitat Valenciana,,stream,nominatim,2025-11-11T18:08:43,2025-11-11T18:08:43
75,campello,Sin clasificar,"DIRECTO | Maz√≥n: 'Quiz√° no me llamaron porque operativamente yo ten√≠a poco que aportar' https://www.informacion.es/nacional/2025/11/11/mazon-comparece-hoy-comision-dana-123601671.html DIRECTO | Maz√≥n: ""Quiz√° no me llamaron porque operativamente yo ten√≠a poco que aportar"" El presidente en funciones de la Generalitat Valenciana da explicaciones sobre su agenda el 29 de octubre de 2024 y su papel...",WEB www.informacion.es,,,,funciones de la Generalitat Valenciana da explicaciones sobre su agenda el 29 de octubre de 2024 y su papel,,,,mensajes,2025-11-11T18:20:26,2025-11-11T18:20:26
76,campello,Sin clasificar,Algorfa se ¬´argentiniza¬ª: crece la pasi√≥n por Messi en Alicante https://www.informacion.es/deportes/2025/11/11/algorfa-argentiniza-crece-pasion-messi-123603420.html Algorfa se ¬´argentiniza¬ª: crece la pasi√≥n por Messi en Alicante Un millar de seguidores se dan cita este martes en las inmediaciones del hotel de concentraci√≥n de la selecci√≥n albiceleste Messiman√≠a en la provincia: llega el bus de...,WEB www.informacion.es,38.609596,-0.273310,30SYH3742076981,Alicante https://www,Comunitat Valenciana,,art,cache,2025-11-11T18:20:26,2025-11-11T18:20:26
77,campello,Sin clasificar,Maz√≥n se presenta como chivo expiatorio y vuelve a acusar a la CHJ y Aemet https://www.informacion.es/comunidad-valenciana/2025/11/11/mazon-presenta-chivo-expiatorio-vuelve-123608387.html Maz√≥n se presenta como chivo expiatorio y vuelve a acusar a la CHJ y Aemet El president reconoce en las Cortes Valencianas que si hubiera sabido la magnitud de la tragedia su agenda hubiera sido distinta pero...,WEB www.informacion.es,39.492508,-0.401445,30SYJ2345974656,Cortes Valencianas,Comunitat Valenciana,Comarca de Val√®ncia,drinking_water,nominatim,2025-11-11T19:20:29,2025-11-11T19:20:29
78,campello,Sin clasificar,La detenida en Alicante por herir a su hijo de 2 a√±os dice que no le ech√≥ nada en los ojos https://www.informacion.es/sucesos/sucesos-en-alicante/2025/11/11/detenida-alicante-herir-hijo-2-123609836.html La detenida en Alicante por herir a su hijo de 2 a√±os dice que no le ech√≥ nada en los ojos La madre afirma en el juzgado que ha llevado este a√±o 11 veces a su hijo al hospital y que desconoce el...,WEB www.informacion.es,,,,Alicante por herir a su hijo de 2 a√±os dice,,,,mensajes,2025-11-11T19:30:27,2025-11-11T19:30:27
79,campello,Sin clasificar,"El entrenamiento de Argentina en Algorfa, al detalle: de la visita de Mastantuono y Bragarnik al gol de Messi https://www.informacion.es/deportes/2025/11/11/messi-entrenamiento-argentina-algorfa-123613142.html El entrenamiento de Argentina en Algorfa, al detalle: de la visita de Mastantuono y Bragarnik al gol de Messi La vigente campeona del mundo ha completado su segundo d√≠a en tierras alicant...",WEB www.informacion.es,38.086212,-0.796152,30SXH9327617674,Algorfa,Comunitat Valenciana,el Baix Segura / La Vega Baja,administrative,nominatim,2025-11-11T21:50:37,2025-11-11T21:50:37
80,campello,Sin clasificar,"Los zascas de Baldov√≠ a Maz√≥n en la comisi√≥n de la dana: 'Eres un tipo sin conciencia' https://www.informacion.es/videos/nacional/2025/11/11/zascas-baldovi-mazon-comision-dana-123616517.html Los zascas de Baldov√≠ a Maz√≥n en la comisi√≥n de la dana: ""Eres un tipo sin conciencia"" El PSPV y Comprom√≠s han reprochado al 'president' de la Generalitat en funciones, Carlos Maz√≥n , que no haya asumido ""n...",WEB www.informacion.es,35.661543,139.698750,54SUE8221947189,comisi√≥n de la dana: 'Eres un tipo sin conciencia' https://www,,Ê∏ãË∞∑Âå∫,theatre,nominatim,2025-11-11T23:46:51,2025-11-11T23:46:51
81,campello,Sin clasificar,Maz√≥n se presenta como chivo expiatorio y vuelve a acusar a la CHJ y Aemet https://www.levante-emv.com/comunitat-valenciana/2025/11/11/mazon-presenta-chivo-expiatorio-vuelve-123602409.html Maz√≥n se presenta como chivo expiatorio y vuelve a acusar a la CHJ y Aemet El president reconoce en las Corts que si hubiera sabido la magnitud de la tragedia su agenda hubiera sido distinta pero no aclara lo...,WEB www.levante-emv.com,44.381214,-0.008140,30TYQ3833118569,Corts,Nouvelle-Aquitaine,Gironde,administrative,nominatim,2025-11-12T00:27:12,2025-11-12T00:27:12
82,campello,Sin clasificar,"La condena que le puede caer al racista del sector 5 de Mestalla https://www.levante-emv.com/deportes/2025/11/11/pena-racista-mestalla-insultos-futbol-campo-del-valencia-cf-123593471.html La condena que le puede caer al racista del sector 5 de Mestalla La Fiscal√≠a deber√° decidir, en el caso de incoar diligencias por la v√≠a penal, si los insultos constituyen un delito contra la integridad moral...",WEB www.levante-emv.com,,,,caso de incoar diligencias por la v√≠a penal,,,,mensajes,2025-11-12T00:27:13,2025-11-12T00:27:13
83,campello,Criminalidad,"El trabajador que apu√±al√≥ a su compa√±ero durante una pelea en Mercaval√®ncia: 'Me estaba insultando y estall√©' https://www.levante-emv.com/sucesos/2025/11/11/tentativa-de-homicidio-trabajador-acuchilla-navaja-companero-durante-pelea-discusion-mercavalencia-123597459.html El trabajador que apu√±al√≥ a su compa√±ero durante una pelea en Mercaval√®ncia: ""Me estaba insultando y estall√©"" El agresor, que...",WEB www.levante-emv.com,35.661543,139.698750,54SUE8221947189,Mercaval√®ncia: 'Me estaba insultando y estall√©' https://www,,Ê∏ãË∞∑Âå∫,theatre,nominatim,2025-11-12T00:27:13,2025-11-12T00:27:13
