id,pais,categoria,descripcion,fuente,lat,lon,mgrs,place,admin1,admin2,accuracy,geocode_source,created_at,updated_at
1,campello,Sin clasificar,"üé¨ Cinef√≤rum i taller d'igualtat al Casal Jove de #D√©nia Aquest novembre parlem d‚Äôigualtat, llibertat i respecte üíú Els divendres del mes (7, 14 i 21 de novembre) tens una cita al Casal Jove amb un taller pensat per reflexionar, trencar t√≤pics i entendre millor com podem prevenir la viol√®ncia de g√®nere.",@AjuntamentDeDenia,49.177736,-0.357514,30UXV9257950575,"Els divendres del mes (7, 14 i 21 de novembre",Normandie,Calvados,tertiary,nominatim,2025-11-14T10:06:44,2025-11-14T10:06:44
2,campello,Disturbios Civiles,Noticias de Alicante El plan que los juzgados de Marca Comunitaria de Alicante han puesto en marcha para resolver las peticiones de medidas cautelares en casos de pirater√≠a va a suponer que el a√±o acabe con cerca de ochenta intervenciones a lo largo de este a√±o.,@AlicanteDirectoNews,,,,marcha para resolver las peticiones de medidas cautelares en casos de pirater√≠a va a suponer,,,,mensajes,2025-11-14T10:06:44,2025-11-14T10:06:44
3,campello,Sin clasificar,Dosier de Prensa üì∞üì∞El anuncio de dimisi√≥n como concejal de Juan Manuel del Pino centra el dosier de prensa de hoy. Consulta esta y otras noticias en el dosier de prensa. üìÖ 14/11/2025 üåê https://noticias.calp.es/es/noticia/dosier-de-prensa-14-de-noviembre-1 üîñ #Noticia,@AyuntamientodeCalp,,,,dosier de prensa,,,,mensajes,2025-11-14T10:06:44,2025-11-14T10:06:44
4,campello,Sin clasificar,"DOSIER DE PRENSA (14 DE NOVIEMBRE) | Noticias del Ayuntamiento de Calp https://noticias.calp.es/es/noticia/dosier-de-prensa-14-de-noviembre-1 Dimite Juan Manuel del Pino, mano derecha de la alcaldesa de Calp Juan Manuel del Pino dimitir√° cuando se aprueben los presupuestos de Calp La vida en el tripartito de Calp despu√©s de Juan Manuel El n√∫mero dos de la alcaldesa de Calp, Juan Manuel del Pino...",WEB noticias.calp.es,,,,tripartito de Calp despu√©s de Juan Manuel El n√∫mero dos de la alcaldesa de Calp,,,,mensajes,2025-11-14T10:07:20,2025-11-14T10:07:20
5,campello,Sin clasificar,Noticias de Alicante La Federaci√≥ de Fogueres busca talento en Alicante.,@AlicanteDirectoNews,38.343637,-0.488171,30SYH1951546929,Alicante,Comunitat Valenciana,Alacant / Alicante,administrative,cache,2025-11-14T10:08:55,2025-11-14T10:08:55
6,campello,Sin clasificar,Un interno encadena dos episodios violentos en una semana en la prisi√≥n de Villena https://diariodealicante.net/interno-violento-villena-dos-episodios-semana/,@diarioAlicante,,,,una semana,,,,mensajes,2025-11-14T10:10:57,2025-11-14T10:10:57
7,campello,Sin clasificar,"‚ÄºÔ∏è Tancats Torrecremada, el Castell, placa de Jaume I i Bosc de Diana pel vent.",@AjuntamentDeDenia,,,,Tancats Torrecremada,,,,mensajes,2025-11-14T10:18:55,2025-11-14T10:18:55
8,campello,Sin clasificar,Adjudicadas las obras de reforma y ampliaci√≥n del CEIP Manuel Torres https://diariodealicante.net/obras-ceip-manuel-torres/,@diarioAlicante,,,,Adjudicadas,,,,mensajes,2025-11-14T10:24:55,2025-11-14T10:24:55
9,campello,Sin clasificar,Rescatado un serval en un domicilio particular de Alicante https://diariodealicante.net/rescatado-serval-domicilio-particular-de-alicante/,@diarioAlicante,,,,un domicilio particular de Alicante https://diariodealicante,,,,mensajes,2025-11-14T10:34:55,2025-11-14T10:34:55
10,campello,Sin clasificar,"El Ayuntamiento de Calp aprueba su hoja de ruta para un turismo m√°s inteligente, sostenible e inclusivo | Noticias del Ayuntamiento de Calp https://noticias.calp.es/es/noticia/el-ayuntamiento-de-calp-aprueba-su-hoja-de-ruta-para-un-turismo-m%C3%A1s-inteligente-sostenible-e El Ayuntamiento de Calp aprueba su hoja de ruta para un turismo m√°s inteligente, sostenible e inclusivo El Pleno del Ayunta...",WEB noticias.calp.es,42.907433,-2.064592,30TWN7635850959,Ayuntamiento,Navarra - Nafarroa,Sakana,townhall,cache,2025-11-14T11:30:51,2025-11-14T11:30:51
11,campello,Sin clasificar,üå≥ Reoberts els parcs i zones verdes.,@AjuntamentDeDenia,,,,Reoberts,,,,mensajes,2025-11-14T11:40:34,2025-11-14T11:40:34
12,campello,Sin clasificar,Noticias de Alicante Los cielos despejados se han despedidos de Alicante esta ma√±ana; la bruma ha pasado a ser protagonista en la capital alicantina y muchos vecinos han amanecido sorprendidos por su densidad.,@AlicanteDirectoNews,,,,capital alicantina y muchos vecinos,,,,mensajes,2025-11-14T11:40:34,2025-11-14T11:40:34
13,campello,Sin clasificar,Noticias de Alicante El inicio de las obras de renovaci√≥n de la calle San Francisco de Alicante est√° cada d√≠a m√°s cerca tras a√±os de peticiones de vecinos y comerciantes.,@AlicanteDirectoNews,,,,tras a√±os de peticiones de vecinos y comerciantes,,,,mensajes,2025-11-14T11:40:34,2025-11-14T11:40:34
14,campello,Sin clasificar,Horario Biblioteca üìö Horario Biblioteca P√∫blica Municipal Joanot Martorell La Biblioteca Municipal abre sus puertas en el siguiente horario: üóìÔ∏è De lunes a viernes ‚è∞ 09:00 h ‚Äì 20:00 h üóìÔ∏è S√°bados ‚è∞ 09:30 h ‚Äì 13:30 h üìÖ 14/11/2025 00:00 https://calpcomunica.calp.es/event/horario-biblioteca/?lang=es üîñ #Cultura,@AyuntamientodeCalp,43.054273,2.512472,31TDH6029766957,siguiente horario: üóìÔ∏è De lunes a viernes ‚è∞ 09:00 h ‚Äì 20:00 h üóìÔ∏è S√°bados ‚è∞ 09:30 h ‚Äì 13:30 h üìÖ 14/11/2025 00:00 https://calpcomunica,Occitanie,Aude,administrative,nominatim,2025-11-14T11:40:34,2025-11-14T11:40:34
15,campello,Sin clasificar,Alicante tendr√° un fin de semana variable con lluvia d√©bil el domingo https://diariodealicante.net/alicante-fin-semana-lluvia/,@diarioAlicante,38.343637,-0.488171,30SYH1951546929,Alicante,Comunitat Valenciana,Alacant / Alicante,administrative,cache,2025-11-14T11:40:35,2025-11-14T11:40:35
16,campello,Sin clasificar,"La Comunitat Valenciana encadena cinco meses de subidas y alcanza el 3,5% de inflaci√≥n en octubre https://diariodealicante.net/valenciadiari-com-inflacion-comunitat-valenciana-datos-octubre/",@diarioAlicante,,,,octubre https://diariodealicante,,,,mensajes,2025-11-14T11:40:35,2025-11-14T11:40:35
17,campello,Sin clasificar,La Diputaci√≥n de Alicante cierra un a√±o expositivo destacado gracias al convenio cultural con la Generalitat https://diariodealicante.net/exposiciones-diputacion-alicante-balance/,@diarioAlicante,38.345813,-0.492433,30SYH1913647160,Diputaci√≥n,Comunitat Valenciana,Alacant / Alicante,neighbourhood,cache,2025-11-14T11:40:35,2025-11-14T11:40:35
18,campello,Sin clasificar,"Maz√≥n admite que la Generalitat no alert√≥ sobre su √∫nica presa el 29-O, que se desbord√≥ y caus√≥ al menos dos muertos https://www.informacion.es/comunidad-valenciana/2025/11/13/mazon-admite-generalitat-alerto-unica-presa-autonomica-desbordo-dana-123701481.html Maz√≥n admite que la Generalitat no alert√≥ sobre su √∫nica presa el 29-O, que se desbord√≥ y caus√≥ al menos dos muertos La documentaci√≥n ent...",WEB www.informacion.es,41.241422,-88.419510,16TCL8105266529,Maz√≥n,Illinois,Grundy County,administrative,cache,2025-11-14T11:40:47,2025-11-14T11:40:47
19,campello,Sin clasificar,"El PP opta por la calma y sigue a la espera de las exigencias de Vox https://www.informacion.es/politica/2025/11/14/pp-opta-calma-sigue-espera-123711009.html El PP opta por la calma y sigue a la espera de las exigencias de Vox Tras acortar plazos en la investidura de Maz√≥n para alejar su pacto con Vox de las generales, el PP dilata ahora el proceso con P√©rez Llorca para evitar que declare ante...",WEB www.informacion.es,,,,investidura de Maz√≥n para alejar su pacto con Vox de las generales,,,,mensajes,2025-11-14T11:40:47,2025-11-14T11:40:47
20,campello,Sin clasificar,"As√≠ ser√° la renovaci√≥n de la ‚Äúcalle de las setas‚Äù de Alicante: duraci√≥n, fecha y fases https://www.informacion.es/alicante/2025/11/14/alicante-obras-renovacion-calle-setas-san-francisco-123693603.html As√≠ ser√° la renovaci√≥n de la ‚Äúcalle de las setas‚Äù de Alicante: duraci√≥n, fecha y fases La empresa Nerco Infraestructuras apunta a ser la adjudicataria de unas obras que empezar√°n por el tramo m√°s...",WEB www.informacion.es,51.208697,89.234375,45UXS5607275405,As√≠,,,continent,cache,2025-11-14T11:40:48,2025-11-14T11:40:48
21,campello,Sin clasificar,"Arturo Delgado, inspector de Hacienda local: 'Habr√≠a que derogar el p√°rrafo de la ley que regula la tasa de basura' https://www.informacion.es/economia/2025/11/14/delgado-inspector-hacienda-derogar-ley-tasa-basura-123694693.html Arturo Delgado, inspector de Hacienda local: ""Habr√≠a que derogar el p√°rrafo de la ley que regula la tasa de basura"" El presidente de la Asociaci√≥n Nacional de Inspector...",WEB www.informacion.es,19.384343,-99.218038,14QMG7710443369,Arturo Delgado,Ciudad de M√©xico,Ciudad de M√©xico,living_street,nominatim,2025-11-14T11:40:49,2025-11-14T11:40:49
22,campello,Sin clasificar,Llega la primera edici√≥n del Riurau Dansa Film Festival a J√°vea https://diariodealicante.net/riurau-dansa-film-festival-javea/,@diarioAlicante,22.386289,-79.946709,17QPE0842975964,Llega,Villa Clara,Ciudad de Santa Clara,neighbourhood,nominatim,2025-11-14T11:42:27,2025-11-14T11:42:27
23,campello,Sin clasificar,"üéì Escola d'Associacions ‚úèÔ∏è PR√íXIM TALLER üëáüèªüëáüèªüëáüèª üîú Dissabte 22 de novembre, ""Incrementar la base social i la participaci√≥"" üìå A la Casa de la Cultura, de 10 a 13.30 h.",@AjuntamentDeDenia,-11.692751,-40.172968,24LUN7216007155,Escola,Bahia,Regi√£o Geogr√°fica Imediata de Feira de Santana,hamlet,nominatim,2025-11-14T11:45:26,2025-11-14T11:45:26
24,campello,Sin clasificar,El paseo de Muchavista acoge este domingo la caminata-carrera por el D√≠a Mundial de la Diabetes https://diariodealicante.net/el-campello-caminata-dia-mundial-diabetes/,@diarioAlicante,38.396929,-0.406688,30SYH2647153041,Muchavista,Comunitat Valenciana,,tram_stop,nominatim,2025-11-14T11:45:27,2025-11-14T11:45:27
25,campello,Sin clasificar,Barcala recibe a las candidatas de la Fafba y afirma que 'represent√°is a unos barrios que construyen ciudad' https://diariodealicante.net/barcala-candidatas-fafba/,@diarioAlicante,42.927737,-8.789618,29TNH1716752811,Barcala,Galicia,A Barcala,administrative,cache,2025-11-14T11:57:44,2025-11-14T11:57:44
26,campello,Sin clasificar,Los alumnos de la UMH podr√°n hacer pr√°cticas en √Ä Punt los pr√≥ximos cuatro a√±os https://diariodealicante.net/alumnos-umh-practicas-apunt-proximos-cuatro-anos/,@diarioAlicante,46.176890,9.982400,32TNS7582614170,Punt,Lombardia,Sondrio,administrative,nominatim,2025-11-14T11:58:44,2025-11-14T11:58:44
27,campello,Sin clasificar,"üß† Este lunes comienzan las III Jornadas de Protecci√≥n de la Salud organizadas por el Ayuntamiento de Calp en la Sede Universitaria Casa Nova, un encuentro centrado este a√±o en el lema ‚ÄúDe la Salud Mental a la Salud Social‚Äù.",@AyuntamientodeCalp,,,,Sede Universitaria Casa Nova,,,,mensajes,2025-11-14T12:00:44,2025-11-14T12:00:44
28,campello,Sin clasificar,"Ja estem en marxa! üíâü¶† FIns a les 12 h, al Centre Social, jornada de vacunaci√≥ per a majors de 60 anys (grip / COVID-19), a c√†rrec de personal de la üë©‚Äç‚öïÔ∏è Zona B√†sica de Salut de #D√©nia.",@AjuntamentDeDenia,,,,marxa! üíâü¶† FIns a les 12 h,,,,mensajes,2025-11-14T12:01:43,2025-11-14T12:01:43
29,campello,Sin clasificar,"Noticias de Alicante Una intensa nube de polvo cubre parte de la ciudad de Alicante, especialmente en el litoral sur.",@AlicanteDirectoNews,18.520037,-69.917828,19QDA0312147968,litoral sur,Santo Domingo,Santo Domingo Norte,residential,nominatim,2025-11-14T12:08:44,2025-11-14T12:08:44
30,campello,Sin clasificar,Noticias de Alicante El tiempo sigue loco.,@AlicanteDirectoNews,38.343637,-0.488171,30SYH1951546929,Alicante El,Comunitat Valenciana,Alacant / Alicante,administrative,cache,2025-11-14T12:08:44,2025-11-14T12:08:44
31,campello,Sin clasificar,"Noticias de Alicante La cuenta de divulgaci√≥n Proyecto Mastral ha publicado unas im√°genes cedidas por la usuaria Agnieszka, que capt√≥ -como pudo- las proximidades del aeropuerto de Alicante - Elche Miguel Hern√°ndez desde cielo.",@AlicanteDirectoNews,38.085258,-85.867609,16SEH9930715880,Alicante La,Kentucky,Jefferson County,residential,cache,2025-11-14T12:08:44,2025-11-14T12:08:44
32,campello,Sin clasificar,El Conservatorio de Mutxamel impulsa la formaci√≥n tecnol√≥gica con una nueva sala de Inform√°tica Musical https://diariodealicante.net/conservatorio-mutxamel-formacion-tecnologica/,@diarioAlicante,40.293249,-3.745767,30TVK3661460572,Conservatorio,Comunidad de Madrid,Getafe,station,nominatim,2025-11-14T12:19:44,2025-11-14T12:19:44
33,campello,Sin clasificar,"El Aeropuerto Miguel Hern√°ndez supera en octubre los 1,9 millones de viajeros, otro mes r√©cord https://diariodealicante.net/aeropuerto-miguel-hernandez-octubre/",@diarioAlicante,-12.011661,-77.087529,18LTM7271771294,octubre los 1,Lima,Lima,house,nominatim,2025-11-14T12:26:44,2025-11-14T12:26:44
34,campello,Sin clasificar,La jueza deja en libertad tras casi un mes en prisi√≥n a los detenidos por la agresi√≥n junto a una discoteca de Alicante https://www.informacion.es/sucesos/sucesos-en-alicante/2025/11/14/jueza-deja-libertad-orden-alejamiento-detenidos-agresion-discoteca-alicante-123719977.html La jueza deja en libertad tras casi un mes en prisi√≥n a los detenidos por la agresi√≥n junto a una discoteca de Alicante...,WEB www.informacion.es,35.661543,139.698750,54SUE8221947189,libertad tras casi un mes en prisi√≥n a los detenidos por la agresi√≥n junto a una discoteca de Alicante https://www,,Ê∏ãË∞∑Âå∫,theatre,nominatim,2025-11-14T15:26:55,2025-11-14T15:26:55
35,campello,Sin clasificar,"El asesor de Pradas confirma que una ausencia de la consellera y Arg√ºeso del Cecopi se deb√≠a a 'un tema de Presidencia' de la Generalitat https://www.informacion.es/politica/2025/11/14/asesor-salome-pradas-es-alert-cecopi-dana-valencia-123713458.html El asesor de Pradas confirma que una ausencia de la consellera y Arg√ºeso del Cecopi se deb√≠a a ""un tema de Presidencia"" de la Generalitat Asegura...",WEB www.informacion.es,43.613200,1.973370,31TDJ1715729425,Pradas,Occitanie,Tarn,administrative,nominatim,2025-11-14T15:26:55,2025-11-14T15:26:55
36,campello,Sin clasificar,"El juez procesa a Errej√≥n por la presunta agresi√≥n sexual a la actriz Elisa Moulia√°, cuyo testimonio ve 'coherente en lo esencial' https://www.informacion.es/nacional/2025/11/14/juez-procesa-inigo-errejon-presunta-agresion-sexual-mouliaa-testimonio-coherente-123716273.html El juez procesa a Errej√≥n por la presunta agresi√≥n sexual a la actriz Elisa Moulia√°, cuyo testimonio ve ""coherente en lo es...",WEB www.informacion.es,35.661543,139.698750,54SUE8221947189,lo esencial' https://www,,Ê∏ãË∞∑Âå∫,theatre,nominatim,2025-11-14T15:26:56,2025-11-14T15:26:56
37,campello,Sin clasificar,"ü©∞ Cap de setmana d'Ultramar Dansa! ü´Ç Hui divendres, 14 de novembre, la companyia valenciana Fil d‚ÄôArena representa ""Cos a cos"", una proposta multidisciplinar que combina dansa, teatre i circ.",@AjuntamentDeDenia,48.862890,2.288981,31UDQ4785112457,Cap,√éle-de-France,Paris,museum,nominatim,2025-11-14T17:50:44,2025-11-14T17:50:44
38,campello,Sin clasificar,Noticias de Alicante Las sombras volver√°n a la avenida de la Constituci√≥n tres a√±os despu√©s de la pol√©mica salida de las melias.,@AlicanteDirectoNews,-33.421450,-70.582245,19HCD5289200870,Alicante Las,Regi√≥n Metropolitana de Santiago,Provincia de Santiago,residential,nominatim,2025-11-14T17:50:44,2025-11-14T17:50:44
39,campello,Sin clasificar,Noticias de Alicante El Diario Oficial de la Generalitat Valenciana (DOGV) ha publicado este viernes la relaci√≥n de fiestas locales de todos los municipios de la Comunidad Valenciana.,@AlicanteDirectoNews,,,,Noticias de Alicante El Diario Oficial de la Generalitat Valenciana (DOGV,,,,mensajes,2025-11-14T17:50:44,2025-11-14T17:50:44
40,campello,Sin clasificar,"Noticias de Alicante La vida poco saludable est√° detr√°s de que se haya adelantado la edad en que debuta la diabetes tipo 2, que hace su aparici√≥n cada vez m√°s a menudo en personas de 30 a√±os pese a ser m√°s propia de edades avanzadas, con casos en ni√±os y adolescentes.",@AlicanteDirectoNews,38.085258,-85.867609,16SEH9930715880,Alicante La,Kentucky,Jefferson County,residential,cache,2025-11-14T17:50:44,2025-11-14T17:50:44
41,campello,Sin clasificar,Noticias de Alicante La Autoridad Portuaria y la Polic√≠a Portuaria han comenzado a intervenir sobre los tuctucs en un contexto de descontrol en la ciudad.,@AlicanteDirectoNews,,,,un contexto de descontrol en la,,,,mensajes,2025-11-14T17:50:44,2025-11-14T17:50:44
42,campello,Sin clasificar,"Noticias de Alicante El Bel√©n vuelve a llenar el ""hall"" del Ayuntamiento de Alicante.",@AlicanteDirectoNews,38.484818,-0.781682,30SXH9348461940,Alicante El Bel√©n,Comunitat Valenciana,,bakery,nominatim,2025-11-14T17:50:44,2025-11-14T17:50:44
43,campello,Sin clasificar,"Noticias de Alicante El ejecutivo local del PP y los concejales de Vox en Alicante vuelven a mostrar su acercamiento pol√≠tico en un acto p√∫blico que pone de relieve la creciente colaboraci√≥n entre ambas formaciones, que por momento parecen miembros de un mismo equipo de gobierno. via Informaci√≥n - Alicante https://ift.tt/2uOZ6Po #AlicanteDirecto #Noticias #Alicante #Alacant #Fiestas #Eventos",@AlicanteDirectoNews,,,,Alicante vuelven a mostrar su acercamiento pol√≠tico en un acto p√∫blico,,,,mensajes,2025-11-14T17:50:44,2025-11-14T17:50:44
44,campello,Sin clasificar,"Noticias de Alicante El √∫ltimo informe de seguridad de la Escuela de Arte y Superior de Dise√±o de Alicante (Easda) ya advirti√≥ del ""riesgo estructural en soportales y zonas de paso"", adem√°s de ""deficiencias graves"" en el mantenimiento de las instalaciones, seg√∫n el sindicato STEPV, que ha visitado las instalaciones donde la comunidad educativa est√° en pie de guerra por el estado en el que se en...",@AlicanteDirectoNews,,,,soportales y zonas de paso,,,,mensajes,2025-11-14T17:50:44,2025-11-14T17:50:44
45,campello,Sin clasificar,Noticias de Alicante El culebr√≥n de la biblioteca Azor√≠n parece tener los d√≠as contados.,@AlicanteDirectoNews,38.343637,-0.488171,30SYH1951546929,Alicante El,Comunitat Valenciana,Alacant / Alicante,administrative,cache,2025-11-14T17:50:44,2025-11-14T17:50:44
46,campello,Sin clasificar,"Noticias de Alicante Los directores de los colegios p√∫blicos han exigido a la Conselleria de Educaci√≥n una rectificaci√≥n del nuevo protocolo de emergencias para actuar en los centros educativos ante fen√≥menos, como una dana, y la retirada de las sanciones previstas para los profesores si se saltan la nueva normativa frente a una alerta meteorol√≥gica.",@AlicanteDirectoNews,,,,centros educativos ante fen√≥menos,,,,mensajes,2025-11-14T17:50:44,2025-11-14T17:50:44
47,campello,Sin clasificar,Camina Calp üö∂‚Äç‚ôÄÔ∏èüö∂‚Äç‚ôÇÔ∏èEl Centro de Salud de Calp organiza paseos saludables por el municipio. üóìÔ∏èTodos los martes y jueves a partir del 11 de noviembre a las 9:30 horas desde las escaleras del Hotel SolyMar (zona Los Pinos). üìÖ 14/11/2025 00:00 https://calpcomunica.calp.es/event/camina-calp/?lang=es üîñ #Anuncios,@AyuntamientodeCalp,,,,Hotel SolyMar (zona Los Pinos,,,,mensajes,2025-11-14T17:50:44,2025-11-14T17:50:44
48,campello,Sin clasificar,"‚ôªÔ∏è Calp avanza hacia un turismo m√°s inteligente, sostenible e inclusivo El Ayuntamiento de Calp ha aprobado por unanimidad su nueva hoja de ruta tur√≠stica, un compromiso que apuesta por un modelo m√°s equilibrado, responsable y alineado con los retos actuales.",@AyuntamientodeCalp,38.644325,0.046012,31SBC4290881448,Calp,Comunitat Valenciana,,administrative,cache,2025-11-14T17:50:44,2025-11-14T17:50:44
49,campello,Sin clasificar,"üéÑ‚ú® ¬°Vuelve el Concurso de Escaparatismo de Navidad en Calp! ‚ú®üéÑ Si tienes un comercio en Calp, es tu oportunidad para llenar de creatividad, luz y esp√≠ritu navide√±o tu escaparate.",@AyuntamientodeCalp,,,,Calp! ‚ú®üéÑ Si tienes un comercio en Calp,,,,mensajes,2025-11-14T17:50:44,2025-11-14T17:50:44
50,campello,Sin clasificar,"Dem√† dissabte 15 de novembre, de 10:00 a 13:30 h, la Pla√ßa de la Constituci√≥ acollir√† la celebraci√≥ del Dia de la Inf√†ncia 2025.",@ajuntamentdexabia,37.420378,-82.805160,17SLB4026543037,Dem√†,Kentucky,Floyd County,hamlet,cache,2025-11-14T17:50:44,2025-11-14T17:50:44
51,campello,Sin clasificar,Elche conmemora el 25N con la lectura del manifiesto en l‚ÄôHort del Xocolater https://diariodealicante.net/elche-25n-hort-xocolater/,@diarioAlicante,,,,l‚ÄôHort del Xocolater https://diariodealicante,,,,mensajes,2025-11-14T17:50:45,2025-11-14T17:50:45
52,campello,Sin clasificar,Comprom√≠s reconoce la labor social de toda una vida en Colonia Requena a Antonio Colomina https://diariodealicante.net/compromis-reconoce-labor-social-antonio-colomina/,@diarioAlicante,,,,Colonia Requena a Antonio Colomina https://diariodealicante,,,,mensajes,2025-11-14T17:50:45,2025-11-14T17:50:45
53,campello,Sin clasificar,Alicante incorpora 11 nuevos veh√≠culos a la Polic√≠a Local y estrena una Oficina M√≥vil de Atenci√≥n al Ciudadano https://diariodealicante.net/nuevos-vehiculos-policia-local-alicante-oficina-movil/,@diarioAlicante,38.343637,-0.488171,30SYH1951546929,Alicante,Comunitat Valenciana,Alacant / Alicante,administrative,cache,2025-11-14T17:50:45,2025-11-14T17:50:45
54,campello,Sin clasificar,La Uni√≥ acusa a Generalitat de desviar 54 millones del campo valenciano a otros sectores en menos de un mes https://diariodealicante.net/unio-acusa-generalitat-desviar-millones-campo-valenciano/,@diarioAlicante,,,,menos de un mes https://diariodealicante,,,,mensajes,2025-11-14T17:50:45,2025-11-14T17:50:45
55,campello,Sin clasificar,Torrevieja adjudica la redacci√≥n del proyecto para construir una nueva piscina climatizada en la Ciudad Deportiva https://diariodealicante.net/piscina-climatizada-torrevieja-proyecto/,@diarioAlicante,,,,Deportiva https://diariodealicante,,,,mensajes,2025-11-14T17:50:45,2025-11-14T17:50:45
56,campello,Sin clasificar,La Comunitat incorpora tecnolog√≠a avanzada para controlar la diabetes y promueve una gu√≠a de detecci√≥n temprana https://diariodealicante.net/comunitat-tecnologia-diabetes/,@diarioAlicante,39.681959,-0.765441,30SXJ9163294845,Comunitat,Comunitat Valenciana,,administrative,nominatim,2025-11-14T17:50:45,2025-11-14T17:50:45
57,campello,Sin clasificar,Elche inicia las obras de mejora de la accesibilidad en la calle Mare D√©u de l‚ÄôAssumpci√≥ https://diariodealicante.net/elche-mejora-accesibilidad-mare-deu-assumpcio/,@diarioAlicante,,,,calle Mare D√©u de l‚ÄôAssumpci√≥ https://diariodealicante,,,,mensajes,2025-11-14T17:50:45,2025-11-14T17:50:45
58,campello,Criminalidad,Detienen a tres personas por el homicidio de un hombre al que le robaron un tel√©fono m√≥vil https://diariodealicante.net/detienen-tres-personas-homicidio-robaron-telefono-movil/,@diarioAlicante,,,,Detienen,,,,mensajes,2025-11-14T17:50:45,2025-11-14T17:50:45
59,campello,Sin clasificar,La avenida de la Constituci√≥n contar√° con zona de sombra para mejorar el confort clim√°tico https://diariodealicante.net/avenida-constitucion-sombra-confort-climatico/,@diarioAlicante,-35.331831,-72.411900,18HYF3523787083,Constituci√≥n,Regi√≥n del Maule,Provincia de Talca,administrative,nominatim,2025-11-14T17:50:45,2025-11-14T17:50:45
60,campello,Sin clasificar,Santa Pola refuerza su estrategia de desestacionalizaci√≥n tur√≠stica en la feria INTUR 2025 de Valladolid https://diariodealicante.net/santa-pola-desestacionalizacion-turistica-intur/,@diarioAlicante,,,,feria INTUR 2025 de Valladolid https://diariodealicante,,,,mensajes,2025-11-14T17:50:45,2025-11-14T17:50:45
61,campello,Sin clasificar,STEPV alerta del riesgo estructural en la Escuela de Arte de Alicante y reclama una soluci√≥n definitiva https://diariodealicante.net/stepv-riesgo-estructural-escuela-arte-alicante/,@diarioAlicante,,,,Escuela de Arte de Alicante y reclama una soluci√≥n definitiva https://diariodealicante,,,,mensajes,2025-11-14T17:50:45,2025-11-14T17:50:45
62,campello,Sin clasificar,"Alicante, Ministerio y Consell agilizan la rehabilitaci√≥n de la biblioteca Azor√≠n https://diariodealicante.net/alicante-ministerio-consell-rehabilitacion-biblioteca-azorin/",@diarioAlicante,38.343637,-0.488171,30SYH1951546929,Alicante,Comunitat Valenciana,Alacant / Alicante,administrative,cache,2025-11-14T17:50:45,2025-11-14T17:50:45
63,campello,Sin clasificar,El MARQ abre sus puertas al extraordinario legado arqueol√≥gico de D√©nia con piezas de valor incalculable https://diariodealicante.net/marq-legado-arqueologico-denia/,@diarioAlicante,45.793927,3.116222,31TEL0903271158,Marq,Auvergne-Rh√¥ne-Alpes,Puy-de-D√¥me,museum,nominatim,2025-11-14T17:50:45,2025-11-14T17:50:45
64,campello,Sin clasificar,Elche instala un vallado en el estanque de los patos del Parque Municipal como medida preventiva ante la gripe aviar https://diariodealicante.net/elche-vallado-patos-gripe-aviar/,@diarioAlicante,,,,estanque de los patos del Parque Municipal como medida preventiva ante la gripe aviar https://diariodealicante,,,,mensajes,2025-11-14T17:50:45,2025-11-14T17:50:45
65,campello,Sin clasificar,Reconocimiento en Benidorm a los polic√≠as locales distinguidos por actuaciones destacadas https://diariodealicante.net/reconocimiento-policias-locales/,@diarioAlicante,,,,Benidorm a los polic√≠as locales distinguidos por actuaciones destacadas https://diariodealicante,,,,mensajes,2025-11-14T17:50:45,2025-11-14T17:50:45
66,campello,Sin clasificar,El bolso solidario de Alinur cumple 12 a√±os y se presenta con una edici√≥n especial dise√±ada por Anekke https://diariodealicante.net/bolso-solidario-alinur-anekke/,@diarioAlicante,43.337679,76.956039,43TFJ5855900172,Alinur,,–¢“Ø—Ä–∫—Å—ñ–± –ê—É–¥–∞–Ω—ã,fast_food,nominatim,2025-11-14T17:50:45,2025-11-14T17:50:45
67,campello,Sin clasificar,Murcia y Valencia estudian acciones legales ante 'irregularidades' en la gesti√≥n del Tajo https://diariodealicante.net/murcia-valencia-accciones-legales-gestion-tajo/,@diarioAlicante,,,,gesti√≥n del Tajo https://diariodealicante,,,,mensajes,2025-11-14T17:50:45,2025-11-14T17:50:45
68,campello,Sin clasificar,"La Generalitat aumenta la capacidad de depuraci√≥n de Orihuela Costa tras finalizar una reforma integral de 6,6 millones de euros https://diariodealicante.net/generalitat-aumenta-capacidad-depuracion-orihuela-costa/",@diarioAlicante,41.382840,2.176742,31TDF3116481584,Generalitat,Catalunya,Barcelon√®s,government,cache,2025-11-14T17:50:45,2025-11-14T17:50:45
69,campello,Sin clasificar,"Asaja Alicante exige rentabilidad, investigaci√≥n y agua como pilares del futuro citr√≠cola alicantino https://diariodealicante.net/asaja-alicante-investigacion-futuro-citricola/",@diarioAlicante,,,,Asaja Alicante,,,,mensajes,2025-11-14T17:50:45,2025-11-14T17:50:45
70,campello,Sin clasificar,La Generalitat impulsa m√°s vivienda protegida con la licitaci√≥n de tres nuevas parcelas en Alicante https://diariodealicante.net/vivienda-protegida-nuevas-parcelas-alicante/,@diarioAlicante,38.609596,-0.273310,30SYH3742076981,Alicante https://diariodealicante,Comunitat Valenciana,,art,cache,2025-11-14T17:50:45,2025-11-14T17:50:45
71,campello,Hazards,"Reconocimiento a la Polic√≠a Local de Aspe y de un ciudadano por su ejemplar actuaci√≥n en un incendio Ayuntamiento de Aspe (RSS) La Agencia Valenciana de Seguridad y Respuesta a las Emergencias (AVSRE) ha otorgado varias distinciones honor√≠ficas a miembros de la Polic√≠a Local de Aspe y a un ciudadano por su destacada intervenci√≥n en un incendio ocurrido hace dos a√±osen el municipio, donde auxili...",@santaelenaaspe,-12.211501,-55.571655,21LXG5538049649,un incendio Ayuntamiento de Aspe (RSS) La Agencia Valenciana de Seguridad y Respuesta a las Emergencias (AVSRE),Mato Grosso,,administrative,nominatim,2025-11-14T17:50:45,2025-11-14T17:50:45
72,campello,Sin clasificar,"üé≠‚ú® Llega a Calp uno de los grandes espect√°culos de danza del a√±o El pr√≥ximo jueves 11 de diciembre a las 19:00h, el Auditorio de la Casa de Cultura acoge una cita imperdible para los amantes del ballet.üéüÔ∏è Entradas: Entrada general: 35 ‚Ç¨ Grupos (+10 personas) y jubilados: 31,50 ‚Ç¨ Descuento del 20% para Escuelas de Danza (alumnado, profesorado y familiares con c√≥digo).",@AyuntamientodeCalp,,,,Grupos (+10 personas,,,,mensajes,2025-11-14T18:00:38,2025-11-14T18:00:38
73,campello,Sin clasificar,"√öltima Hora de Valencia | Toda la Actualidad y Noticias de Val√®ncia - Levante-EMV https://www.levante-emv.com/valencia/ El arbolado convertir√° la plaza del Ayuntamiento en un refugio clim√°tico: ""Habr√° tres grados menos en verano"" Aprueban la nueva comisar√≠a de la Polic√≠a Local de Val√®ncia en Malilla Modepran denuncia que la empresa aspirante a gestionar el refugio de Benim√†met est√° acusada de m...",WEB www.levante-emv.com,,,,"un refugio clim√°tico: ""Habr√° tres grados menos en verano"" Aprueban la nueva comisar√≠a de la Polic√≠a Local de Val√®ncia en Malilla Modepran denuncia",,,,mensajes,2025-11-14T18:52:55,2025-11-14T18:52:55
74,campello,Sin clasificar,Educaci√≥n | Noticias de Educaci√≥n - Levante-EMV https://www.levante-emv.com/comunitat-valenciana/educacion/ Coca-Cola acoge a m√°s de 80 estudiantes de FP en el Estadio de Mestalla de Valencia que participan en la XIV edici√≥n de GIRA J√≥venes Florida Moto Team gana MotoStudent 2025 con un prototipo pionero de combusti√≥n sostenible Universidades publica un nuevo decreto que contempla crear un mapa...,WEB www.levante-emv.com,,,,Estadio de Mestalla de Valencia,,,,mensajes,2025-11-14T18:52:58,2025-11-14T18:52:58
75,campello,Sin clasificar,Noticias de Alicante Los regantes no tiran la toalla tras el varapalo judicial que supuso la desestimaci√≥n del recurso de la Regi√≥n de Murcia en el Tribunal Supremo contra el Plan Hidrol√≥gico del Tajo y el recorte del trasvase Tajo-Segura que contempla. via Informaci√≥n - Alicante https://ift.tt/ycCnqju #AlicanteDirecto #Noticias #Alicante #Alacant #Fiestas #Eventos,@AlicanteDirectoNews,,,,Tribunal Supremo contra el Plan Hidrol√≥gico del Tajo y el recorte del trasvase Tajo-Segura,,,,mensajes,2025-11-14T19:08:38,2025-11-14T19:08:38
76,campello,Sin clasificar,"Certamen de Teatro üé≠ TEATRO EN CALP | ‚Äú7 A√±os‚Äù üìÖ Domingo, 16 de noviembre de 2025 üï† 18:30 h üìç Auditorio ‚Äì Casa de Cultura (Av.",@AyuntamientodeCalp,,,,CALP | ‚Äú7 A√±os‚Äù üìÖ Domingo,,,,mensajes,2025-11-14T20:00:26,2025-11-14T20:00:26
77,campello,Sin clasificar,"Una familia ten√≠a un felino salvaje como mascota en su casa de Orihuela Costa: 'No era como en las redes' https://www.informacion.es/elda/2025/11/14/rescatado-orihuela-serval-123711083.html Una familia ten√≠a un felino salvaje como mascota en su casa de Orihuela Costa: ""No era como en las redes"" El ejemplar ha sido trasladado a Primadomus de Villena despu√©s de que los propietarios asumieran que...",WEB www.informacion.es,,,,su casa de Orihuela Costa: 'No era como,,,,mensajes,2025-11-14T20:03:20,2025-11-14T20:03:20
78,campello,Sin clasificar,Muere un joven de 22 a√±os al caerle una palmera sobre el coche que conduc√≠a en la CV-95 de Torrevieja https://www.informacion.es/vega-baja/2025/11/14/herido-grave-caerle-palmera-coche-torrevieja-123734707.html Muere un joven de 22 a√±os al caerle una palmera sobre el coche que conduc√≠a en la CV-95 de Torrevieja La corona del ejemplar se ha desplomado sobre la parte delantera del coche El ejempla...,WEB www.informacion.es,35.661543,139.698750,54SUE8221947189,CV-95 de Torrevieja https://www,,Ê∏ãË∞∑Âå∫,theatre,nominatim,2025-11-14T20:08:05,2025-11-14T20:08:05
79,campello,Sin clasificar,"P√©rez Llorca acerca el acuerdo con Vox para su investidura https://www.informacion.es/comunidad-valenciana/2025/11/14/perez-llorca-acerca-acuerdo-vox-123735975.html P√©rez Llorca acerca el acuerdo con Vox para su investidura El candidato del PP destaca la ""buena sinton√≠a"" y la ""voluntad de alcanzar un acuerdo"" tras mantener este viernes una reuni√≥n con el partido de Santiago Abascal Juanfran P√©r...",WEB www.informacion.es,39.468483,-0.392010,30SYJ2434872013,P√©rez Llorca,Comunitat Valenciana,Comarca de Val√®ncia,bus_stop,cache,2025-11-14T20:08:05,2025-11-14T20:08:05
80,campello,Sin clasificar,"Interceptadas tres pateras con 18 migrantes en Torrevieja, Altea y X√†bia en las √∫ltimas 48 horas https://www.informacion.es/vega-baja/2025/11/14/pateras-inmigrantes-provincia-alicante-interceptadas-123731017.html Interceptadas tres pateras con 18 migrantes en Torrevieja, Altea y X√†bia en las √∫ltimas 48 horas Una de las embarcaciones lleg√≥ a plena luz del d√≠a al paseo de punta Margalla de la pla...",WEB www.informacion.es,37.977542,-0.682845,30SYH0351505856,Torrevieja,Comunitat Valenciana,el Baix Segura / La Vega Baja,administrative,cache,2025-11-14T20:08:06,2025-11-14T20:08:06
81,campello,Sin clasificar,"Noticias de Alicante La macroescombrera situada en la zona de Rabasa, junto al solar de la antigua f√°brica de tejas, ha alcanzado un nuevo nivel de degradaci√≥n.",@AlicanteDirectoNews,38.371087,-0.511292,30SYH1741249921,zona de Rabasa,Comunitat Valenciana,Alacant / Alicante,range,nominatim,2025-11-14T20:09:02,2025-11-14T20:09:02
82,campello,Sin clasificar,"Noticias de Alicante El IV oncocongreso de la Asociaci√≥n Alicante para la Lucha Contra el C√°ncer (AACC), que se celebrar√° este s√°bado 15 de noviembre en el Palacio de Congresos del Colegio de M√©dicos de Alicante, con la asistencia de 430 personas, dedicar√° una parte de su programa a abordar los aspectos legales y laborales que m√°s preocupan a las personas con c√°ncer, un tema de gran relevancia...",@AlicanteDirectoNews,,,,Palacio de Congresos del Colegio de M√©dicos de Alicante,,,,mensajes,2025-11-14T20:09:02,2025-11-14T20:09:02
83,campello,Sin clasificar,"Luis Rub√©n, el t√≠o que lanz√≥ huevos a Rubiales, es actor de 'La que se avecina' y 'Cu√©ntame' https://www.informacion.es/vida-y-estilo/gente/2025/11/14/luis-ruben-tio-lanzo-huevos-rubiales-actor-avecina-cuentame-123715988.html Luis Rub√©n, el t√≠o que lanz√≥ huevos a Rubiales, es actor de 'La que se avecina' y 'Cu√©ntame' Su familiar le lanz√≥ varios huevos al grito de ""sinverg√ºenza"" Esta semana, Lui...",WEB www.informacion.es,22.191766,-100.986208,14QKK9522955393,Luis Rub√©n,San Luis Potos√≠,Municipio de San Luis Potos√≠,administrative,nominatim,2025-11-14T21:07:58,2025-11-14T21:07:58
84,campello,Sin clasificar,Patos blindados de la gripe aviar en el Parque Municipal de Elche y anal√≠ticas en los parajes naturales https://www.informacion.es/elche/2025/11/14/patos-gripe-aviar-alerta-parque-municipal-elche-123731402.html Patos blindados de la gripe aviar en el Parque Municipal de Elche y anal√≠ticas en los parajes naturales El Ayuntamiento coloca vallas en el per√≠metro de los estanques para extremar la se...,WEB www.informacion.es,,,,Parque Municipal de Elche y anal√≠ticas,,,,mensajes,2025-11-14T21:58:30,2025-11-14T21:58:30
85,campello,Sin clasificar,El protocolo con sanciones ante una dana colma la paciencia de los directores de la Comunidad Valenciana https://www.informacion.es/alicante/2025/11/14/directores-rectificar-protocolo-emergencias-sanciones-alicante-dana-123726732.html El protocolo con sanciones ante una dana colma la paciencia de los directores de la Comunidad Valenciana Los responsables de los centros niegan tener formaci√≥n y...,WEB www.informacion.es,39.681959,-0.765441,30SXJ9163294845,Comunidad Valenciana,Comunitat Valenciana,,administrative,nominatim,2025-11-14T23:07:24,2025-11-14T23:07:24
86,campello,Sin clasificar,Este es el requisito que tendr√°n que cumplir desde este viernes en Alicante todos los hogares que tengan empleadas dom√©sticas https://www.informacion.es/economia/2025/11/14/requisito-tendran-cumplir-viernes-alicante-123736328.html Este es el requisito que tendr√°n que cumplir desde este viernes en Alicante todos los hogares que tengan empleadas dom√©sticas El Gobierno obliga a realizar una evalua...,WEB www.informacion.es,,,,Alicante todos los hogares,,,,mensajes,2025-11-14T23:55:37,2025-11-14T23:55:37
87,campello,Sin clasificar,üöß AV√çS IMPORTANT ‚Äì TALL DE TR√ÄNSIT üìÖ Dissabte 15 de novembre.,@AjuntamentDeDenia,,,,Av√≠s Important,,,,mensajes,2025-11-15T00:45:01,2025-11-15T00:45:01
88,campello,Sin clasificar,Noticias de Alicante Durante mucho tiempo uno de los mitos m√°s extendidos ha sido creer que una persona cuando envejece sufre un declive en su capacidad para hablar.,@AlicanteDirectoNews,,,,su capacidad para hablar,,,,mensajes,2025-11-15T00:45:01,2025-11-15T00:45:01
89,campello,Sin clasificar,"Noticias de Alicante Francisco Mart√≠n Irles ha tomado el relevo como secretario del Consejo Social de la Universidad de Alicante (UA), en sustituci√≥n de Ar√°nzazu Calzada.",@AlicanteDirectoNews,,,,sustituci√≥n de Ar√°nzazu Calzada,,,,mensajes,2025-11-15T00:45:01,2025-11-15T00:45:01
90,campello,Sin clasificar,Noticias de Alicante La Conselleria de Sanidad asegura que ha reforzado su estrategia para mejorar el tratamiento de la diabetes mediante la incorporaci√≥n de nuevos dispositivos de tecnolog√≠a avanzada que permiten un mayor control en la administraci√≥n de la insulina en pacientes.,@AlicanteDirectoNews,,,,administraci√≥n de la insulina en pacientes,,,,mensajes,2025-11-15T00:45:01,2025-11-15T00:45:01
91,campello,Sin clasificar,"Noticias de Alicante En la provincia de Alicante la prevalencia de la diabetes se sit√∫a aproximadamente en un 14 % de la poblaci√≥n, seg√∫n las √∫ltimas cifras de la Conselleria de Sanidad.",@AlicanteDirectoNews,,,,Alicante la prevalencia de la diabetes se sit√∫a aproximadamente en un 14 % de la poblaci√≥n,,,,mensajes,2025-11-15T00:45:01,2025-11-15T00:45:01
92,campello,Sin clasificar,Noticias de Alicante La Federaci√≥ de les Fogueres ha dado v√≠a libre a la reforma en el sistema de subvenciones municipales para el monumento de cara a las Hogueras 2026.,@AlicanteDirectoNews,,,,sistema de subvenciones municipales para el monumento de cara a las Hogueras 2026,,,,mensajes,2025-11-15T00:45:01,2025-11-15T00:45:01
93,campello,Sin clasificar,Fallece un conductor de 22 a√±os al caerle una palmera en una carretera de Torrevieja https://diariodealicante.net/fallece-conductor-caerle-palmeracarretera-de-torrevieja/,@diarioAlicante,,,,una carretera de Torrevieja https://diariodealicante,,,,mensajes,2025-11-15T00:45:03,2025-11-15T00:45:03
94,campello,Sin clasificar,Almorad√≠ inaugura el mayor parking de veh√≠culo compartido de la Comunitat Valenciana https://diariodealicante.net/parking-coche-compartido-almoradi/,@diarioAlicante,38.109662,-0.791932,30SXH9358420285,Almorad√≠,Comunitat Valenciana,el Baix Segura / La Vega Baja,administrative,nominatim,2025-11-15T00:45:03,2025-11-15T00:45:03
95,campello,Sin clasificar,Aspe Televisi√≥n | Aspe (Facebook) üëÆ‚Äç‚ôÇÔ∏è #AspeNoticias | La Generalitat reconoce el esfuerzo y la dedicaci√≥n al servicio p√∫blico y la seguridad ciudadana de 389 agentes de las polic√≠as locales de la provincia de Alicante.,@santaelenaaspe,,,,Aspe (Facebook,,,,mensajes,2025-11-15T00:45:04,2025-11-15T00:45:04
96,campello,Hazards,"Reconocimiento a la Polic√≠a Local de Aspe y a un ciudadano por su ejemplar actuaci√≥n en un incendio Noticias de Aspe (RSS) En un acto celebrado esta ma√±ana en Benidorm, la Agencia Valenciana de Seguridad y Respuesta a las Emergencias (AVSRE) ha otorgado varias distinciones honor√≠ficas a miembros de la Polic√≠a Local de Aspe ...",@santaelenaaspe,-12.211501,-55.571655,21LXG5538049649,un incendio Noticias de Aspe (RSS) En un acto celebrado esta ma√±ana en Benidorm,Mato Grosso,,administrative,nominatim,2025-11-15T00:45:04,2025-11-15T00:45:04
97,campello,Terrorismo,"Uni√≥n de Moros y Cristianos de Aspe | Aspe (Facebook) Esta noche hemos participado en la Cata y Maridaje de Panettone y Fondill√≥n ofrecida por Ra√∫l Asencio y Rafa Poveda. Hasta 8 variedades de panettone y fondill√≥n de 1964 y 1935 hemos podido saborear y disfrutar, en una sesi√≥n divertida y entretenida con el gran maestro pastelero y con el admirado en√≥logo monovero.",@santaelenaaspe,,,,Cata y Maridaje de Panettone y Fondill√≥n ofrecida por Ra√∫l Asencio y Rafa Poveda,,,,mensajes,2025-11-15T00:45:04,2025-11-15T00:45:04
98,campello,Sin clasificar,Aspe Televisi√≥n | Aspe (Facebook) üî¥‚úÖAspe al D√≠a üëâGala 1‚≠ïÔ∏è Aniversario #Cableworld Much√≠simas #Felicidades üòò ASPEALD√çA ‚úÖüî¥ OPINI√ìN P√öBLICA,@santaelenaaspe,,,,Aspe (Facebook,,,,mensajes,2025-11-15T09:41:49,2025-11-15T09:41:49
