id,pais,categoria,descripcion,fuente,lat,lon,mgrs,place,admin1,admin2,accuracy,geocode_source,created_at,updated_at
1,gaza,Sin clasificar,"Un profesor universitario que demandaba a la Universidad de Kentucky después de haber sido prohibido por sus opiniones sobre la ocupación israelí (https://www.alquds.com/ar/posts/208365), se registró con nosotros y publicó sus artículos en el Foro Al-Quds del sábado 15 de noviembre de 2025 a las 8.00 horas (hora de Jerusalén): un profesor universitario que demandaba a la Universidad de Kentucky...",WEB www.alquds.com,,,,Foro Al-Quds del sábado 15 de noviembre de 2025 a las 8,,,,mensajes,2025-11-15T08:08:46,2025-11-15T08:08:46
2,gaza,Sin clasificar,"El viernes, el Ministerio de Relaciones Exteriores de Palestina expresó su profundo agradecimiento por las posiciones iniciales de los dirigentes, el Gobierno y el pueblo de Sudáfrica en apoyo del pueblo palestino y de su causa, incluida la recepción de varios palestinos en la Franja de Gaza a la que se había hecho referencia.",WEB www.alquds.com,,,,apoyo del pueblo palestino y de su causa,,,,mensajes,2025-11-15T08:08:47,2025-11-15T08:08:47
3,gaza,Sin clasificar,"El sábado, el portavoz de la defensa civil de la Franja de Gaza lanzó un llamamiento urgente para que se prestara socorro a la crisis de viviendas asfixiantes de los desplazados internos en la Franja de Gaza.",WEB www.alquds.com,31.443223,34.360007,36RXV2923579524,Franja de Gaza,قطاع غزة,,administrative,cache,2025-11-15T08:29:29,2025-11-15T08:29:29
4,gaza,Sin clasificar,"En una declaración conjunta de los nueve Estados sobre la cesación del fuego, los Estados Unidos, junto con Qatar, Egipto, la Arabia Saudita, Indonesia, Jordania, el Pakistán y Turquía, reafirmaron su apoyo al proyecto de resolución presentado por Washington al Consejo de Seguridad sobre Gaza, considerando que constituía el marco internacional más importante para la aplicación del “Plan general...",WEB www.alquds.com,,,,una declaración conjunta de los nueve Estados sobre la cesación del fuego,,,,mensajes,2025-11-15T08:38:44,2025-11-15T08:38:44
5,gaza,Sin clasificar,Los detalles y las respuestas del viaje misterioso de Gaza a Johannesburgo (https://www.alquds.com/ar/posts/20833).,WEB www.alquds.com,-34.996496,-64.967282,20HLG2046225577,detalles y las respuestas del viaje misterioso de Gaza a Johannesburgo (https://www.alquds.com/ar/posts/20833,,,administrative,nominatim,2025-11-15T08:58:42,2025-11-15T08:58:42
6,gaza,Sin clasificar,"El cementerio de los príncipes y los mártires de Al-Aqsa (https://www.alquds.com/ar/posts/208382) fue grabado con nosotros y publicado en el Foro Al-Quds, 15 de noviembre de 2025, 8.44 horas (hora de Al-Quds, cementerio de Al-Khishid).",WEB www.alquds.com,,,,Foro Al-Quds,,,,mensajes,2025-11-15T08:58:42,2025-11-15T08:58:42
7,gaza,Sin clasificar,"Decenas de tiendas de campaña se hundieron en Mawasi Khan Younis con agua de lluvia, https://www.alquds.com/ar/posts/208390.",WEB www.alquds.com,,,,Mawasi Khan Younis con agua de lluvia,,,,mensajes,2025-11-15T09:25:14,2025-11-15T09:25:14
8,gaza,Disturbios Civiles,• Ministerio de Defensa de la Federación de Rusia: nuestras defensas aéreas lanzaron 64 marchas ucranianas sobre varias provincias durante la noche anterior,@AjaNews,-30.985657,-57.919440,21JVF1220971624,Federación,,Distrito Gualeguaycito,administrative,cache,2025-11-15T09:41:50,2025-11-15T09:41:50
9,gaza,Sin clasificar,"• Reconocimiento de conocimientos: el 67% de los israelíes apoyan la creación de una comisión de investigación oficial de los acontecimientos del 7 de octubre, nombrada por el Presidente del Tribunal Supremo",@AjaNews,18.877804,-97.109745,14QPF9912288369,Reconocimiento,Veracruz,,memorial,nominatim,2025-11-15T09:41:50,2025-11-15T09:41:50
10,gaza,Sin clasificar,• Defensa civil en Gaza: nuestros grupos se ocupan de decenas de tiendas de campaña de desplazados que se hunden en varias zonas de Mawasi Khan Younis,@AjaNews,,,,Gaza: nuestros grupos se ocupan de decenas de tiendas de campaña de desplazados,,,,mensajes,2025-11-15T09:41:50,2025-11-15T09:41:50
11,gaza,Conflicto Armado,Fuerza Aérea de Ucrania: Lanzamos dos misiles balísticos y 91 marchas rusas contra zonas del este y el sur del país,@AjaNews,,,,Fuerza Aérea de Ucrania,,,,mensajes,2025-11-15T09:41:50,2025-11-15T09:41:50
12,gaza,Sin clasificar,"Trump: Espero que Arabia Saudita se adhiera a los acuerdos de Abraham, y estudiaré la posibilidad de venderles aviones F-35 durante la visita del Príncipe Heredero de Arabia Saudita a Washington la próxima semana.",@Almustashaar,39.682326,-76.602191,18SUJ6260293726,Trump,Maryland,Baltimore County,hamlet,cache,2025-11-15T09:41:50,2025-11-15T09:41:50
13,gaza,Sin clasificar,La semana que viene el Consejo de Seguridad votará sobre el plan de Trump para Gaza en https://t.me/Almustashar,@Almustashaar,59.260501,15.185821,33VWF1059569074,https://t,,Örebro län,restaurant,cache,2025-11-15T09:41:50,2025-11-15T09:41:50
14,gaza,Sin clasificar,"El Golán está hablando de una nueva Siria, mientras que su Ministerio de Cultura invita al público a una celebración nacional en la que se glorifica la masacre del 7 de octubre, la mayor masacre de judíos desde el Holocausto, que se celebra bajo el nombre de ""El Diluvio del Extremo"", todos los que celebran una masacre buscan más masacres, no más cambios.",@Almustashaar,38.981699,39.890324,37SED7711515122,Golán,Doğu Anadolu Bölgesi,,village,nominatim,2025-11-15T09:41:50,2025-11-15T09:41:50
15,gaza,Sin clasificar,- Buenos días y bendiciones para Gaza y sus habitantes.,@GazaNewsNow,-34.616123,-58.435621,21HUB6838368589,Buenos,Ciudad Autónoma de Buenos Aires,,administrative,cache,2025-11-15T09:41:50,2025-11-15T09:41:50
16,gaza,Sin clasificar,"Las fuerzas de ocupación detuvieron a varios jóvenes, entre ellos prisioneros de libertad, que fueron secuestrados durante la incursión en el barrio de Kafr Saba, en la ciudad de Qalqilya, a saber: Mahmud Liba (Abu Isa), Samah Abu Ali, Noman Abu Libdeh, Mohammed Abu Halima, Hassan Shabita y Said Shabita.",@GazaNewsNow,,,,barrio de Kafr Saba,,,,mensajes,2025-11-15T09:41:50,2025-11-15T09:41:50
17,gaza,Sin clasificar,"Las fuerzas de ocupación detienen a varios jóvenes, entre ellos prisioneros de libertad, que se encuentran durante la incursión en el barrio de Kafr Saba, en la ciudad de Qalqilya.",@GazaNewsNow,,,,barrio de Kafr Saba,,,,mensajes,2025-11-15T09:41:50,2025-11-15T09:41:50
18,gaza,Sin clasificar,"Seguimiento del portavoz de la defensa civil en Gaza: Nuestro grupo se ocupa ahora de decenas de tiendas de campaña en los campamentos de desplazados internos, que han sido ahogadas en varias zonas de Mawasi Khanis.",@GazaNewsNow,,,,Gaza: Nuestro grupo se ocupa ahora de decenas de tiendas de campaña,,,,mensajes,2025-11-15T09:41:50,2025-11-15T09:41:50
19,gaza,Hazards,"La defensa civil no puede hacer frente a los casos de ahogamiento por falta de equipo después de la destrucción de la ocupación, los servicios municipales son rudimentarios y no satisfacen las necesidades de la población. El actual bajo nivel es sólo el comienzo de un invierno duro que puede ser más trágico, con el riesgo de que las viviendas se hundan a causa de las inundaciones y las lluvias.",@GazaNewsNow,,,,,,,,mensajes,2025-11-15T09:41:50,2025-11-15T09:41:50
20,gaza,Sin clasificar,"La investigación de 262 sospechosos de corrupción en los que participaron personalidades destacadas y dirigentes de instituciones y autoridades locales, incluido el presidente del sindicato Histadrut Arnon Bar David",@GazaNewsNow,,,,Histadrut Arnon Bar David,,,,mensajes,2025-11-15T09:41:50,2025-11-15T09:41:50
21,gaza,Sin clasificar,# Video # Las tiendas de los desplazados se hundieron a causa de las lluvias y las duras condiciones en que vivían los habitantes del sector con la primera baja del aire,@GazaNewsNow,-4.713918,-40.075643,24MUV8070378866,Video,Ceará,Região Geográfica Imediata de Sobral,village,cache,2025-11-15T09:41:50,2025-11-15T09:41:50
22,gaza,Sin clasificar,• El Presidente palestino Mahmoud Abbas cumple hoy 90 años,@GazaNewsNow,30.774351,31.012357,36RUV0978306283,Mahmoud Abbas,الغربية,طنطا,residential,nominatim,2025-11-15T09:41:50,2025-11-15T09:41:50
23,gaza,Sin clasificar,Defensa Civil de Gaza: miles de tiendas de campaña sufrieron daños y no tenemos equipo para hacer frente a los ahogamientos.,@GazaNewsNow,,,,Defensa Civil de Gaza,,,,mensajes,2025-11-15T09:41:50,2025-11-15T09:41:50
24,gaza,Sin clasificar,# Vídeo # Una tragedia compleja con lluvia y miseria en las tiendas de campaña #,@GazaNewsNow,9.953696,-84.048123,16PHS2369301735,tiendas de campaña #,,Goicoechea,outdoor,cache,2025-11-15T09:41:50,2025-11-15T09:41:50
25,gaza,Sin clasificar,Las fuerzas de ocupación están llevando a cabo una campaña de arrestos en la Ribera Occidental.,@GazaNewsNow,-22.458273,-60.432260,20KQA6424714184,Ribera Occidental,Boquerón,,village,cache,2025-11-15T09:41:50,2025-11-15T09:41:50
26,gaza,Sin clasificar,"Gracias a Dios, gracias a ti, gracias a ti, gracias a ti, gracias a ti, gracias a ti.",@Warlife3,14.588912,-88.580547,16PCB2974013450,Gracias,Lempira,Gracias,administrative,cache,2025-11-15T09:41:51,2025-11-15T09:41:51
27,gaza,Disturbios Civiles,Nuestra defensa aérea derribó 64 marchas ucranianas sobre varias provincias anoche.,@hamza20300,34.053691,-118.242766,11SLT8530268805,Nuestra,California,Los Angeles County,administrative,cache,2025-11-15T09:41:51,2025-11-15T09:41:51
28,gaza,Sin clasificar,"Lo único que puedo hacer ahora es usar mis canales para revelar a todos los que los explotan, a los comerciantes y a todos los demás, y a todos los que comen sus derechos a disfrutar de la guerra y el sufrimiento. Pero, por favor... y lo juro por Dios... no me abrumen con mis peticiones sobre mi poder.",@hamza20300,-6.869970,-75.045851,18MVT9493440625,Pero,,,administrative,nominatim,2025-11-15T09:41:51,2025-11-15T09:41:51
29,gaza,Sin clasificar,"Rápido, la artillería de la ocupación está apuntando a las afueras del barrio de Al-Gayria, al este de Gaza.",@hamza20300,-23.328398,32.806606,36KVV8022820112,Gaza,Gaza,,administrative,cache,2025-11-15T09:41:51,2025-11-15T09:41:51
30,gaza,Sin clasificar,Defensa Civil de Gaza: miles de tiendas de campaña sufrieron daños a causa de las lluvias en medio de la falta de vida después de la aniquilación.,@hamza20300,,,,medio de la falta de vida después de la aniquilación,,,,mensajes,2025-11-15T09:41:51,2025-11-15T09:41:51
31,gaza,Sin clasificar,"Dios, tómanos, tómanos, Dios, escucha la voz del niño de su gran sufrimiento.",@hamza20300,16.097683,-16.465374,28QCC4327980296,Dios,Trarza الترارزة,,village,cache,2025-11-15T09:41:51,2025-11-15T09:41:51
32,gaza,Sin clasificar,"Los mecanismos del ejército de ocupación siguen abriendo fuego con ametralladoras pesadas en las zonas orientales de la ciudad de Khanyonis, al sur de la Franja de Gaza.",@muthanapress84,,,,zonas orientales de la ciudad de Khanyonis,,,,mensajes,2025-11-15T09:41:51,2025-11-15T09:41:51
33,gaza,Sin clasificar,"Cuando las madres tratan de salvar a sus hijos del agua, los ancianos que se han quedado sin hogar y los pacientes que ni siquiera han encontrado un espacio seco para dormir...",@muthanapress84,-16.162631,21.934780,34KEH9993612848,Cuando,,,river,cache,2025-11-15T09:41:51,2025-11-15T09:41:51
34,gaza,Sin clasificar,"Defensa civil de Gaza: miles de tiendas de campaña sufrieron daños y se mojaron la ropa y las sábanas de los desplazados por las lluvias, en medio de la falta de vida después del exterminio.",@muthanapress84,,,,medio de la falta de vida después del exterminio,,,,mensajes,2025-11-15T09:41:51,2025-11-15T09:41:51
35,gaza,Sin clasificar,"El comité de Qatar está empezando a distribuir 4.000 tiendas de campaña a las familias afectadas en la Franja de Gaza esta mañana, y la distribución se lleva a cabo una vez que el resto de las cantidades entran por los cruces.",@muthanapress84,,,,Franja de Gaza esta mañana,,,,mensajes,2025-11-15T09:41:51,2025-11-15T09:41:51
36,gaza,Sin clasificar,Buenos días y bendiciones para Gaza y su gente.,@yaseenpress2004,-34.616123,-58.435621,21HUB6838368589,Buenos,Ciudad Autónoma de Buenos Aires,,administrative,cache,2025-11-15T09:41:52,2025-11-15T09:41:52
37,gaza,Sin clasificar,La oración de la mañana de hoy en la capilla tribal de la mezquita bendita de Al-Aqsa...,@yaseenpress2004,,,,capilla tribal de la mezquita bendita de Al-Aqsa,,,,mensajes,2025-11-15T09:41:52,2025-11-15T09:41:52
38,gaza,Sin clasificar,"** Las fuerzas de ocupación detuvieron a varios jóvenes, entre ellos prisioneros de libertad, que fueron secuestrados durante la incursión en el barrio de Kafr Saba, en la ciudad de Qalqilya, a saber: Mahmoud Liba (Abu Issa), Samah Abu Ali, Naman Abu Libda, Mohammed Abu Halima y Hassan Shabita**",@yaseenpress2004,,,,barrio de Kafr Saba,,,,mensajes,2025-11-15T09:41:52,2025-11-15T09:41:52
39,gaza,Sin clasificar,"Al amanecer del día de hoy, las fuerzas de ocupación detienen a los jóvenes Bassam Jayyet, Qassam Muhammad Ziddah y Ahmad Amer Nassar, de la aldea de Madma, y a los jóvenes Qays, de la aldea tribal de Zayra, al sur de Naplusa.",@yaseenpress2004,32.220532,35.256937,36SYA1269167114,Naplusa,الضفة الغربية,منطقة أ,town,cache,2025-11-15T09:41:52,2025-11-15T09:41:52
40,gaza,Sin clasificar,"Dejar que las familias se hundan en el agua de lluvia a pesar del conocimiento de las instituciones, de las iniciativas y de las personas capaces de llegar a un nivel bajo, y luego aplazar la ayuda a la espera de que aparezca o de que aparezca el cinismo, un crimen imperdonable contra la humanidad y la complicidad directa con el desastre.",@yaseenpress2004,,,,agua de lluvia a pesar del conocimiento de las instituciones,,,,mensajes,2025-11-15T09:41:52,2025-11-15T09:41:52
41,gaza,Sin clasificar,"Un soldado israelí publica un video de un avión acorazado y lo dirige hacia la casa de una familia palestina, se ríe mientras asusta a los civiles como si fuera un juego, y nadie sabe el destino de esa familia.",@yaseenpress2004,,,,,,,,mensajes,2025-11-15T09:41:52,2025-11-15T09:41:52
42,gaza,Sin clasificar,"Hace frío, llueve en tiendas de campaña y niños sin hogar esta mañana desde Mawasi Khannis.",@yaseenpress2004,,,,tiendas de campaña y niños sin hogar esta mañana desde Mawasi Khannis,,,,mensajes,2025-11-15T09:41:52,2025-11-15T09:41:52
43,gaza,Sin clasificar,Las palabras de un palestino herido sobre la tragedia de las personas desplazadas en tiendas de campaña después de haber sido inundadas en los campamentos de desplazados de Gaza.,@yaseenpress2004,,,,tiendas de campaña después de haber sido inundadas,,,,mensajes,2025-11-15T09:41:52,2025-11-15T09:41:52
44,gaza,Sin clasificar,"Fuentes locales: La artillería de ocupación está dirigida contra las afueras del barrio de Al-Qayya, al este de la ciudad de Gaza.",@yaseenpress2004,-23.328398,32.806606,36KVV8022820112,Gaza,Gaza,,administrative,cache,2025-11-15T09:41:52,2025-11-15T09:41:52
45,gaza,Terrorismo,Situaciones catastróficas... niños tratando de transportar las propiedades disponibles desde una tienda de campaña inundada en Gaza.,@yaseenpress2004,-23.328398,32.806606,36KVV8022820112,Gaza,Gaza,,administrative,cache,2025-11-15T09:41:52,2025-11-15T09:41:52
46,gaza,Sin clasificar,"• Un avión de ocupación que dispara en las zonas orientales del campamento de Jabaliya, al norte de la Franja de Gaza.",@yaseenpress2004,,,,zonas orientales del campamento de Jabaliya,,,,mensajes,2025-11-15T09:41:52,2025-11-15T09:41:52
47,gaza,Sin clasificar,Tres altos funcionarios de la Compañía Española Sidinor en el País Especializado en Industrias Minerales comparecieron ante un tribunal de Madrid en relación con acusaciones de suministro de cantidades de acero a empresas militares de la Potencia ocupante para la fabricación de armas utilizadas en la guerra genocida de Gaza.,@yaseenpress2004,,,,País Especializado en Industrias Minerales comparecieron ante un tribunal de Madrid en relación con acusaciones de suministro de cantidades de acero a empresas militares de la Potencia ocupante para la fabricación de armas utilizadas,,,,mensajes,2025-11-15T09:41:52,2025-11-15T09:41:52
48,gaza,Sin clasificar,"Bajo la constante baja, los desplazados tratan de estabilizar sus tiendas de campaña después de que el agua de lluvia se vuele y se hunde en los búnkeres de Khanyonis.",@yaseenpress2004,,,,búnkeres de Khanyonis,,,,mensajes,2025-11-15T09:41:52,2025-11-15T09:41:52
49,gaza,Sin clasificar,France Press: El lunes el Consejo de Seguridad votará sobre el proyecto de resolución de los Estados Unidos sobre el plan Trump en Gaza.,@yaseenpress2004,-23.328398,32.806606,36KVV8022820112,Gaza,Gaza,,administrative,cache,2025-11-15T09:41:52,2025-11-15T09:41:52
50,gaza,Sin clasificar,"Fuentes locales: Las fuerzas de ocupación irrumpieron en Kirbat Al-Maleh, en las marismas septentrionales, y detuvieron a varios residentes.",@yaseenpress2004,,,,Kirbat Al-Maleh,,,,mensajes,2025-11-15T09:41:52,2025-11-15T09:41:52
51,gaza,Sin clasificar,"- La defensa civil no puede hacer frente a los casos de ahogamiento por la falta de equipo después de la destrucción de la ocupación, los servicios municipales son rudimentarios y no satisfacen las necesidades de la población.",@yaseenpress2004,,,,,,,,mensajes,2025-11-15T09:41:52,2025-11-15T09:41:52
52,gaza,Sin clasificar,• Hebreo Life - Canal de Cannes: los llamamientos internacionales para que se acelere la adopción de la decisión de establecer una fuerza internacional de estabilización en la Franja de Gaza son cada vez mayores.,@EabriLive,,,,Franja de Gaza son cada vez mayores,,,,mensajes,2025-11-15T09:44:57,2025-11-15T09:44:57
53,gaza,Sin clasificar,"□ Hebreo Life, canal hebreo de Cannes: Un funcionario israelí nos dijo que ""Israel no participó en el incidente del barrio de Al-Maza ' a de Damasco""",@EabriLive,,,,incidente del barrio de Al-Maza ' a de Damasco,,,,mensajes,2025-11-15T09:45:57,2025-11-15T09:45:57
54,gaza,Sin clasificar,"Tras una investigación minuciosa y un seguimiento riguroso de los servicios de inteligencia, y tras recibir información sobre la posesión ilegal de pasaportes estadounidenses por parte de algunas personas sin ningún tipo de vínculo con ellas.",@hamza20300,-7.656535,110.704767,49MDM6743853661,Tras,Jawa Tengah,Klaten,administrative,cache,2025-11-15T09:45:57,2025-11-15T09:45:57
55,gaza,Sin clasificar,"• En hebreo Life - Reconocimiento de conocimientos: el 67% de los israelíes apoyan la creación de una comisión de investigación oficial de los acontecimientos del 7 de octubre, nombrada por el Presidente del Tribunal Supremo",@EabriLive,,,,hebreo Life - Reconocimiento de conocimientos: el 67% de los israelíes apoyan la creación de una comisión de investigación oficial de los acontecimientos del 7 de octubre,,,,mensajes,2025-11-15T09:46:57,2025-11-15T09:46:57
56,gaza,Sin clasificar,"Invitamos a la gente de buena voluntad a que se hunda en la lluvia y se ahogue en la lluvia, sabiendo que durante todo el tiempo que hemos estado pidiendo a Shaw que nos apoyemos en Gaza, incluso si la guerra es menor, diciendo que ha llegado a la conclusión de que la gente de las tiendas de campaña de Naima y de las calles necesita más refugio y calor de Gaza con lluvias de invierno y que los...",@Warlife3,,,,lluvia y se ahogue,,,,mensajes,2025-11-15T09:46:57,2025-11-15T09:46:57
57,gaza,Sin clasificar,"∙ Lev-Maarif, de AFP: El Consejo de Seguridad votará la semana que viene sobre el plan de Trump para Gaza",@EabriLive,,,,Lev-Maarif,,,,mensajes,2025-11-15T09:48:57,2025-11-15T09:48:57
58,gaza,Sin clasificar,"El presidente sirio y el Golán están hablando de “nueva Siria”, mientras que su Ministerio de Cultura invita al público a celebrar una ceremonia nacional en la que se glorifica la masacre del 7 de octubre: la mayor masacre de judíos desde el Holocausto (y la celebración del nombre de “el Diluvio Supremo”).",@EabriLive,,,,Holocausto (y la celebración del nombre de “el Diluvio Supremo,,,,mensajes,2025-11-15T09:48:57,2025-11-15T09:48:57
59,gaza,Sin clasificar,"En el momento en que los colonos atacaron el vehículo palestino Ahmad Mohammed Guangma, en el norte de Jericó, lo golpearon y dañaron su vehículo.",@yaseenpress2004,38.173779,20.492263,34SDH5552725218,momento en,"Αποκεντρωμένη Διοίκηση Πελοποννήσου, Δυτικής Ελλάδας και Ιονίου",Περιφερειακή Ενότητα Κεφαλληνίας,outdoor_seating,cache,2025-11-15T09:51:09,2025-11-15T09:51:09
60,gaza,Sin clasificar,:: Oficina de Asuntos Humanitarios de las Naciones Unidas: los artefactos explosivos sin detonar plantean una grave amenaza en toda la Franja de Gaza,@AjaNews,,,,toda la Franja de Gaza,,,,mensajes,2025-11-15T09:52:57,2025-11-15T09:52:57
61,gaza,Sin clasificar,¿Dónde están los desplazados después de que sus tiendas se hundan a causa de las fuertes lluvias en la Faja de Gaza?,@yaseenpress2004,,,,Faja de Gaza?,,,,mensajes,2025-11-15T09:52:58,2025-11-15T09:52:58
62,gaza,Sin clasificar,"El Consejo de Seguridad votó sobre un proyecto de resolución estadounidense sobre Gaza (https://www.alquds.com/ar/posts/208393) y publicó sus artículos en el Foro Al-Quds del sábado 15 de noviembre de 2025 a las 9.45 horas, hora de Al-Quds del Consejo de Seguridad, en el que ambos votaron sobre un proyecto de resolución estadounidense sobre Gaza.",WEB www.alquds.com,,,,Foro Al-Quds del sábado 15 de noviembre de 2025 a las 9,,,,mensajes,2025-11-15T09:53:12,2025-11-15T09:53:12
63,gaza,Sin clasificar,:: Oficina de Asuntos Humanitarios de las Naciones Unidas: unas 16.500 personas que necesitan atención médica fuera de la Franja de Gaza,@AjaNews,12.619383,-7.978743,29PPP1091895261,Asuntos Humanitarios,,Bamako,igo,cache,2025-11-15T09:54:01,2025-11-15T09:54:01
64,gaza,Sin clasificar,"El invierno es un ""desastre de heladas"" y exige la introducción de materiales de construcción de alojamiento de emergencia.",@yaseenpress2004,36.177046,36.927803,37SCA1364305575,عاجل,محافظة حلب,,village,cache,2025-11-15T09:55:04,2025-11-15T09:55:04
65,gaza,Disturbios Civiles,"Prosiguen las marchas y actividades en la capital de Corea del Sur, Seúl, en solidaridad con Palestina y para abrir los cruces fronterizos e introducir asistencia a Gaza.",@yaseenpress2004,37.675462,126.910102,52SCG1569671862,capital de Corea del Sur,,고양시,motorway,nominatim,2025-11-15T10:00:57,2025-11-15T10:00:57
66,gaza,Sin clasificar,"En primer lugar, el hermano no ha vuelto a un caso ni a una denuncia por explotación de la población de Gaza, ni a mí —ni antes de la guerra ni en el transcurso de la misma— ha recibido ninguna acusación de que fuera un comerciante que explotara a la gente. También es importante subrayar que el hermano no es un comerciante fundamental, para que no se comparta ninguna información inexacta.",@hamza20300,,,,primer lugar,,,,mensajes,2025-11-15T10:04:58,2025-11-15T10:04:58
67,gaza,Sin clasificar,Fuente del Ejército del Sudán: Hemos recuperado el control de la localidad de Um Hajj Ahmad en Kordofán del Norte.,@AjaNews,14.416930,29.468369,35PQR6614695265,Kordofán del Norte,ولاية شمال كردفان,,administrative,cache,2025-11-15T10:12:58,2025-11-15T10:12:58
68,gaza,Sin clasificar,"La Alta Comisionada de las Naciones Unidas para los Derechos Humanos en los Territorios Palestinos Ocupados, Francesca Albanez: hoy 768 del genocidio en Palestina. Los supervivientes del genocidio viven en tiendas de campaña inundadas de agua de lluvia.",@yaseenpress2004,,,,Territorios Palestinos Ocupados,,,,mensajes,2025-11-15T10:13:01,2025-11-15T10:13:01
69,gaza,Disturbios Civiles,Fuentes militares sudanesas de la isla: marcha de apoyo rápido dirigida contra una refinería de petróleo en las montañas al sur del estado del Nilo Blanco,@AjaNews,,,,montañas al sur del estado del Nilo Blanco,,,,mensajes,2025-11-15T10:15:57,2025-11-15T10:15:57
70,gaza,Sin clasificar,* * {Acelera] Canal Cannes: Aumento de los llamamientos internacionales para que se acelere la adopción de la decisión de crear una fuerza internacional de estabilización en la Franja de Gaza.,@GazaNewsNow,31.443223,34.360007,36RXV2923579524,Franja de Gaza,قطاع غزة,,administrative,cache,2025-11-15T10:15:58,2025-11-15T10:15:58
71,gaza,Sin clasificar,:: Seguimiento de la Oficina de Asuntos Humanitarios de las Naciones Unidas: los artefactos explosivos sin detonar plantean una grave amenaza en toda la Franja de Gaza,@GazaNewsNow,,,,toda la Franja de Gaza,,,,mensajes,2025-11-15T10:16:57,2025-11-15T10:16:57
72,gaza,Sin clasificar,El ejército de ocupación cierra la Mezquita Sagrada de Ibrahimi a los palestinos de Hebrón y lo abre a los colonos para que realicen los rituales de Talmudiya y Tendes.,@yaseenpress2004,43.364869,-8.418867,29TNJ4708601498,Mezquita Sagrada,Galicia,A Coruña,cafe,nominatim,2025-11-15T10:16:57,2025-11-15T10:16:57
73,gaza,Sin clasificar,"Emergencia del OOPS: Las lluvias hacen más difícil la situación en la Franja de Gaza y las familias recurren a cualquier lugar disponible, incluidas tiendas de campaña temporales",@AjaNews,,,,Franja de Gaza y las familias recurren a cualquier lugar disponible,,,,mensajes,2025-11-15T10:18:56,2025-11-15T10:18:56
74,gaza,Sin clasificar,"- Segundo día consecutivo de lluvias en la Franja de Gaza, en medio de la falta de vivienda de miles de personas desplazadas que vivían en tiendas de campaña y que se habían hundido con agua de lluvia",@GazaNewsNow,31.443223,34.360007,36RXV2923579524,Franja de Gaza,قطاع غزة,,administrative,cache,2025-11-15T10:18:57,2025-11-15T10:18:57
75,gaza,Sin clasificar,Fuentes israelíes: El ejército está elaborando un plan de emergencia en Gaza en caso de que se rompa la cesación del fuego,@GazaNewsNow,,,,Gaza en caso de,,,,mensajes,2025-11-15T10:20:57,2025-11-15T10:20:57
76,gaza,Sin clasificar,El OOPS necesita urgentemente suministros de vivienda en Gaza que tenemos a nuestra disposición y pedimos que se nos permita proporcionar a la población,@AjaNews,-23.328398,32.806606,36KVV8022820112,Gaza,Gaza,,administrative,cache,2025-11-15T10:21:56,2025-11-15T10:21:56
77,gaza,Sin clasificar,"Les recordamos que hoy, a las 9 de la mañana, en la sede del Instituto de la Esperanza de los Huérfanos, en la calle Unity, cerca de la clínica de arena, se distribuye un cupón de invierno a miles de familias de huérfanos.",@GazaNewsNow,,,,sede del Instituto de la Esperanza de los Huérfanos,,,,mensajes,2025-11-15T10:23:57,2025-11-15T10:23:57
78,gaza,Sin clasificar,• Asesor de información del OOPS en la isla: estamos en contacto con los interesados para presionar a Israel para que permita la prestación de asistencia en Gaza,@AjaNews,,,,isla: estamos en contacto con los interesados para presionar a Israel para,,,,mensajes,2025-11-15T10:24:57,2025-11-15T10:24:57
79,gaza,Conflicto Armado,Fuente del ejército sudanés de la isla: Enfrentamos violentos enfrentamientos contra las milicias de apoyo rápido en varias ciudades de Kordofán,@AjaNews,,,,varias ciudades de Kordofán,,,,mensajes,2025-11-15T10:25:56,2025-11-15T10:25:56
80,gaza,Sin clasificar,"En el nombre de Dios, misericordioso y misericordioso, el próximo martes iniciaremos la campaña ""Objeciones a la Tierra"", cuyo objetivo será comprar suministros de invierno, las prohibiciones y las señales del grupo al que van dirigidas será la prioridad de nuestros hermanos y hermanas en las tiendas de campaña para aquellos que me gusten contribuir con un dólar de comunicación a través del con...",@GazaNewsNow,9.582109,-79.468888,17PPL6803159583,nombre de Dios,Colón,Santa Isabel,village,cache,2025-11-15T10:26:57,2025-11-15T10:26:57
81,gaza,Sin clasificar,□ La ocupación cierra la mezquita de Ibrahimi en Hebrón a los ciudadanos para que los colonos puedan orar en oración,@GazaNewsNow,,,,Hebrón a los ciudadanos para,,,,mensajes,2025-11-15T10:26:57,2025-11-15T10:26:57
82,gaza,Sin clasificar,"Radio #Ocupación Oficial' reveló la presentación en el Knesset de un proyecto de ley destinado a apoderarse totalmente de la mezquita de Ibrahimi y despojarla de los palestinos, en conjunción con la decisión de miles de colonos de irrumpir en ella el sábado, en lo que se llama ""Sabs Sarah"".",@hamza20300,,,,Knesset de un proyecto de ley destinado a apoderarse totalmente de la mezquita de Ibrahimi y despojarla de los palestinos,,,,mensajes,2025-11-15T10:26:57,2025-11-15T10:26:57
83,gaza,Sin clasificar,• Un gran número de tiendas de campaña de desplazados se hundieron en la zona de Mawasi Khan Younis.,@GazaNewsNow,,,,zona de Mawasi Khan Younis,,,,mensajes,2025-11-15T10:28:57,2025-11-15T10:28:57
84,gaza,Sin clasificar,"Después de un escándalo institucional tan grande como el de detener a la nación, así como el de algunos de los que se autodenominan ancianos como Alaa Jaber, que robaron millones de dólares en nombre de Gaza, un periódico revela la verdad sobre la Coca-Palestina, todo un traficante de masacres de los habitantes de Gaza que mueren en tiendas de campaña de mierda.",@hamza20300,,,,nombre de Gaza,,,,mensajes,2025-11-15T10:29:57,2025-11-15T10:29:57
85,gaza,Sin clasificar,¿Qué quiso decir Jeffrey Epstein en sus e-mails cuando dijo que conocías a las chicas y las acosabas?,@Almustashaar,,,,sus e-mails cuando dijo,,,,mensajes,2025-11-15T10:31:57,2025-11-15T10:31:57
86,gaza,Sin clasificar,"El proyecto de resolución estadounidense del Consejo de Seguridad sobre Gaza: aspectos positivos y vulnerabilidades: el Instituto Al-Quds de Estrategia y Seguridad de Al-Quds, por un lado, tiene dudas acerca de la aprobación del proyecto de resolución estadounidense sobre la cuestión del “día siguiente” en Gaza en el Consejo de Seguridad, dado que es posible una reserva de China y Rusia.",@EabriLive,-23.328398,32.806606,36KVV8022820112,Gaza,Gaza,,administrative,cache,2025-11-15T10:31:57,2025-11-15T10:31:57
87,gaza,Sin clasificar,"Sin embargo, en varios aspectos el proyecto contiene posiciones vagas o problemáticas desde la perspectiva de Israel: la cuestión crucial del desparticipación (que en gran medida ignora la administración de Trump, menos preocupada por las cuestiones de identidad ideológica) no se menciona, y a diferencia de lo que ocurre con la ""fuerza de estabilización"", Israel no tiene un mecanismo que influy...",@EabriLive,,,,varios aspectos el proyecto contiene posiciones vagas o problemáticas desde la perspectiva de Israel: la cuestión crucial del desparticipación (que en gran medida ignora la administración de Trump,,,,mensajes,2025-11-15T10:31:57,2025-11-15T10:31:57
88,gaza,Sin clasificar,"Presidente de Israel: ""Nuestro lugar en las naciones no está garantizado""",@EabriLive,-34.581814,-58.394048,21HUB7214272447,naciones no,Ciudad Autónoma de Buenos Aires,Buenos Aires,park,nominatim,2025-11-15T10:32:59,2025-11-15T10:32:59
89,gaza,Sin clasificar,"No están solos... la alegría general de los estudiantes de secundaria con la operación ""El Jinete 3"" que comparte con ellos en el momento del éxito y les da esperanza.",@hamza20300,,,,momento del éxito y les da esperanza,,,,mensajes,2025-11-15T10:33:01,2025-11-15T10:33:01
90,gaza,Sin clasificar,• Oficina de Asuntos Humanitarios de las Naciones Unidas: los artefactos explosivos sin detonar representan una grave amenaza en toda la Franja de Gaza,@hamza20300,,,,toda la Franja de Gaza,,,,mensajes,2025-11-15T10:33:01,2025-11-15T10:33:01
91,gaza,Sin clasificar,"* Aceleración del OOPS: las lluvias hacen más difícil la situación en la Franja de Gaza y las familias recurren a cualquier lugar disponible, incluidas tiendas de campaña temporales",@hamza20300,,,,Franja de Gaza y las familias recurren a cualquier lugar disponible,,,,mensajes,2025-11-15T10:33:01,2025-11-15T10:33:01
92,gaza,Sin clasificar,"*Apúrense: el OOPS necesita urgentemente suministros de vivienda en Gaza, que tenemos a nuestra disposición, y pedimos que se nos permita proporcionar a la población",@hamza20300,-23.328398,32.806606,36KVV8022820112,Gaza,Gaza,,administrative,cache,2025-11-15T10:33:01,2025-11-15T10:33:01
93,gaza,Sin clasificar,El periódico británico The Guardian: el profesor universitario de la Universidad Americana de Kentucky Ramsey Woodcock presenta una demanda contra su universidad después de que se le impidió enseñar y expulsarlo debido a sus opiniones sobre la ocupación israelí y a su denominación de “proyecto colonial”.,@yaseenpress2004,,,,periódico británico The Guardian,,,,mensajes,2025-11-15T10:33:01,2025-11-15T10:33:01
94,gaza,Sin clasificar,"El Embajador de la Ocupación en Washington, D.C., presentó sus artículos en el Foro Al-Quds el sábado 15 de noviembre de 2025, a las 10.30 horas, hora de la ocupación en Washington: El suministro de aviones fantasma amenaza directamente nuestra seguridad.",WEB www.alquds.com,38.895037,-77.036543,18SUJ2338307100,Washington,District of Columbia,Washington,city,cache,2025-11-15T10:33:19,2025-11-15T10:33:19
95,gaza,Sin clasificar,Canal de Cannes: Los llamamientos internacionales para acelerar la adopción de la decisión de crear una fuerza internacional de estabilización en la Franja de Gaza están aumentando.,@hamza20300,31.443223,34.360007,36RXV2923579524,Franja de Gaza,قطاع غزة,,administrative,cache,2025-11-15T10:33:59,2025-11-15T10:33:59
96,gaza,Sin clasificar,Canal 12 Hebreo: Trump dice que está estudiando un acuerdo para vender aviones F-35 a Arabia Saudita.,@hamza20300,48.560161,132.277566,53UKP9913682141,Hebreo,Еврейская автономная область,,administrative,cache,2025-11-15T10:33:59,2025-11-15T10:33:59
97,gaza,Sin clasificar,Reuters: Hamas refuerza su control sobre zonas de las que el ejército israelí se ha retirado en medio de nuevas medidas económicas y administrativas. https://t.me/Almustashar,@Almustashaar,,,,medio de nuevas medidas económicas y administrativas,,,,mensajes,2025-11-15T10:37:57,2025-11-15T10:37:57
98,gaza,Sin clasificar,Seguimiento de la protección civil en Gaza por la televisión árabe: Exigimos que se bombeen de manera sustancial y urgente tiendas de campaña a la Franja para alojar a las personas desplazadas,@GazaNewsNow,,,,Gaza por la televisión árabe: Exigimos,,,,mensajes,2025-11-15T10:40:57,2025-11-15T10:40:57
99,gaza,Sin clasificar,"Fuentes locales: La ocupación está llevando a cabo grandes explosiones en Rafah, al sur de la Franja de Gaza.",@yaseenpress2004,31.275205,34.255827,36RXV1954760782,Rafah,قطاع غزة,,administrative,cache,2025-11-15T10:41:57,2025-11-15T10:41:57
100,gaza,Sin clasificar,Niños que buscan refugio después de que sus tiendas se hundan por las lluvias en Gaza,@gazaalanar,-23.328398,32.806606,36KVV8022820112,Gaza,Gaza,,administrative,cache,2025-11-15T10:42:58,2025-11-15T10:42:58
101,gaza,Sin clasificar,Fuente militar sudanesa de la isla: El ejército recupera la zona de Kazaqil en Kordofán del Norte,@AjaNews,14.416930,29.468369,35PQR6614695265,Kordofán del Norte,ولاية شمال كردفان,,administrative,cache,2025-11-15T10:43:57,2025-11-15T10:43:57
102,gaza,Sin clasificar,"Ali celebra el día de la renuncia hoy, el disfraz de divorciada que celebra su aniversario de bodas todos los años.",@Almustashaar,45.173975,2.313999,31TDL4609602505,Ali,Auvergne-Rhône-Alpes,Cantal,administrative,nominatim,2025-11-15T10:47:10,2025-11-15T10:47:10
103,gaza,Sin clasificar,¿O de la Faja de Gaza su tienda se ahogó esta noche en Mawasi Khanyonis y tuvo que dormir en la calle con sus hijos bajo el frío y la lluvia?,@yaseenpress2004,,,,Mawasi Khanyonis y tuvo,,,,mensajes,2025-11-15T10:49:57,2025-11-15T10:49:57
104,gaza,Sin clasificar,"Defensa civil de Gaza: miles de tiendas de campaña sufrieron daños y se mojaron la ropa y las sábanas de las personas desplazadas debido a las lluvias, en medio de la falta de vida después del exterminio.",@Warlife3,,,,medio de la falta de vida después del exterminio,,,,mensajes,2025-11-15T10:50:57,2025-11-15T10:50:57
105,gaza,Sin clasificar,¿O su tienda se ahogó esta noche en Mawasi Khanyons y tuvo que dormir en la calle con sus hijos bajo el frío y la lluvia?,@Warlife3,,,,Mawasi Khanyons y tuvo,,,,mensajes,2025-11-15T10:51:57,2025-11-15T10:51:57
106,gaza,Sin clasificar,El ejército israelí está bombardeando edificios en la zona de Rafah.,@hamza20300,31.891929,35.200060,36RYA0807330568,zona de Rafah,الضفة الغربية,منطقة أ,tertiary,cache,2025-11-15T10:51:57,2025-11-15T10:51:57
107,gaza,Sin clasificar,"• Los pacientes se ven obligados a utilizar cantidades de insulina que no están almacenadas en condiciones de seguridad, lo que ha causado trastornos en los niveles de azúcar y un aumento de los casos de riesgo. - Las cantidades de medicamentos disponibles en Gaza son muy escasas a pesar de la cesación del fuego y los pacientes se desplazan entre varias zonas sin tratamiento.",@GazaNewsNow,,,,condiciones de seguridad,,,,mensajes,2025-11-15T10:53:58,2025-11-15T10:53:58
108,gaza,Sin clasificar,∙ Canal 12 hebreo: Trump dice que está estudiando un acuerdo para vender aviones F-35 a la Arabia Saudita.,@EabriLive,39.682326,-76.602191,18SUJ6260293726,Trump,Maryland,Baltimore County,hamlet,cache,2025-11-15T10:54:57,2025-11-15T10:54:57
109,gaza,Sin clasificar,La Fundación Hind Rajab presenta una denuncia penal contra el rapero israelí Naum Tzurili en la República Checa por crímenes de guerra cometidos en Gaza.,@yaseenpress2004,,,,República Checa por crímenes de guerra cometidos en Gaza,,,,mensajes,2025-11-15T10:58:00,2025-11-15T10:58:00
110,gaza,Sin clasificar,□ Página de Amir Bouhebat al-Hebrea: el ejército israelí está destruyendo edificios en Rafah,@EabriLive,31.275205,34.255827,36RXV1954760782,Rafah,قطاع غزة,,administrative,cache,2025-11-15T11:00:57,2025-11-15T11:00:57
111,gaza,Sin clasificar,"Asesinato del segundo hombre de Al-Qaeda Mohammed Salahuddin Zeidan, alias Saif Al-Juria, después de la visita de su secuestrador y su compañía a la reunión del Golán",@Almustashaar,40.840669,-4.520000,30TUL7185622181,Asesinato,Castilla y León,,memorial,nominatim,2025-11-15T11:02:00,2025-11-15T11:02:00
112,gaza,Sin clasificar,"La Asamblea General de las Naciones Unidas ha renovado la aprobación de una resolución en la que se reafirma la soberanía permanente del pueblo palestino en su territorio ocupado y de los sirios en el Golán sirio ocupado sobre sus recursos naturales, en medio de un amplio apoyo internacional al Acuerdo.",WEB www.alquds.com,-34.274877,-62.723173,20HNH2548107330,Asamblea General,Santa Fe,Rufino,residential,nominatim,2025-11-15T11:03:47,2025-11-15T11:03:47
113,gaza,Sin clasificar,"En https://shehabnews.com/post/category/35/EN, únete a la lista de correo para recibir las últimas noticias y todo lo nuevo",WEB shehabnews.com,51.053829,3.725012,31UES5081456060,https://shehabnews,Oost-Vlaanderen,Gent,administrative,cache,2025-11-15T11:03:51,2025-11-15T11:03:51
114,gaza,Sin clasificar,Shahab News-Palestina (https://shehabnews.com/breaking-news#summary) ha participado en la lista de correo para recibir las últimas noticias y todo lo nuevo,WEB shehabnews.com,,,,lista de correo para recibir las últimas noticias y todo lo nuevo,,,,mensajes,2025-11-15T11:03:53,2025-11-15T11:03:53
115,gaza,Sin clasificar,"Fuentes libanesas: El ejército de ocupación disparó ametralladoras contra las viviendas de la población en las afueras de Kafr Shuba, en el Líbano meridional.",@yaseenpress2004,,,,afueras de Kafr Shuba,,,,mensajes,2025-11-15T11:05:58,2025-11-15T11:05:58
116,gaza,Conflicto Armado,"* Yediot Ahronut/Mikhail Milstein: Un año después de haber sido golpeado duramente, Hezbolá se recupera a un ritmo alarmante con los fondos iraníes (aproximadamente 1.000 millones de dólares), la debilidad del Gobierno del Líbano (""Estado dominado por dinosaurios"") y los ataques israelíes (se han liquidado 340 activistas), acercando el próximo enfrentamiento/Secretario General de la organizació...",@EabriLive,,,,Hezbolá se recupera a un ritmo alarmante con los fondos iraníes (aproximadamente 1.000 millones de dólares,,,,mensajes,2025-11-15T11:07:57,2025-11-15T11:07:57
117,gaza,Sin clasificar,"Ministerio del Interior de Gaza: La policía de la provincia septentrional de Gaza está llevando a cabo varios casos de robo y robo de viviendas y bienes en la ciudad de Beit Lahiya en las últimas semanas, por un valor estimado de 100.000 dólares.",@yaseenpress2004,31.549770,34.502470,36RXV4261291511,Beit Lahiya,قطاع غزة,,administrative,cache,2025-11-15T11:09:58,2025-11-15T11:09:58
118,gaza,Sin clasificar,":: El emplazamiento hebreo de Global: una posición militar de Hezbollah en el Líbano, situada en la llanura de Beqaa, que se utiliza con fines similares a la de Masyaf en Siria, para producir cohetes pesados y cohetes de corto alcance en el frente septentrional, en el Líbano meridional, hace 48 horas, en que se mantiene la calma y el silencio mientras la fuerza aérea israelí no está presente.",@Almustashaar,33.875063,35.843409,36SYC6300751942,Líbano,,,administrative,cache,2025-11-15T11:10:57,2025-11-15T11:10:57
119,gaza,Sin clasificar,"El sábado, la defensa civil de Gaza informó de que decenas de tiendas de campaña se habían hundido en agua de lluvia, en las que había desplazados al oeste de la ciudad de Khan Younis al sur de la Franja de Gaza, y que sus columnas estaban tratando con decenas de tiendas de campaña en los campamentos, en un momento en que el Movimiento de Resistencia Islámica (Hamás) había invitado a los garant...",WEB www.alquds.com,18.102778,-96.839722,14QQF2860302896,agua de lluvia,Oaxaca,Huautla de Jiménez,hamlet,cache,2025-11-15T11:13:32,2025-11-15T11:13:32
120,gaza,Sin clasificar,• Ministerio de Defensa de la Federación de Rusia: nuestras fuerzas controlan la ciudad de Yablokovo en la provincia de Zaburujia,@AjaNews,,,,Zaburujia,,,,mensajes,2025-11-15T11:14:57,2025-11-15T11:14:57
121,gaza,Sin clasificar,"● Corresponsal de # Al-Jazeera: las fuerzas de ocupación israelíes están destruyendo edificios de viviendas detrás de la línea amarilla en #Rafah, al sur de la Franja de Gaza",@AjaNews,31.443223,34.360007,36RXV2923579524,Franja de Gaza,قطاع غزة,,administrative,cache,2025-11-15T11:19:57,2025-11-15T11:19:57
122,gaza,Sin clasificar,Pruebas estadounidenses de que Israel utilizó a civiles como escudos humanos en Gaza,@GazaNewsNow,-23.328398,32.806606,36KVV8022820112,Gaza,Gaza,,administrative,cache,2025-11-15T11:23:57,2025-11-15T11:23:57
123,gaza,Sin clasificar,"* Carta de prensa * Al-Jazeera: mecanismos de ocupación israelíes irrumpiendo en la ciudad de Ramallah, en el centro de la Ribera Occidental",@AjaNews,31.897801,35.192422,36RYA0733731204,Ramallah,الضفة الغربية,منطقة أ,residential,cache,2025-11-15T11:24:58,2025-11-15T11:24:58
124,gaza,Sin clasificar,"Al amanecer, el ejército de ocupación despedaza las imágenes de los mártires y cruza consignas hostiles para distorsionar los murallas de los testimonios durante la incursión en la Ciudad Vieja de Naplusa.",@yaseenpress2004,,,,Vieja de Naplusa,,,,mensajes,2025-11-15T11:25:58,2025-11-15T11:25:58
125,gaza,Sin clasificar,"“Dios, que no es más que Dios, perdona a los vivos, y lo lamento a él.”",@GazaNewsNow,16.097683,-16.465374,28QCC4327980296,Dios,Trarza الترارزة,,village,cache,2025-11-15T11:27:57,2025-11-15T11:27:57
126,gaza,Sin clasificar,"*La policía de la provincia de Gaza septentrional ha concluido una serie de casos de robo y robo de viviendas y bienes de ciudadanos en la ciudad de Beit Lahiya en las últimas semanas, por un valor estimado en 100.000 dólares, y el personal de investigación ha iniciado una investigación inmediatamente después de recibir varias denuncias de los ciudadanos sobre el robo de sus bienes.",@GazaNewsNow,31.549770,34.502470,36RXV4261291511,Beit Lahiya,قطاع غزة,,administrative,cache,2025-11-15T11:29:57,2025-11-15T11:29:57
127,gaza,Sin clasificar,"* Carta de prensa * Al-Jazeera: las fuerzas de ocupación israelíes están irrumpiendo en varios barrios de la ciudad de Al-Bireh, en el centro de la Ribera Occidental",@AjaNews,,,,varios barrios de la ciudad de Al-Bireh,,,,mensajes,2025-11-15T11:32:57,2025-11-15T11:32:57
128,gaza,Sin clasificar,Un palestino habla de la tragedia de los desplazados tras la lluvia y el hundimiento de sus tiendas en Mawasi Khanyonis.,@yaseenpress2004,,,,Mawasi Khanyonis,,,,mensajes,2025-11-15T11:32:57,2025-11-15T11:32:57
129,gaza,Sin clasificar,"Turquía felicita a Palestina por el 37o aniversario de la Declaración de la Independencia, https://www.alquds.com/ar/posts/208414, publicado con nosotros y publicado en el Foro Al-Quds el sábado 15 de noviembre de 2025 a las 11.28 horas -hora de Al-Quds Turquía, felicitando a Palestina por el 37o aniversario de la Declaración de la Independencia.",WEB www.alquds.com,,,,Foro Al-Quds el sábado 15 de noviembre de 2025 a las 11,,,,mensajes,2025-11-15T11:33:14,2025-11-15T11:33:14
130,gaza,Sin clasificar,"Las fuerzas de ocupación israelíes están llevando a cabo explosiones de edificios de viviendas situados detrás de la línea amarilla en Rafah, al sur de la Franja de Gaza @Warlife3",@Warlife3,31.275205,34.255827,36RXV1954760782,Rafah,قطاع غزة,,administrative,cache,2025-11-15T11:33:59,2025-11-15T11:33:59
131,gaza,Sin clasificar,"* Los equipos de defensa civil, en coordinación con la Oficina de Coordinación de Asuntos Humanitarios de las Naciones Unidas (OCAH), pudieron llegar a las víctimas en la zona occidental de Rafah con poca antelación, después de obtener la autorización y de mejorar las condiciones meteorológicas y de seguridad.",@yaseenpress2004,,,,coordinación con la Oficina de Coordinación de Asuntos Humanitarios de las Naciones Unidas (OCAH,,,,mensajes,2025-11-15T11:33:59,2025-11-15T11:33:59
132,gaza,Sin clasificar,Una fuerza del ejército de ocupación penetra en los alrededores de Kafr a lo largo de la parte septentrional de la Jerusalén ocupada.,@yaseenpress2004,,,,alrededores de Kafr a lo largo de la parte septentrional de la Jerusalén ocupada,,,,mensajes,2025-11-15T11:36:58,2025-11-15T11:36:58
133,gaza,Sin clasificar,"Las fuerzas de ocupación israelíes irrumpieron en varios barrios de la ciudad de Al-Bireh, en el centro de la Ribera Occidental",@yaseenpress2004,,,,varios barrios de la ciudad de Al-Bireh,,,,mensajes,2025-11-15T11:39:57,2025-11-15T11:39:57
134,gaza,Sin clasificar,"El Presidente de los Estados Unidos, Donald Trump, confirmó hoy el sábado que los EE.UU. tienen la intención de realizar ensayos nucleares en un futuro próximo, señalando al mismo tiempo que el desarme nuclear sigue siendo la mejor solución para el control de armamentos.",@yaseenpress2004,,,,un futuro próximo,,,,mensajes,2025-11-15T11:41:58,2025-11-15T11:41:58
135,gaza,Sin clasificar,La diputada de los Estados Unidos Rashida Talib y otros 20 diputados están presentando un proyecto de resolución en la Cámara de Representantes pidiendo el reconocimiento oficial de un “genocidio” en la Franja de Gaza.,@yaseenpress2004,,,,Cámara de Representantes pidiendo el reconocimiento oficial de un “genocidio”,,,,mensajes,2025-11-15T11:42:59,2025-11-15T11:42:59
136,gaza,Sin clasificar,"Una investigación en Sudáfrica después de la llegada de un avión que transportaba a palestinos de Gaza sin documentos (https://www.alquds.com/ar/posts/208420), nos registró y publicó sus artículos en el Foro Al-Quds del sábado 15 de noviembre de 2025 a las 22 horas (hora de Jerusalén) después de la llegada de un avión que transportaba a palestinos de Gaza sin documentos, el Presidente de Sudáfr...",WEB www.alquds.com,,,,Sudáfrica después de la llegada de un avión,,,,mensajes,2025-11-15T12:30:17,2025-11-15T12:30:17
137,gaza,Sin clasificar,"El ejército israelí detiene a 15 palestinos durante las incursiones en la Ribera Occidental (https://www.alquds.com/ar/posts/208437), durante las cuales el ejército israelí detiene a 15 palestinos en zonas dispersas de la Ribera Occidental ocupada, durante las cuales 15 palestinos han sido detenidos después de registrar y registrar casas y destruir el contenido de algunas de ellas.",WEB www.alquds.com,35.661543,139.698750,54SUE8221947189,Ribera Occidental (https://www,,渋谷区,theatre,cache,2025-11-15T12:48:15,2025-11-15T12:48:15
138,gaza,Conflicto Armado,Fuente del ejército sudanés de la isla: El ejército está empujando grandes refuerzos en los ejes de combate de Kordofan para controlar más zonas,@AjaNews,,,,ejes de combate de Kordofan para controlar más zonas,,,,mensajes,2025-11-15T12:58:45,2025-11-15T12:58:45
139,gaza,Sin clasificar,"Guardias de la Revolución Islámica: Nuestras fuerzas detectaron, interceptaron y confiscaron el buque petrolero Talara después de una decisión judicial en el Irán de embargar su carga.",@AjaNews,,,,Irán de embargar su carga,,,,mensajes,2025-11-15T12:58:45,2025-11-15T12:58:45
140,gaza,Sin clasificar,- Guardias de la Revolución Islámica: el buque Talara transportaba 30.000 toneladas de petroquímicos y fue dirigido a la investigación de #Irán,@AjaNews,32.647531,54.564352,40SBB7154214833,Irán,,,administrative,cache,2025-11-15T12:58:45,2025-11-15T12:58:45
141,gaza,Sin clasificar,La investigación reveló que el buque petrolero incautado Talara era ilegal y transportaba un cargamento no autorizado.,@AjaNews,-4.511137,-81.098439,17MMR8907901372,Talara,Piura,,administrative,nominatim,2025-11-15T12:58:45,2025-11-15T12:58:45
142,gaza,Sin clasificar,Seguimiento por parte de la Directora del Centro Palestino para la Defensa de los Prisioneros de Lena Largo: las trágicas condiciones en que se encuentran los presos en las cárceles debido a la llegada del invierno y a la continua prohibición de la ocupación de introducir mantas y ropa de invierno no permiten a los prisioneros utilizar más que una sola manta y un solo vestido.,@GazaNewsNow,,,,Seguimiento por parte de la Directora del Centro Palestino para la Defensa de los Prisioneros de Lena Largo,,,,mensajes,2025-11-15T12:58:45,2025-11-15T12:58:45
143,gaza,Sin clasificar,"Guardias de la Revolución Islámica: Nuestras fuerzas detectaron, interceptaron y confiscaron el buque petrolero Talara después de una decisión judicial en el Irán de embargar su carga. El buque Talara transportaba 30.000 toneladas de petroquímicos y se dirigió al Irán para su investigación.",@Warlife3,,,,Irán de embargar su carga,,,,mensajes,2025-11-15T12:58:45,2025-11-15T12:58:45
144,gaza,Disturbios Civiles,"El grito de un joven ahogado en su tienda con fuertes lluvias, asediado por las duras condiciones y el bloqueo israelí, que restringieron la vida en el sector",@hamza20300,,,,su tienda con fuertes lluvias,,,,mensajes,2025-11-15T12:58:45,2025-11-15T12:58:45
145,gaza,Sin clasificar,Pedimos a todos los que tengan llamadas de personas desaparecidas y de personas desaparecidas que se unan a nuestros canales de difusión de llamamientos dentro de la Franja de Gaza a través del enlace: https://t.me/GAZA20249 @Q_Z_M_E @Jamila_gaza @,@hamza20300,,,,Pedimos a todos los,,,,mensajes,2025-11-15T12:58:45,2025-11-15T12:58:45
146,gaza,Sin clasificar,"# Proclamar un éxito... un lugar donde los jóvenes están desarrollando un día y dos meses más, pero el khotch Yusuf de Gaza es una gran comunidad de comercio desde Gaza y desde el mundo árabe, de personas que se enorgullecen de Gaza. # El khotch Yusuf es un trabajo claro... lo que tienen mis cazadores y no tiene nada que pagar para unirse a nosotros en el canal #",@hamza20300,,,,Proclamar,,,,mensajes,2025-11-15T12:58:45,2025-11-15T12:58:45
147,gaza,Sin clasificar,"El nuevo jefe del Servicio de Seguridad General de Israel, David Zinni, sugirió hoy que los colonos a los que llamó ""motines"" fueran arrestados con esposas electrónicas.",@hamza20300,32.489258,-116.960143,11SNR0374494669,Servicio,Baja California,Municipio de Tijuana,residential,cache,2025-11-15T12:58:45,2025-11-15T12:58:45
148,gaza,Sin clasificar,"Les pedimos que lleven el sufrimiento de los habitantes de Gaza a todas partes del mundo, pero nuestros habitantes de Gaza no tienen más que su voz, y los corazones se mueven antes que las manos para salvarlos.",@hamza20300,40.715936,-73.986806,18TWL8557607717,Les,New York,New York County,neighbourhood,cache,2025-11-15T12:58:45,2025-11-15T12:58:45
149,gaza,Sin clasificar,"El portavoz de Hamas, Hazem Kassem: El desastre que vivimos en la Franja de Gaza, que se agravó con la llegada del invierno, exige una posición clara de la Liga de los Estados Árabes, basada en el documento constitutivo de la Liga de los Estados Árabes, así como de la Organización de la Conferencia Islámica.",@muthanapress84,31.443223,34.360007,36RXV2923579524,Franja de Gaza,قطاع غزة,,administrative,cache,2025-11-15T12:58:46,2025-11-15T12:58:46
150,gaza,Sin clasificar,Las fuerzas ocupantes irrumpieron en la ciudad de Al-Bireh.,@yaseenpress2004,33.584725,35.819884,36SYC6171119676,Al-Bireh,محافظة البقاع,,village,cache,2025-11-15T12:58:46,2025-11-15T12:58:46
151,gaza,Sin clasificar,"Un soldado israelí está publicando un video de un avión tripulado que la dirige a la casa de una familia palestina y se ríe mientras asusta a la gente como si fuera un juego, y nadie sabe el destino de esa familia.",@yaseenpress2004,,,,,,,,mensajes,2025-11-15T12:58:46,2025-11-15T12:58:46
152,gaza,Sin clasificar,"Frente Popular: La ocupación utiliza el invierno como nuevo arma de exterminio en Gaza y deja a las personas desplazadas ahogadas y frías sin hogar ni ayuda. Pedimos que se fortalezca la solidaridad social en la Franja de Gaza, aunando los esfuerzos de las personas, los órganos, las instituciones y los municipios para aliviar el sufrimiento de las familias más afligidas.",@yaseenpress2004,,,,Gaza y deja a las personas desplazadas ahogadas y frías sin hogar ni ayuda,,,,mensajes,2025-11-15T12:58:46,2025-11-15T12:58:46
153,gaza,Sin clasificar,"** Organismo de Obras Públicas y Socorro de las Naciones Unidas para los Refugiados de Palestina en el Cercano Oriente (OOPS): Las lluvias hacen más difícil la situación en la Franja de Gaza y las familias recurren a cualquier lugar disponible, incluidas las tiendas de campaña temporales.",@yaseenpress2004,41.375159,-74.659211,18TWL2849780460,Cercano Oriente (OOPS): Las lluvias hacen más difícil la situación,New York,Orange County,path,nominatim,2025-11-15T12:58:46,2025-11-15T12:58:46
154,gaza,Sin clasificar,Un joven con niños y huérfanos dentro de su tienda habla de las duras circunstancias después de que el agua de lluvia inundara su tienda en Mawasi Khanes.,@yaseenpress2004,,,,Mawasi Khanes,,,,mensajes,2025-11-15T12:58:46,2025-11-15T12:58:46
155,gaza,Sin clasificar,"Fuentes de prensa: Un avión teledirigido israelí cayó en la ciudad de Kfar Kila, en el Líbano meridional.",@yaseenpress2004,33.282713,35.558755,36SYB3829485550,Kfar Kila,محافظة النبطية,,administrative,nominatim,2025-11-15T12:58:46,2025-11-15T12:58:46
156,gaza,Sin clasificar,"El portavoz de Hamas, Hazem Kassem: La catástrofe que vivimos en la Franja de Gaza, que se agravó con la llegada del invierno, exige una posición clara de la Liga de los Estados Árabes, basada en el documento constitutivo de la Liga de los Estados Árabes, así como de la Organización de la Conferencia Islámica.",@yaseenpress2004,31.443223,34.360007,36RXV2923579524,Franja de Gaza,قطاع غزة,,administrative,cache,2025-11-15T12:58:46,2025-11-15T12:58:46
157,gaza,Hazards,"Frente Democrático: Hacemos un llamamiento para que se adopten las medidas más eficaces y eficaces, tanto en el plano oficial como en el comunitario, a fin de proporcionar a nuestra población de la Franja de Gaza los medios necesarios para que no se vea desplazada por las bajas aéreas, que han provocado vientos, lluvias, inundaciones y fríos, lo que ha provocado la destrucción de las tiendas de...",@yaseenpress2004,,,,plano oficial como,,,,mensajes,2025-11-15T12:58:46,2025-11-15T12:58:46
158,gaza,Sin clasificar,"Las fuerzas de ocupación están irrumpiendo en la aldea de Al-Mugheer, al noreste de Ramallah.",@yaseenpress2004,,,,aldea de Al-Mugheer,,,,mensajes,2025-11-15T12:58:46,2025-11-15T12:58:46
159,gaza,Sin clasificar,"Las madres que lloran y los niños que tiemblan por el segundo día consecutivo, los desplazados palestinos en la Franja de Gaza, cuyos hogares fueron destruidos por Israel y que se negaron a introducir alternativas de alojamiento, se infiltraron en el agua de lluvia y se infiltraron en sus cuerpos después de haberse hundido las tiendas de campaña y derramado la mayor parte de sus pertenencias pe...",WEB www.alquds.com,31.443223,34.360007,36RXV2923579524,Franja de Gaza,قطاع غزة,,administrative,cache,2025-11-15T12:58:49,2025-11-15T12:58:49
160,gaza,Sin clasificar,"Fuentes familiares: Los servicios de seguridad del poder arrestan a los presos liberados y a los estudiantes de la Universidad Al-Quds, Abu Dis Muhand Fakhisheh, semanas después de haber sido liberado de las cárceles de ocupación.",@yaseenpress2004,31.913366,35.199767,36RYA0799732944,Universidad Al-Quds,الضفة الغربية,منطقة أ,university,nominatim,2025-11-15T12:59:39,2025-11-15T12:59:39
161,gaza,Sin clasificar,"Guardia Revolucionaria Iraní: Ayer, el viernes, para proteger los intereses del Irán, detuvimos el buque Talara, y el petrolero fue llevado a aguas iraníes con 30.000 toneladas de productos petroquímicos.",@yaseenpress2004,,,,Guardia Revolucionaria Iraní,,,,mensajes,2025-11-15T13:05:38,2025-11-15T13:05:38
