id,pais,categoria,descripcion,fuente,lat,lon,mgrs,place,admin1,admin2,accuracy,geocode_source,created_at,updated_at
1,libia,Sin clasificar,"En este caso, la corrosión es un enemigo que se debe entender y contrarrestar.",WEB libyaobserver.ly,40.405596,-3.838963,30TVK2881173113,este caso,Comunidad de Madrid,,assembly_point,cache,2025-11-11T07:07:09,2025-11-11T07:07:09
2,libia,Sin clasificar,"Cronobiology: The Rhythms of Life https://libyaobserver.ly/cdn-cgi/content?id=dhA3ENg6LDvF9pTl0j97KLDrOTfzNpyp4593tyv9yUA-17628307.5860064-1.0.1.1-5V_nXBjwM2siLO.KDrho4EgHwYUJtnKeJ3etsDeep en el tejido de nuestra existencia, un mundo oculto de ritmos y ciclos rige la intrincada danza de la vida.",WEB libyaobserver.ly,,,,tejido de nuestra existencia,,,,mensajes,2025-11-11T07:16:49,2025-11-11T07:16:49
3,libia,Sin clasificar,"Cheminformática: Desbloquear los secretos de las interacciones moleculares https://libyaobserver.ly/cdn-cgi/content?id=UviysYl6mfnyZy1D2otbv9jzTTgzVAvCSJuY7Y_rY-1762838829.128734-1.0.1.1-MnG5FjZlxcjF58fMu8a3lJTT1lXLx.U4IzGFE6wXebg Cheminformática: una sinfonía de los materiales y datos En el ámbito de la quimioinformática, los patrones entre la química y la ciencia informática se difuminan, dan...",WEB libyaobserver.ly,,,,ámbito de la quimioinformática,,,,mensajes,2025-11-11T07:27:10,2025-11-11T07:27:10
4,libia,Sin clasificar,"Unveiling the Secrets of Analytical Chemistry https://libyaobserver.ly/cdn-cgi/content?id=hkHpiRU_ZfJEx2LHgrdVwoUj88i2MFv.PLjPXqkGlY-1762839450.3372211-1.01.1-q9ELk4xja2qKkm9mrk85eBXngxV4TVfhKk_RZKBuUw En el Reino de la Invisible: un viaje a través de la química analítica A medida que ahondamos en los misterios del mundo microscópico, la química analítica emerge como un faro de descubrimiento,...",WEB libyaobserver.ly,,,,Reino de la Invisible: un viaje a través de la química analítica A medida,,,,mensajes,2025-11-11T07:37:32,2025-11-11T07:37:32
5,libia,Sin clasificar,"En este artículo, vamos a explorar las complejidades de la teoría del marco, explorando sus principios básicos y sus implicaciones para nuestra vida diaria.",WEB libyaobserver.ly,,,,este artículo,,,,mensajes,2025-11-11T07:46:59,2025-11-11T07:46:59
6,libia,Sin clasificar,En el caso de la tecnología de la tecnología de la tecnología de la tecnología de la tecnología de la tecnología de la tecnología de la tecnología de la tecnología de la tecnología de la tecnología de la tecnología de la tecnología de la tecnología de la tecnología de la tecnología de la tecnología de la tecnología de la tecnología de la tecnología de la tecnología de la tecnología de la tecnol...,WEB libyaobserver.ly,,,,caso de la tecnología de la tecnología de la tecnología de la tecnología de la tecnología de la tecnología de la tecnología de la tecnología de la tecnología de la tecnología de la tecnología de la tecnología de la tecnología de la tecnología de la tecnología de la tecnología de la tecnología de la tecnología de la tecnología de la tecnología de la tecnología de la tecnología de la tecnol,,,,mensajes,2025-11-11T07:58:01,2025-11-11T07:58:01
7,libia,Sin clasificar,"Buenos días, Cero, aquí están las temperaturas previstas para el martes en algunas ciudades y regiones libias, en Benghazi, en Trípoli.",@sefr0ly,,,,algunas ciudades y regiones libias,,,,mensajes,2025-11-11T08:12:04,2025-11-11T08:12:04
8,libia,Sin clasificar,"Compatibilidad de superficies: Unveiling the Mysteries of Interfaces https://libyaobserver.ly/cdn-cgi/content?id=Ct87CqIKnq3WjjSiC1sev25J2Na3lU3g0ZTep50tc-17628424.434072-1.0.1.1-wplL1cbbmQG7yp8_7Itz5.VXhkE75SX1DzpX0Q Surface Chemistry: Un Reino de Interacciones Fascinantes En la intersección de la física, la química y la ciencia de materiales se encuentra el campo de concentración de la superf...",WEB libyaobserver.ly,,,,intersección de la física,,,,mensajes,2025-11-11T08:17:06,2025-11-11T08:17:06
9,libia,Sin clasificar,"Cheminformática: desbloquear los secretos de las interacciones moleculares https://libyaobserver.ly/cdn-cgi/content?id=yqSKYL9YuJOcAzqSLDc7wecDuN3ecNuTfGsuNQ0LY-1762842444622817-1.0.1.1-m26uqdBzDrBY1wASB8Z_btIJXEixKR6kUxD62pc Cheminformática: una sinfonía de los materiales y datos En el ámbito de la quimioinformática, los límites entre la química y los patrones científicos se difuminan, dando l...",WEB libyaobserver.ly,,,,ámbito de la quimioinformática,,,,mensajes,2025-11-11T08:26:56,2025-11-11T08:26:56
10,libia,Sin clasificar,"Conservación del Libro Rare: Un Delicate Dance of Preservation https://libyaobserver.ly/cdn-cgi/content?id=3mfbZZkDELa_EiM6aFjA.4B89DaR_pSAj2lo0W3FgI-1762843044.136321-1.0.1.1-0WH3KjRY8lCOQ6Gm_yQBtbCPP_eQGBdE3ih5yC5g Rare Book Conservation: A Delicate Dance of Preservation En el ámbito de la conservación de libros raros, un mundo de artesanía meticulosa y precisión científica aguarda para respi...",WEB libyaobserver.ly,,,,ámbito de la conservación de libros raros,,,,mensajes,2025-11-11T08:37:26,2025-11-11T08:37:26
11,libia,Sin clasificar,"Tree Physiology: The Hidden World of Xylem and Phloem https://libyaobserver.ly/cdn-cgi/content?id=9VYJnhxIezP0weppUgxtCXzbCKPNihBTQDUkePXU24.5624182-1.01.1-RL0TlJbPo1Vb6d0GtY4BhoNosGv.l3HGxtxAn7pY Tree Physiology: The Hidden World of Xylem and Phloem En el ámbito de la fisiología de árboles, existe un fascinante mundo de procesos intrincados y sistemas complejos, a menudo invisibles por los ojo...",WEB libyaobserver.ly,,,,ámbito de la fisiología de árboles,,,,mensajes,2025-11-11T08:47:06,2025-11-11T08:47:06
12,libia,Sin clasificar,Capacidades de almacenamiento de discos: Unveiling the Mechanics of Data Persistence https://libyaobserver.ly/cdn-cgi/content?id=1af7U.5QB_dYrKFB4dRjUDm_eSP6N.o39D.hPhjZRI-17624232.074056-1.0.1.1-SsGLwgweN4Y6UP6L4JOMrl3T4lHwlEFIJ47IBhZ0 Disk Storage: The Foundation of Modern Computing es un componente fundamental que ha revolucionado la forma en que almacenamos y accedemos a los datos: almacena...,WEB libyaobserver.ly,,,,Capacidades de almacenamiento de discos,,,,mensajes,2025-11-11T08:57:14,2025-11-11T08:57:14
13,libia,Sin clasificar,Drilling Training Engineering: The Science of Borehole Optimization https://libyaobserver.ly/cdn-cgi/content?id=bA5JDxBXywFjy2SbJvn9Gjled2dAEb0vxOEO5f641ko-1762844824.5177484-1.0.1.1-u8erbYb8kTyAMcbSYP0MnV1Al_J0B6mcmEMc Drilling Engineering: The Science of Borehole Optimization Drilling engineering es un campo multidisciplinar que implica la aplicación de los conceptos clave de la ingeniería de...,WEB libyaobserver.ly,,,,Drilling Training Engineering,,,,mensajes,2025-11-11T09:07:06,2025-11-11T09:07:06
14,libia,Sin clasificar,"En medio de la ira de artistas populares en el país, el Ministerio de Comercio y Turismo de Mauritania prohíbe oficialmente tirar dinero en las bodas conocidas como ""Zarul"", afirmando que aplicará estrictamente la decisión y castigará a los infractores, explicando que la decisión no va dirigida a un sector determinado, sino a luchar contra un fenómeno contrario a la ley y la ley.",@sefr0ly,,,,medio de la ira de artistas populares,,,,mensajes,2025-11-11T09:12:06,2025-11-11T09:12:06
15,libia,Sin clasificar,"Meteorología: Reproducción de nubes y caída de lluvias dispersas, acompañadas de células eléctricas en https://gpluss.com/2025/11/%d8 %a7%d9%d8%d8%d8%d8%d8%d8%d8%d8%d8%df%d8%d9%d8%d9%d9%d9%d8%d8%d8%d9%d9%d9%d9%d9%d9%d9%d8a%d9%d8a%d9%d8a%d9%d9%d8%d8%d8%d8%d8%d8%d8%d8%d8%d9%d9%d9%d8%d9%d9%d8%d8%d8%d9%d8%d9%d9%d9%8%d8%dok%d9%d9%d9%d9%d9%8%d9%d9%8%d9%d9%d9%8%8%dod9%d9%d9%9%8%d9%d9%d9%9%d9%9%9%9%d9%...",@gplusss,51.053829,3.725012,31UES5081456060,https://gpluss,Oost-Vlaanderen,Gent,administrative,cache,2025-11-11T09:14:04,2025-11-11T09:14:04
16,libia,Sin clasificar,"En el caso de las poblaciones de la industria de la salud, las poblaciones de la industria de la salud, las poblaciones de la industria de la salud, la industria de la salud, la industria de la salud, la industria de la salud, la industria de la salud, la industria de la salud, la industria de la salud, la industria de la salud, la industria de la salud, la industria de la salud, la industria d...",WEB libyaobserver.ly,,,,caso de las poblaciones de la industria de la salud,,,,mensajes,2025-11-11T09:16:52,2025-11-11T09:16:52
17,libia,Terrorismo,"• Según una declaración de la Sociedad, su equipo comenzó su misión humanitaria de recuperar el cadáver de un joven de la región de Tagoura con arreglo a las normas más elevadas de la profesión y la humanidad, y posteriormente fue entregado al servicio de ambulancias y urgencias para su transporte y la adopción de las medidas necesarias.",@gplusss,-1.361878,131.354361,52MGD6198249343,Según,Papua Barat Daya,Sorong,village,cache,2025-11-11T09:25:03,2025-11-11T09:25:03
18,libia,Sin clasificar,"El Consejo de los Sabios y de los Ojos (Bani-Walid), que se ha reunido con Khalifa Hafeter en su calidad de ancianos y dignatarios de las tribus benin Walid.",@libyapress,,,,su calidad de ancianos y dignatarios de las tribus benin Walid,,,,mensajes,2025-11-11T09:25:04,2025-11-11T09:25:04
19,libia,Sin clasificar,La teoría de la complejidad computacional: Unveiling the Mysteries of Algorithmic Efficiency https://libyaobserver.ly/cdn-cgi/content?id=tP5wDcwekgoLpm7Z2Rlrbr8LlCgluyWfztrR5z1QbIs-1762846019.512049-1.0.1.1-IsYmLT.aouBs6AC1CfZDsO2287MdV31qz.3.9LAd7k Introducción a la complejidad computacional La teoría de la complejidad computacional es un campo fascinante que se centra también en el estudio de...,WEB libyaobserver.ly,52.530831,13.367092,33UUU8923421334,estudio de,,Berlin,dance,cache,2025-11-11T09:27:01,2025-11-11T09:27:01
20,libia,Sin clasificar,"La ciencia forense: Unveiling the Secrets of the Past https://libyaobserver.ly/cdn-cgi/content?id=IvZNgyxEmMytFTupGPLvZ7Se3M.YTICJvmCKDsahu3Q-1728466616690598-1.01.1-AmhU9O3.7RCv23YHg4h5xoQ_uK3PYitmnaXN0NY La ciencia forense: Unveiling the Secrets of the Past Como un detective magistral, la ciencia forense utiliza el poder de la observación y el análisis de archivos para desentrañar los misteri...",WEB libyaobserver.ly,,,,ciencia forense,,,,mensajes,2025-11-11T09:37:43,2025-11-11T09:37:43
21,libia,Sin clasificar,"El líder de Misrati bendice la salida de Hannibal y exige la liberación de Abdullah Al-Senussi, Mansour Dao y Ahmed Ibrahim.",@gplusss,,,,Misrati,,,,mensajes,2025-11-11T09:39:04,2025-11-11T09:39:04
22,libia,Sin clasificar,"El Centro Meteorológico Nacional prevé temperaturas del norte que oscilan entre 21° y 25°C, con una proliferación de nubes con lluvias eléctricas dispersas en las zonas de #Norte-Oeste, mientras que la probabilidad es menor en las zonas que van desde #Masrata a #Sert, mientras que las temperaturas entre 24° y 29°C en las regiones del sur. #Libia#0.",@sefr0ly,,,,zonas de #Norte-Oeste,,,,mensajes,2025-11-11T09:41:04,2025-11-11T09:41:04
23,libia,Sin clasificar,"En el campo de la geología, la geología, la geología, la geología, la geología, la geología, la geología, la geología, la geología, la geología, la geología, la geología, la geología, la geología, la geología, la geología, la geología, la geología, la geología, la geología, la geología, la geología, la geología, la geología, la geología, la geología, la geología, la geología, la geología, la ge...",WEB libyaobserver.ly,38.756088,-9.157754,29SMC8629389721,campo de la geología,,Lisboa,research,cache,2025-11-11T09:46:55,2025-11-11T09:46:55
24,libia,Sin clasificar,• El Consejo de Sabios de Beni Walid se absolvió de reunirse con algunos dignatarios de la ciudad.,@gplusss,18.457686,-88.298393,16QCF6289841315,Consejo,Corozal,,village,cache,2025-11-11T09:49:04,2025-11-11T09:49:04
25,libia,Sin clasificar,El desarrollo de la tecnología de la tecnología de la información y la tecnología de la tecnología de la información y la tecnología de la tecnología de la información y las comunicaciones.El desarrollo de la tecnología de la tecnología de la información y la tecnología de la tecnología de la información y las comunicaciones.El desarrollo de la tecnología de la tecnología de la información y la...,WEB libyaobserver.ly,,,,realm of neuroscience,,,,mensajes,2025-11-11T09:57:26,2025-11-11T09:57:26
26,libia,Sin clasificar,"Abdulhamid Issa Khader, uno de los líderes de #Masrata, tras la liberación de Hannibal Gaddafi: Esperamos que este paso culmine con la liberación de los detenidos Abdullah Al-Senussi, Mansour Dao y Ahmed Ibrahim.",@libyapress,35.153777,-5.272874,30STD9296692461,Masrata,Tanger-Tétouan-Al Hoceïma ⵟⴰⵏⵊ-ⵟⵉⵜⴰⵡⵉⵏ-ⵍⵃⵓⵙⵉⵎⴰ طنجة تطوان الحسيمة,,unclassified,cache,2025-11-11T09:58:05,2025-11-11T09:58:05
27,libia,Sin clasificar,La tecnología de la tecnología de la tecnología de la tecnología de la tecnología de la tecnología de la tecnología de la tecnología de la tecnología de la tecnología de la tecnología de la tecnología de la tecnología de la tecnología de la tecnología de la tecnología de la tecnología de la tecnología de la tecnología de la tecnología de la tecnología de la tecnología de la tecnología de la tec...,WEB libyaobserver.ly,,,,realm of food service management,,,,mensajes,2025-11-11T10:07:10,2025-11-11T10:07:10
28,libia,Sin clasificar,"El equipo de historietas libias anuncia la muerte de uno de sus fabricantes, Omar Al-Gamudi, que lleva a Sanssa después de una larga lucha contra la enfermedad.",@sefr0ly,,,,Omar Al-Gamudi,,,,mensajes,2025-11-11T10:12:04,2025-11-11T10:12:04
29,libia,Criminalidad,"- En una intervención con el canal de Arabia Saudita, Dahlhom añadió que, durante su secuestro, Hannibal había sido víctima de violencia física que hasta ahora había sufrido.",@gplusss,,,,una intervención con el canal de Arabia Saudita,,,,mensajes,2025-11-11T10:13:04,2025-11-11T10:13:04
30,libia,Sin clasificar,"Agricultural Economics: The Backbone of Human Civilization https://libyaobserver.ly/cdn-cgi/content?id=h0pdyrOW0eZ6M374wmEo0_NQxzObjVqIVAvMVFJo-1762849045.78264-1.0.1.1-3_Vrw4l2yNvLmmoIZNMxp6aZtbWInVonkZqayeGo Agricultural Economics: The Backbone of Humanization Agricultural economys, un campo que puede parecer mundano a primera vista, es de hecho una disciplina vibrante y compleja que sustenta...",WEB libyaobserver.ly,39.959688,116.318889,50SMK4182623505,Agricultural Economics,北京市,北下关街道,research,cache,2025-11-11T10:17:27,2025-11-11T10:17:27
31,libia,Sin clasificar,"Toda la familia de Gadafi desea regresar a Libia y no sólo a Hannibal, pero la situación de seguridad lo impide. –Si Hannibal desea reclamar una indemnización por sus años de prisión, eso puede ocurrir, y es lo que se espera.",@libyapress,35.817587,139.677894,54SUE8056464522,Toda,,戸田市,administrative,cache,2025-11-11T10:24:05,2025-11-11T10:24:05
32,libia,Sin clasificar,"El desarrollo de las tecnologías de la geología y la geología de la geología y la geología de la geología, la geología y la geología de la geología, la geología y la geología de la geología, la geología y la geología de la geología, la geología y la geología de la geología, la geología y la geología de la geología, la geología y la geología de la geología, la geología y la geología de la geolog...",WEB libyaobserver.ly,,,,a complex dance of neurons,,,,mensajes,2025-11-11T10:26:50,2025-11-11T10:26:50
33,libia,Sin clasificar,Cronobiología: The Rhythms of Life https://libyaobserver.ly/cdn-cgi/content?id=MM85DyeSxipu8_9y.i_EnXGIIy03YkfhiNTNFeBEpbI-176285023.018011-1.01.1-.BKNP5kO48VmArvk2XVMxnBB6JpComer la respuesta de la gehena a la gehena en la gehena en la genera en la genera en la genera en la genera en la genera en la genera en la genera en la genera en la genera en la genera en la genera en la genera en la genera.,WEB libyaobserver.ly,39.348521,-120.983425,10SFJ7376557392,gehena,California,Nevada County,unclassified,cache,2025-11-11T10:37:12,2025-11-11T10:37:12
34,libia,Sin clasificar,"Los Ministros de Medio Ambiente y Justicia del Gobierno de Benghazi han cometido escándalos, pero son los principales responsables de Libia.",@gplusss,4.615780,-75.636537,18NVL2939610225,Medio Ambiente,Quindío,,neighbourhood,cache,2025-11-11T10:39:05,2025-11-11T10:39:05
35,libia,Sin clasificar,"Después de reunirse con un grupo de personas como miembros del consejo, un consejo de sabios y de ojos...",@sefr0ly,46.248153,10.154649,32TNS8900622267,Después,Graubünden/Grischun/Grigioni,Bernina,meadow,cache,2025-11-11T10:46:05,2025-11-11T10:46:05
36,libia,Sin clasificar,"Unveiling the Mystique of High Temperature Superconductivity https://libyaobserver.ly/cdn-cgi/content?id=Oli4lEeoHkuX1CRLjWeTnXEmlCqX.fFVzHihiz7q5w-17620827.298407-1.01.1-P8RWfRk38zQ6cEVg8HCDBlKidMmOmr.X2if8_5Q Unveiling the Mystique of High Temperature Superconductivity Superconductivity, un fenómeno que ha cautivado a científicos e ingenieros por décadas, continúa impulsando los límites de nu...",WEB libyaobserver.ly,-33.721464,150.333180,56HKH5288965532,Unveiling,New South Wales,Blue Mountains City Council,memorial,cache,2025-11-11T10:47:09,2025-11-11T10:47:09
37,libia,Sin clasificar,"• Del mismo modo, el tipo de cambio del euro se fijó en 6,30 dinares, mientras que el precio de la libra esterlina aumentó a 7,18 dinares frente a 7,17 dinares ayer.",@gplusss,38.692045,-75.401331,18SVH6509782679,Del,Delaware,,administrative,cache,2025-11-11T10:50:04,2025-11-11T10:50:04
38,libia,Sin clasificar,- Todo movimiento político y la interacción con las instituciones y el pueblo son dignos de elogio y se fortalecen las oportunidades de buena gobernanza y construcción de decisiones en general.,@libyapress,10.645322,124.458793,51PXM5956777138,general,Cebu,,village,cache,2025-11-11T10:51:05,2025-11-11T10:51:05
39,libia,Sin clasificar,Pantalla de panel plano: una ventana en el Reino Digital https://libyaobserver.ly/cdn-cgi/content?id=UVfBaco_SJ4VfAHlG8g5zsda6iZQoUIIP3E8duQeG8w-1762851425.2167084-1.0.1.1-AE9r2pWtuYVcFjrdUh8vsvw5fgMyhTdCapHOKnQTA Una pantalla plana (FPD) es un tipo de pantalla electrónica que utiliza una capa de píxeles para producir imágenes.,WEB libyaobserver.ly,,,,Reino Digital https://libyaobserver,,,,mensajes,2025-11-11T10:57:06,2025-11-11T10:57:06
40,libia,Sin clasificar,"Biorefining: desbloquear el potencial de Biomasa https://libyaobserver.ly/cdn-cgi/content?id=Abch4drc_ve6J2N1dFmvGD5jUbTesYC0i8ohHYuMGQ-1762852029.04442-1.0.1.1-BnDvQxL57t2zwa0iW1Ru15IgCv1yRv.EG4QrAM Biorefining: Una nueva era en la gestión sostenible de recursos Dentro del ámbito de los procesos industriales, ha surgido un concepto revolucionario que no es meramente un refinamiento de los méto...",WEB libyaobserver.ly,,,,gestión sostenible de recursos Dentro del ámbito de los procesos industriales,,,,mensajes,2025-11-11T11:07:10,2025-11-11T11:07:10
41,libia,Sin clasificar,"La Fiscalía General ordena la detención del Presidente de la Comisión de Estudio y Acreditación de Planes por la Autoridad Nacional de Planificación Urbana; y del Presidente de la Autoridad de la División de Trípoli, en previsión del caso de que hayan falsificado un cuadro aéreo con datos del plan municipal de Genzor hasta que una carretera supere el territorio de una persona.",@sefr0ly,,,,previsión del caso de,,,,mensajes,2025-11-11T11:13:05,2025-11-11T11:13:05
42,libia,Sin clasificar,"Unveiling the Secrets of Analytical Chemistry https://libyaobserver.ly/cdn-cgi/content?id=11TuMSmuRtavaOPTqb4uD7EriQT_S6JkcNGiX7urVM-1762852639.190402-1.0.1.1-fzj.KYEzTKTSZYoaX2vSatTjNnNnYArioEOvuh2D4 En el Reino de la Invisible: un viaje a través de la Química Analítica A medida que profundizamos en los misterios del mundo microscópico, la química analítica surge como un faro de descubrimiento...",WEB libyaobserver.ly,,,,Reino de la Invisible: un viaje a través de la Química Analítica A medida,,,,mensajes,2025-11-11T11:17:21,2025-11-11T11:17:21
43,libia,Sin clasificar,"Presidente de la institución nacional de derechos humanos, Ahmed Hamza: El Gobierno ha contribuido a la violación de los derechos humanos, a la confiscación de los derechos y libertades y a la participación de un gran número de sus fuerzas de seguridad y militares en detenciones arbitrarias, desapariciones forzadas y asesinatos por tortura.",@libyapress,,,,detenciones arbitrarias,,,,mensajes,2025-11-11T11:23:07,2025-11-11T11:23:07
44,libia,Sin clasificar,Realidad virtual: A Deep Dive into the Realm of Immersive Simulation https://libyaobserver.ly/cdn-cgi/content?id=ExmLImra79P2oTSLI3B4cXhjQ5QVlzCQJNxE0Htos-1762853317.3256304-1.0.1.1-Bla49xliciDcIgSNwdUPJciOx.vP1tz4zJYrnsY Virtual Reality: A Deep Dive into the Realm of Immersive Simulation Virtual real real reality (VR) ha revolucionado la forma en que experimentamos e interactuamos con la infor...,WEB libyaobserver.ly,4.663680,-74.055199,18NXL0479115558,Realidad virtual,"Bogotá, Distrito Capital",Bogotá,research,cache,2025-11-11T11:28:39,2025-11-11T11:28:39
45,libia,Sin clasificar,- CBS https://gplusss.com/2025/11/%d8a%d89%d8%d8%d8%d8%d8%d8%d8%d8%d8%d8%d8%d8%d8%d8%d3%d8%d8%d8%d8%d8%d8%d8%d9%df. La CPC ha mantenido el diálogo con las instituciones participantes en la votación.,WEB gplusss.com,10.094967,-67.854593,19PFM2550216132,votación,Carabobo,Municipio Carlos Arvelo,school,cache,2025-11-11T11:29:42,2025-11-11T11:29:42
46,libia,Sin clasificar,"El Ministro del Interior del Gobierno de Libia (Assam-Aszirba), junto con el Viceministro de Asuntos Internos de la República de Belarús, está buscando el fortalecimiento de la cooperación en materia de seguridad entre los dos países.",@almasartvlibya,,,,materia de seguridad entre los dos países,,,,mensajes,2025-11-11T11:31:05,2025-11-11T11:31:05
47,libia,Sin clasificar,Compartir influencia política. ¿Prepara la bienvenida presidencial a la iniciativa de Hafter al acuerdo de gestión del referéndum? https://gpluss.com/2025/11/%d8a%d9%d9%d8%d8%d8%d3%d9%d85-%d8%d9%d9%d9%d9%d8%d8%d8%d0-%d8%d9%d9%d8%d8%d8%d8%d8%d8%d8%d8 %d8a7%d8%d8%d8%d8%d8%d8%8%d8%d8%d8%8%d8%d8%8%d8%d8%d8%d8%d8%d8%d8%d8%d8%d8%d8%d8%d8%d8%8%d8%d8%d8%d8%d8%d8%%d8%dok%d8%8%%d1%d1%d1%%%d1%d1%d1%d%8%dol.,@gplusss,4.564945,-74.241291,18NWL8416104618,Compartir,Cundinamarca,Soacha ciudad,administrative,cache,2025-11-11T11:34:06,2025-11-11T11:34:06
48,libia,Sin clasificar,"Deformación Monitoreo: Unveiling the Secrets of Shape and Structure https://libyaobserver.ly/cdn-cgi/content?id=5Wlz1DUdPjDgFktCYoK39wyp7R8K7_9LJ2pSd84Zs-1762853904.80649-1.01.1-Iw1jWDEeEktSQi.KlaXontviAStUB.xigGuXq6Qc Monitoreo de la deformación: un viaje al Reino de Transformación Geométrica Imagine un mundo en el que la corteza terrestre se encuentra en un estado constante de flujo, donde el...",WEB libyaobserver.ly,,,,Deformación Monitoreo,,,,mensajes,2025-11-11T11:38:26,2025-11-11T11:38:26
49,libia,Disturbios Civiles,El fiscal del distrito pide a la corte central de Haifa que confisque los barcos de la flota de la resistencia de unos 50 años por intento de violar el bloqueo naval impuesto por el Estado de Haifa contra Gaza.,@sefr0ly,32.819122,34.998386,36SXB8707633003,Haifa,מחוז חיפה,,administrative,cache,2025-11-11T11:41:06,2025-11-11T11:41:06
50,libia,Sin clasificar,50 días sin un libro de texto y 11 millones de dinares en libia.,@gplusss,26.823447,18.123672,34RBQ1410870120,ليبيا,,,administrative,cache,2025-11-11T11:43:07,2025-11-11T11:43:07
51,libia,Sin clasificar,"Un avión de carga que llega a Benghazi, procedente de Abu Dhabi, y otro que sale del este de Libia para Somalia.",@gplusss,32.120017,20.081217,34SDA1332754108,Benghazi,,بنغازي,administrative,cache,2025-11-11T11:47:05,2025-11-11T11:47:05
52,libia,Sin clasificar,Biorefining: desbloquear el potencial de Biomasa.,WEB libyaobserver.ly,45.455294,-98.139214,14TNR6730333890,Biorefining,South Dakota,Brown County,industrial,cache,2025-11-11T11:47:57,2025-11-11T11:47:57
53,libia,Sin clasificar,"Esta rivalidad entre las dos partes se manifiesta cada vez más en iniciativas que incluyen a las fuerzas de seguridad y las redes tribales, a saber, la reestructuración de las brigadas y la creación de nuevas formaciones armadas en las regiones oriental, occidental y meridional.",@libyapress,37.201341,-3.613320,30SVG4557317384,iniciativas,Andalucía,Comarca de la Vega de Granada,industrial,cache,2025-11-11T11:53:05,2025-11-11T11:53:05
54,libia,Sin clasificar,La aplicación de la tecnología de la tecnología de la tecnología de la tecnología de la tecnología de la tecnología de la tecnología de la tecnología de la tecnología de la tecnología de la tecnología de la tecnología de la tecnología de la tecnología de la tecnología de la tecnología de la tecnología de la tecnología de la tecnología de la tecnología de la tecnología de la tecnología de la tec...,WEB libyaobserver.ly,,,,recent years,,,,mensajes,2025-11-11T11:57:48,2025-11-11T11:57:48
55,libia,Sin clasificar,El boletín de noticias de la cadena de televisión Hannah Teteh confirma la importancia de un proceso político conducente a la elección del ACNUR: la entrega de más de 61.000 tarjetas del tercer grupo internacional sobre migración se ha opuesto a cerca de 24.000 inmigrantes desde el comienzo de este año. https://yotube.com/live/plzcQYErna.,@almasartvlibya,,,,boletín de noticias de la cadena de televisión Hannah Teteh confirma la importancia de un proceso político conducente a la elección del ACNUR,,,,mensajes,2025-11-11T12:01:46,2025-11-11T12:01:46
56,libia,Sin clasificar,*[La economía de la ruta] * Los tipos de cambio de divisas frente al dinar en el Banco Central de Libia el martes 11 de noviembre de 2025. Televisión de la ruta de la frecuencia: horizontal HD: H11373,@almasartvlibya,,,,Banco Central de Libia el martes 11 de noviembre de 2025,,,,mensajes,2025-11-11T12:20:10,2025-11-11T12:20:10
57,libia,Sin clasificar,"Con la intervención directa del subcomandante general, el General Saddam Khalifa Hafetter, puso en libertad a un ciudadano de la ciudad de Zintan detenido por las autoridades nigerianas durante más de 20 meses para llegar a Benghazi.",@almasartvlibya,,,,libertad a un ciudadano de la ciudad de Zintan detenido por las autoridades nigerianas durante más de 20 meses para llegar a Benghazi,,,,mensajes,2025-11-11T12:20:10,2025-11-11T12:20:10
58,libia,Sin clasificar,La procesión del hijo de Muammar al-Dawiywi revela la presencia de formaciones armadas en el oeste del país: https://gpluss.com/2025/11/%d9%d9%d9%d9%83%d8 %8a8%d9%d9%d9%d8%d9%d9%d9%d8%d8%d8%d%d9%d9%d9%d9%d9%d9%d9%d9%d%d9%d%d9%d8%d9%d8%d8%d9%d9%d8%d9%d9%d9%d9%d9%d9%d9%d9%d9%d9%d9%d9%d9%d9%d9%d9%d8%d8%d8%d9%d%d9%8%d%d9%d9%8%d9%d9%d9%8%d%d9%d9%8%%d9%8%dod9%%%8%%d9%d9%8%%%dod9%%d9%%%%d9%d9%8%%%%%%d...,@gplusss,,,,oeste del país: https://gpluss,,,,mensajes,2025-11-11T12:20:10,2025-11-11T12:20:10
59,libia,Hazards,"Las familias de los funcionarios de la municipalidad de los blancos en prisión preventiva, por orden de la Fiscalía General, acusados de corrupción en la distribución de las indemnizaciones por el huracán Daniel, reclaman su liberación, afirman que han sido objeto de injusticias, mutilaciones y explotación de influencias contra ellos, e invitan a la policía a intervenir para liberarlos porque e...",@sefr0ly,-33.115251,-70.817033,19HCD3046934467,prisión preventiva,Región Metropolitana de Santiago,Provincia de Chacabuco,prison,cache,2025-11-11T12:20:11,2025-11-11T12:20:11
60,libia,Sin clasificar,□ Noticias sobre la ruta en abreviatura,@almasartvlibya,,,,abreviatura,,,,mensajes,2025-11-11T13:33:45,2025-11-11T13:33:45
61,libia,Sin clasificar,*La economía de la ruta* *Los precios del cemento para el martes 11 de noviembre de 2025*,@almasartvlibya,,,,اقتصاد المسار,,,,mensajes,2025-11-11T13:33:45,2025-11-11T13:33:45
62,libia,Sin clasificar,"La Agencia de Seguridad Aérea de la Unión Europea declara que la prohibición de vuelos libios sobre el espacio aéreo europeo se prorrogará hasta abril de 2026, debido a la debilidad del sistema de seguridad aérea de Libia, la multiplicidad de referencias y la falta de estabilidad legislativa y técnica.",@almasartvlibya,10.479385,-66.859752,19PGM3426059211,Unión Europea,Miranda,Municipio Baruta,ngo,cache,2025-11-11T13:33:45,2025-11-11T13:33:45
63,libia,Sin clasificar,"Los centros de detención en el desierto y el pozo de ovejas están fuera de control, y la acción internacional es una opción.",@gplusss,,,,desierto y el pozo de ovejas,,,,mensajes,2025-11-11T13:33:47,2025-11-11T13:33:47
64,libia,Sin clasificar,"• Akila Saleh, Presidente de la Cámara de Representantes, pide al Gobernador del Banco Central que se comprometa a aplicar la Ley No. 2 de 2023, relativa a la subordinación de la administración de los contratos al Organismo de Supervisión Administrativa. • Akila, en su carta al Gobernador Central, declaró que el Órgano de Supervisión Administrativa era la única autoridad competente.",@gplusss,,,,su carta al Gobernador Central,,,,mensajes,2025-11-11T13:33:47,2025-11-11T13:33:47
65,libia,Sin clasificar,"• Según la cuenta Rich Ted en la plataforma X, las imágenes se tomaron el mismo día en que varios convoyes de la milicia de apoyo rápido fueron atacados después de cruzar la frontera con Darfur.",@gplusss,-30.936999,-64.493299,20JLL5733976424,plataforma X,Córdoba,Pedanía Dolores,gift,cache,2025-11-11T13:33:47,2025-11-11T13:33:47
66,libia,Sin clasificar,Motivo para la centralización: el cobro anticipado de transacciones sin estudio presionará a Libia #C_Bloss https://h1.nu/1eoTP,@gplusss,,,,Motivo para la centralización,,,,mensajes,2025-11-11T13:33:47,2025-11-11T13:33:47
67,libia,Sin clasificar,"Un joven libio le dijo a su madre que cuando leía en Rusia, decidió regresar inmediatamente a Benghazi, y Hucky fue la escena de su encuentro con Boh y sus hermanos.",@jraimalmlyshyat,64.686314,97.745306,47WMM4014274088,Rusia,,,administrative,cache,2025-11-11T13:33:47,2025-11-11T13:33:47
68,libia,Sin clasificar,"• Una importante declaración del Presidente de la institución nacional de derechos humanos, Ahmed Hamza, en la que se afirma que el Gobierno de #Duba es directamente responsable del deterioro de la situación de los derechos humanos, después de que sus órganos de seguridad y militares se hayan visto involucrados en detenciones arbitrarias, desapariciones forzadas y muertes como resultado de tort...",@libyabreaking,42.979969,17.490838,33TYH0309461601,Duba,,Dubrovačko-neretvanska županija,administrative,cache,2025-11-11T13:33:47,2025-11-11T13:33:47
69,libia,Sin clasificar,"*El ex Presidente del Consejo Supremo *Worshvana, M. Abu Aminid, tras la liberación de Hannibal Gaddafi: una carta a los detenidos Abdullah Al-Senussi, Ahmed Ibrahim y Mansur Dao, cuya liberación podría servir de guía a las personas y a los niños de todo el país.",@libyapress,12.128865,-86.264297,16PEU8005140911,Consejo Supremo,Managua,Managua,government,cache,2025-11-11T13:33:48,2025-11-11T13:33:48
70,libia,Sin clasificar,"El Gobernador del Banco Central de Libia, Naji Issa, es responsable del agotamiento de divisas y el contrabando de divisas a través de créditos documentarios falsos. – Al-Houij: Hay que dejar de utilizar el método de créditos documentarios transferibles a terceros.",@libyapress,37.477292,-3.320087,30SVG7169847870,Gobernador,Andalucía,Partido Judicial de Guadix,administrative,cache,2025-11-11T13:33:48,2025-11-11T13:33:48
71,libia,Sin clasificar,"- El órgano de supervisión administrativa es la única autoridad competente para administrar los contratos. - Subrayamos la necesidad de que el Gobernador del Banco Central cumpla la Ley No. 2 de 2023, reafirmando la decisión del Tribunal Constitucional de que la ley sea aplicable.",@libyapress,,,,Subrayamos,,,,mensajes,2025-11-11T13:33:48,2025-11-11T13:33:48
72,libia,Sin clasificar,"El exiliado considera que el recurso al pueblo es a través de las elecciones y, de no ser posible, a través del referéndum y de la información electrónica, como lo había pedido hace dos años.",@sefr0ly,40.994357,28.907509,35TPF6044239882,تصريح|,Marmara Bölgesi,,hairdresser,cache,2025-11-11T13:33:48,2025-11-11T13:33:48
73,libia,Sin clasificar,"Los medios de comunicación ""El piloto"" revelan que los ciudadanos usaron más de 4 mil millones de dinares en octubre pasado, lo que es un indicio positivo de la propagación de una cultura de no confianza en el dinero entre los ciudadanos.",@sefr0ly,24.039386,-104.676736,13REG3286958624,octubre pasado,Durango,Municipio de Durango,residential,cache,2025-11-11T13:33:48,2025-11-11T13:33:48
74,libia,Sin clasificar,*La economía de la ruta* *el precio del pescado para el martes 11 de noviembre en los mercados minoristas de Trípoli*,@almasartvlibya,,,,mercados minoristas de Trípoli*,,,,mensajes,2025-11-11T13:36:06,2025-11-11T13:36:06
75,libia,Sin clasificar,*La economía de la ruta* *el precio del día límite del martes 11 de noviembre de 2025*,@almasartvlibya,,,,اقتصاد المسار,,,,mensajes,2025-11-11T13:38:08,2025-11-11T13:38:08
76,libia,Sin clasificar,"* El precio del kilo de plátano de primera clase se redujo en un 35%, según la observación de campo de la ruta eco, en el mercado islámico de Trípoli, en comparación con 14 dinares por kilo a principios de noviembre, mientras que los precios varían ligeramente de un lugar a otro.",@almasartvlibya,22.309176,114.188008,50QKK1029369749,un 35%,香港 Hong Kong,九龍城區 Kowloon City District,residential,cache,2025-11-11T13:39:47,2025-11-11T13:39:47
77,libia,Sin clasificar,"Unveiling the Mysteries of Functional Magnetic Resonance Imaging https://libyaobserver.ly/cdn-cgi/content?id=e1ONOkEalcQ9BxAr_bL7E9mKN620_wBwJlIE7pO4-176212352823-1.0.1.1-yeBTt..mjfnql7cY6RZJFDVt1.LJxF18SWuKi780 Functional Magnetic Resonance Imaging: Una ventana al funcionamiento interno de Brain Deep en el ámbito de la neurociencia, una tecnología revolucionaria ha estado desentrañando las com...",WEB libyaobserver.ly,,,,ámbito de la neurociencia,,,,mensajes,2025-11-11T13:40:37,2025-11-11T13:40:37
78,libia,Sin clasificar,"El precio de la "" opción de balance "" de hoy ha aumentado un 40% por kilogramo, frente a 5 dinares por kilo la semana pasada, en el mercado de verduras del barrio islámico de Trípoli, mientras que la opción solar se ha estabilizado en 4 dinares por kilo, mientras que los precios varían ligeramente de un lugar a otro.",@almasartvlibya,,,,mercado de verduras del barrio islámico de Trípoli,,,,mensajes,2025-11-11T13:41:05,2025-11-11T13:41:05
79,libia,Sin clasificar,El prospector de Muammar Al-Dawi revela la presencia de formaciones armadas en el oeste del país: cblos https://gplusss.com/2025/11/%d9%89%d89%d89%d89%83%d8%d8%d89%d8%d89%d8%d8%d8%d89%d8%d8%d9%d8%d8%d9%d8%d8%d9%d8%d9%d8%d9%d8%d8%d9%d8%d8%d8%d9%d8%d8%d9%d8%d%d9%d%d9%d%d9%%d%d%d9%d%d%d%d9%d.,WEB gplusss.com,,,,oeste del país: cblos https://gplusss,,,,mensajes,2025-11-11T13:42:04,2025-11-11T13:42:04
80,libia,Sin clasificar,"El servicio de aduanas realiza el servicio de pago de impuestos aduaneros con tarjeta bancaria a través de los servicios de aduanas de todos los puestos aduaneros, en cumplimiento de la circular del Gobierno sobre la aprobación de los reglamentos de pago electrónico.",@sefr0ly,,,,cumplimiento de la circular del Gobierno sobre la aprobación de los reglamentos de pago electrónico,,,,mensajes,2025-11-11T13:43:14,2025-11-11T13:43:14
81,libia,Sin clasificar,"Un equipo de la Universidad Italiana de Palermo continúa su labor de estudio y restauración de sitios arqueológicos en la ciudad de Sabrata, que incluye la terminación de las excavaciones y la restauración del Templo de Sirabis, el Vestíbulo Bautista y la Villa del Mar.",@almasartvlibya,41.924846,12.517510,33TTG9415744412,Sabrata,Lazio,Roma Capitale,residential,cache,2025-11-11T13:45:16,2025-11-11T13:45:16
82,libia,Sin clasificar,"Unveiling the Mystique of High Temperature Superconductivity https://libyaobserver.ly/cdn-cgi/content?id=2qTW74VRpjyO5cWO2s6H3kTWL9yC7_Rkf_T16ms1793.2218387-1.0.1.1-XdJUZS1FDtTwriho.MijODyQ0692MfNgep91yWY Unveiling the Mystique of High Temperature Superconductivity High termivity, un fenómeno que ha cautivado a científicos e ingenieros por décadas, continúa impulsando los límites de nuestra com...",WEB libyaobserver.ly,-33.721464,150.333180,56HKH5288965532,Unveiling,New South Wales,Blue Mountains City Council,memorial,cache,2025-11-11T13:49:55,2025-11-11T13:49:55
83,libia,Sin clasificar,La Comisión Electoral sigue distribuyendo tarjetas de votación en Tapdor.,@almasartvlibya,,,,Tapdor,,,,mensajes,2025-11-11T13:54:50,2025-11-11T13:54:50
84,libia,Terrorismo,El desarrollo de las propiedades de la tecnología de la información de la información de la información de la información de la información de la información de la información de la información de la información de la información de la información de la información de la información de la información de la información de la información de la información de la información de la información de la...,WEB libyaobserver.ly,,,,realm of neuroscience,,,,mensajes,2025-11-11T13:57:33,2025-11-11T13:57:33
85,libia,Sin clasificar,El gobierno de Dabba está tras las rejas... 12 ministerios representados oficialmente en la prisión del Fiscal General de Libia.,@gplusss,,,,prisión del Fiscal General de Libia,,,,mensajes,2025-11-11T13:58:45,2025-11-11T13:58:45
86,libia,Sin clasificar,"Signal Transduction: The Cellular Symphony RC https://libyaobserver.ly/cdn-cgi/content?id=IAcV84NSrknU0zUVfxn_zKvq_51LQvSei0pazIiDSo-1762863504.0.1.1-1dKwFAg2HGuDrRwa5xnQLimnvH2OQmc_Qa8V5umQ Signal Transduction: The Celular Symphony Deep dentro del intrincado paisaje de la biología celular, se desarrolla una compleja red de interacciones moleculares, que rige el propio tejido de la vida.",WEB libyaobserver.ly,,,,Signal Transduction,,,,mensajes,2025-11-11T14:06:36,2025-11-11T14:06:36
87,libia,Sin clasificar,El dólar de los EE.UU.,@almasartvlibya,,,,اقتصاد المسار,,,,mensajes,2025-11-11T14:06:45,2025-11-11T14:06:45
88,libia,Sin clasificar,"– El fantasma de Al-Qaida volvió a Libia en 2020, cuando se observaron movimientos de un grupo de Al-Qaida que se dedicaba a transportar armas de Libia a Male.",@libyapress,33.466299,-4.303233,30SUC7889703742,Al-Qaida,Fès-Meknès ⴼⴰⵙ-ⵎⴽⵏⴰⵙ فاس-مكناس,Pachalik de Imouzzer Marmoucha,community_centre,cache,2025-11-11T14:07:46,2025-11-11T14:07:46
89,libia,Sin clasificar,"Los precios del petróleo se estabilizaron hoy, después de que los temores de un aumento de la oferta aumentaran... y los contratos futuros del rabino Brent aumentaron a 27 centavos, a 64,33 dólares por barril... y el precio del crudo del oeste de Texas fue de 60,39 dólares por barril, con un aumento de 26 centavos.",@almasartvlibya,32.937346,-87.164718,16SDB8460144353,Brent,Alabama,Bibb County,administrative,cache,2025-11-11T14:08:45,2025-11-11T14:08:45
90,libia,Sin clasificar,"*La economía de la ruta* *el oro de hoy ha logrado nuevos beneficios el martes, junto con el aumento de las expectativas de baja de los tipos de interés de los EE.UU., donde el oro en las transacciones inmediatas aumentó un 0,5% a 4137,06 dólares por onza, y el aumento más alto es de tres semanas, según Reuters.*",@almasartvlibya,,,,transacciones inmediatas aumentó un 0,,,,mensajes,2025-11-11T14:10:46,2025-11-11T14:10:46
91,libia,Disturbios Civiles,"* Benghazi, la Unidad Antituberculosos y Violentos del Servicio de Guardia Municipal ha puesto en marcha una amplia campaña sobre el terreno para reducir la mendicidad infantil y la explotación de menores en las calles y en los espacios públicos.",@jraimalmlyshyat,,,,marcha una amplia campaña sobre el terreno para reducir la mendicidad infantil y la explotación de menores,,,,mensajes,2025-11-11T14:12:45,2025-11-11T14:12:45
92,libia,Sin clasificar,"El Consejo Social de los Cuatro Barrios y Alcaldes de sus Municipios, durante una reunión celebrada en el Salón Rixus de Trípoli, confirman su pleno apoyo a los esfuerzos del ejército libio, que está representado por el #General 444, para consolidar la seguridad y la estabilidad en la región y construir el Estado de derecho, y están debatiendo soluciones prácticas para los principales obstáculo...",@sefr0ly,,,,Salón Rixus de Trípoli,,,,mensajes,2025-11-11T14:15:46,2025-11-11T14:15:46
93,libia,Sin clasificar,La aplicación de la aplicación de la aplicación de la aplicación de la aplicación de la aplicación de la aplicación de la aplicación de la aplicación de la aplicación de la aplicación de la aplicación de la aplicación de la aplicación de la aplicación de la aplicación de la aplicación de la aplicación de la aplicación de la aplicación de la aplicación de la aplicación de la aplicación de la apl...,WEB libyaobserver.ly,,,,relative motion,,,,mensajes,2025-11-11T14:17:11,2025-11-11T14:17:11
94,libia,Sin clasificar,"Después de que el gobierno haya asignado anteriormente más de 17.000 millones de dinares de ingresos en divisas, Abdelhamid Al Dabiba dirige al Ministerio de Planificación el pago de 1.000 millones de dinares adicionales a la entidad encargada de la ejecución de proyectos de vivienda e instalaciones dirigida por Mohamed Ismail.",@libyabreaking,-16.499245,-68.134697,19KEB9234975641,divisas,La Paz,Pedro Domingo Murillo,bureau_de_change,cache,2025-11-11T14:19:45,2025-11-11T14:19:45
95,libia,Sin clasificar,Comisión Europea: está comprometida con una solución política duradera en Libia y exhortamos a todos los agentes a que apoyen el proceso político facilitado por las Naciones Unidas y dirigido por la propia Libia como única opción para lograr una estabilidad sostenible en el país.,@libyapress,,,,Libia y exhortamos a todos los agentes a,,,,mensajes,2025-11-11T14:21:46,2025-11-11T14:21:46
96,libia,Sin clasificar,"Ammiid: Misión de las Naciones Unidas, Cámara de Representantes y Estado han convenido en desbloquear cualquier vía política en https://gplusss.com/2025/11/%d8 %7a7%d9%d9%d8%d9%d8%d8%d9%d9%d9%d8%d8%d9%d8%d8%d8%d9%d8%d8%d8%d8%d8%d8%d8%d8%d9%d8%d9%d8%d9%d8%d9%d9%d9%d9%d9%d9%d8%8%d8%8%d9%d9%8%d9%d9%d9%d8%d8%d8%d8%d9%d8%d8%d8%d8%d8%d8%d8%d8%do8%d8%d8%d8%d8%d8%d8%d8%8%d8%d8%d8%dok8%d8%dok8%d8%d8%d8%...",@gplusss,,,,desbloquear cualquier vía política en https://gplusss,,,,mensajes,2025-11-11T14:25:48,2025-11-11T14:25:48
97,libia,Sin clasificar,"Petrología: Unveiling the Secrets of Rocks https://libyaobserver.ly/cdn-cgi/content?id=f.xhGDcur6e5pmGTIiX.TOu_w5TQw1J6o0awOYXU-1762864009.864235-1.0.1.1-8eSChS6akQ7jCGmo9W3THVCC8sbqBQOrzu9K9n.VA Petrología: El estudio de las rocas y su formación Petrology, una rama de la geología, es el estudio científico de las rocas y su formación.",WEB libyaobserver.ly,38.383700,-0.526811,30SYH1601851284,Petrología,Comunitat Valenciana,Alacant / Alicante,public_building,cache,2025-11-11T14:26:51,2025-11-11T14:26:51
98,libia,Sin clasificar,"La Misión de las Naciones Unidas, la Cámara de Representantes y el Estado convinieron en desbloquear cualquier trayectoria política -GBS https://gplusss.com/2025/11/%d8%d9%d9%d8%d8%d8%d9%d8%d8%d8%d8%d8%d8%d8%d8%d8%df8%df%d8%df.",WEB gplusss.com,,,,desbloquear cualquier trayectoria política -GBS https://gplusss,,,,mensajes,2025-11-11T14:27:42,2025-11-11T14:27:42
99,libia,Sin clasificar,"Evaluación educativa: A Deep Dive https://libyaobserver.ly/cdn-cgi/content?id=zngHq76omZSmUf0t F93LL7a0gzHKaqhaKws7zHpUE-1762864601.162359-1.0.1.1-SYTlFqTO3Y91S285ASvz1tNG5LidFEBrm3QD15ahgQ Educational Asssessment: Unveiling the Student Mysteries of Knowledge Evaluation A medida que nos adentramos en el ámbito de la evaluación educativa, nos encontramos entrelazados en una compleja red de métod...",WEB libyaobserver.ly,,,,ámbito de la evaluación educativa,,,,mensajes,2025-11-11T14:36:42,2025-11-11T14:36:42
100,libia,Sin clasificar,*El diálogo y la estructura propuestos por la Misión de las Naciones Unidas no tocan la realidad. Lo que la Misión de las Naciones Unidas está tratando de hacer ahora es revisar las leyes de las elecciones. El paso de la Misión es inaceptable y volver al punto cero sin ninguna garantía de un nuevo consenso* *el mapa de la ruta promovida por la Misión hacia el punto muerto de la Comisión (6+6).,@almasartvlibya,,,,Misión hacia el punto muerto de la Comisión (6+6,,,,mensajes,2025-11-11T14:36:46,2025-11-11T14:36:46
101,libia,Sin clasificar,"Un marcado aumento del tipo de cambio de $7.81 dinares en efectivo y 9,03 en instrumentos, en las transacciones de hoy en día en el mercado paralelo.",@sefr0ly,29.050441,-110.961827,12RWT0371613574,efectivo y 9,Sonora,Hermosillo,residential,cache,2025-11-11T14:44:40,2025-11-11T14:44:40
102,libia,Sin clasificar,"Cable Television: Unraveling the Wonders of Coaxial Cables https://libyaobserver.ly/cdn-cgi/content?id=CfeR.LY3gS7Ni0Xkofbj0D2abrSTlZH03fYBUNsBv4s-1762865094.1589718-1.0.1.1.gFDNf_RYOf380ew3JspXeTTHrWyFD5EqEET78t7dlU Cable Television: Un viaje a través del Reino de los Cables Coaxiales A medida que profundizamos en el fascinante mundo de la televisión por cable, nos encontramos entrelazados en...",WEB libyaobserver.ly,,,,fascinante mundo de la televisión por cable,,,,mensajes,2025-11-11T14:44:55,2025-11-11T14:44:55
103,libia,Sin clasificar,"• La semana pasada, la Fiscalía General de la Nación anunció la detención preventiva de Osama Njim en relación con los hechos relativos a la violación de los derechos de los reclusos de la Institución de Reforma y Rehabilitación de Trípoli.",@gplusss,,,,relación con los hechos relativos a la violación de los derechos de los reclusos de la Institución de Reforma y Rehabilitación de Trípoli,,,,mensajes,2025-11-11T14:46:38,2025-11-11T14:46:38
104,libia,Sin clasificar,"Vigilancia de los rastros de *Benghazi anuncia que se ha terminado de limpiar un grupo de fusiles otomanos almacenados en sus almacenes, incluida la remoción de los depósitos metálicos y el tratamiento de la oxidación, en preparación para su presentación en las existencias que documentan la evolución de las armas.",@almasartvlibya,,,,sus almacenes,,,,mensajes,2025-11-11T14:54:37,2025-11-11T14:54:37
105,libia,Terrorismo,"- Libia tiene vastas zonas inseguras que están fuera del control del campo de tiro, lo que la hace vulnerable a la actividad de las organizaciones terroristas.",@libyapress,26.823447,18.123672,34RBQ1410870120,ليبيا,,,administrative,cache,2025-11-11T14:58:38,2025-11-11T14:58:38
106,libia,Sin clasificar,"• El tipo de cambio del dólar era de 7,82 dinares en Trípoli, de 7,78 dinares en Benghazi y de 7,83 dinares en Zelton, según las cifras sobre transacciones en el mercado negro.",@gplusss,32.896672,13.177792,33SUS2956641304,Trípoli,طرابلس,طرابلس,city,cache,2025-11-11T14:59:39,2025-11-11T14:59:39
107,libia,Sin clasificar,"El tercer boletín de noticias de la cadena de televisión, Hannah Teteh, confirma la importancia de un proceso político conducente a las elecciones internacionales para la migración que afecta a unos 24.000 inmigrantes desde principios de este año.",@almasartvlibya,,,,Hannah Teteh,,,,mensajes,2025-11-11T15:01:38,2025-11-11T15:01:38
108,libia,Sin clasificar,"En el caso de una solución computarizada, la solución computarizada puede ser una solución computarizada.En el caso de una solución computarizada, la solución computarizada puede ser una solución computarizada.En el caso de una solución computarizada, la solución computarizada puede ser una solución computarizada.En el caso de una solución computarizada, la solución computarizada puede ser una...",WEB libyaobserver.ly,,,,caso de una solución computarizada,,,,mensajes,2025-11-11T15:05:11,2025-11-11T15:05:11
109,libia,Sin clasificar,"Un terrible accidente de tránsito para un camión de combustible en la carretera de Al-Abiyar, en la zona de Ain-Zara, causó graves lesiones al conductor del camión.",@sefr0ly,,,,carretera de Al-Abiyar,,,,mensajes,2025-11-11T15:05:38,2025-11-11T15:05:38
110,libia,Sin clasificar,"El Ministerio de Petróleo anuncia que los ingresos corrientes de octubre ascienden a 1.484 millones de dólares, que se dividen en 1.375 millones de dólares de impuestos sobre las empresas petroleras y 108 millones de regalías.",@sefr0ly,-38.959308,-68.087180,19HES7908887342,Petróleo,Neuquén,Municipio de Neuquén,residential,cache,2025-11-11T15:09:39,2025-11-11T15:09:39
111,libia,Conflicto Armado,"Durante el enfrentamiento, se utilizó lo que se conoce como la ""cuma"", lo que causó una gran lesión a un estudiante, tras lo cual fue trasladado a cuidados intensivos. Debido al incidente, la escuela fue clausurada y suspendida temporalmente hasta que se adoptaran medidas para garantizar la estabilidad de la situación de seguridad en las instituciones educativas.",@jraimalmlyshyat,-31.637289,-64.405981,20JLK6667198908,instituciones educativas,Córdoba,Pedanía Alta Gracia,greenfield,cache,2025-11-11T15:11:37,2025-11-11T15:11:37
112,libia,Sin clasificar,"El Presidente de la Cámara de Representantes de Libia dirige una carta al Gobernador del Banco Central de Libia en la que le pide que se comprometa a aplicar la Ley No. 2 de 2023, relativa a la subordinación de la administración de los contratos al Organismo de Supervisión Administrativa.",@Tkyroogklshy,38.888977,-77.009043,18SUJ2575406374,Cámara,District of Columbia,Washington,government,cache,2025-11-11T16:22:10,2025-11-11T16:22:10
113,libia,Sin clasificar,"Con los trabajadores y con otros propietarios de camiones, maquinaria pesada y vehículos 4x4 para participar en la limpieza completa del sitio, les damos las gracias y les damos las gracias por esta iniciativa.",@Tkyroogklshy,,,,limpieza completa del sitio,,,,mensajes,2025-11-11T16:22:10,2025-11-11T16:22:10
114,libia,Sin clasificar,"□ Análisis especial #Economía de la ruta #8 gramos de oro # 3,3% de aumento en 24 horas y 240 dinares registrados + 7,531 dinares. ¿Qué hay de las fracturas de oro?",@almasartvlibya,23.131088,-82.356588,17QLF6110058677,Economía,La Habana,La Habana Vieja,residential,cache,2025-11-11T16:22:10,2025-11-11T16:22:10
115,libia,Sin clasificar,"*La economía de la ruta * Análisis de los datos de la trayectoria especial: #$ 30,8% en frente de #Danar, 1 de enero de 2024 a 11 de noviembre de 2025, en el mercado paralelo de la cadena de televisión de la frecuencia: HD: H11373",@almasartvlibya,,,,frente de #Danar,,,,mensajes,2025-11-11T16:22:10,2025-11-11T16:22:10
116,libia,Sin clasificar,"En su primera visita a Libia, el Secretario General de la Organización Árabe de la Media Luna Roja y la Cruz Roja Abdullah al-Mehidli, hace una gira por el edificio histórico de la Secretaría General de la Media Luna Roja Libia en la ciudad de Benghazi.",@almasartvlibya,,,,su primera visita a Libia,,,,mensajes,2025-11-11T16:22:10,2025-11-11T16:22:10
117,libia,Sin clasificar,"La DEA confisca 200 kilos de drogas en ""Tigre"".",@almasartvlibya,13.881273,39.127495,37PER1377534599,Tigre,ትግራይ تجراى,,administrative,cache,2025-11-11T16:22:10,2025-11-11T16:22:10
118,libia,Sin clasificar,"*La Fiscalía General ordena la detención de funcionarios del Banco de la Unidad, junto con el Comisionado de Administración de una empresa contribuyente, por haberse apoderado de 875.000 dinares de la cuenta de compensación y haberlo transferido a la cuenta de la empresa en la sucursal del Banco.",@almasartvlibya,36.720107,-4.415633,30SUF7357864757,sucursal del Banco,Andalucía,Málaga-Costa del Sol,bank,cache,2025-11-11T16:22:10,2025-11-11T16:22:10
119,libia,Sin clasificar,El Centro Nacional de Control de Enfermedades está organizando un taller sobre comunicación en situaciones de riesgo.,@almasartvlibya,,,,situaciones de riesgo,,,,mensajes,2025-11-11T16:22:10,2025-11-11T16:22:10
120,libia,Terrorismo,"• Según una declaración de la Oficina del Fiscal General, dos empleados del Banco de la Unidad conspiraron con el Comisionado de la Administración de una sociedad anónima para organizar transferencias financieras ilícitas de la cuenta de compensación a la cuenta de la empresa en la sucursal del Banco.",@gplusss,36.720107,-4.415633,30SUF7357864757,sucursal del Banco,Andalucía,Málaga-Costa del Sol,bank,cache,2025-11-11T16:22:10,2025-11-11T16:22:10
121,libia,Sin clasificar,"• La Oficina Europea de Libia declara que el embargo aéreo de Libia sobre el espacio aéreo europeo se prorrogará hasta abril de 2026. • La Oficina informó de que, según la Agencia Europea de Seguridad de la Aviación (ESA), la prórroga se debió a la debilidad del sistema de seguridad aérea de Libia, la multiplicidad de referencias y la falta de estabilidad legislativa y técnica.",@gplusss,32.513467,-117.008368,11SMR9921497351,Aviación,Baja California,Municipio de Tijuana,neighbourhood,cache,2025-11-11T16:22:10,2025-11-11T16:22:10
122,libia,Sin clasificar,"Un analista político: el diálogo estructurado es una herramienta para la supervivencia de los corruptos, no para resolver la crisis.",@gplusss,,,,Un analista político,,,,mensajes,2025-11-11T16:22:10,2025-11-11T16:22:10
123,libia,Sin clasificar,Las autoridades nigerianas liberarán al ciudadano Hassan Al-Nakwa de la ciudad de Zintan después de haber estado detenido durante más de 20 meses.,@gplusss,,,,Hassan Al-Nakwa,,,,mensajes,2025-11-11T16:22:10,2025-11-11T16:22:10
124,libia,Sin clasificar,"• El diputado explicó que la Misión estaba tratando de revisar las leyes de las elecciones, a pesar de que la Cámara de Representantes y el Estado ya habían aprobado esas leyes.",@gplusss,3.372596,8.736079,32NMJ7068272781,Misión,Bioko Sur,,village,cache,2025-11-11T16:22:10,2025-11-11T16:22:10
125,libia,Sin clasificar,"Después de una gran cantidad de malversación, el nuevo exige que todos los jefes de inspección, auditoría y supervisión de la central y los bancos de Libia sean detenidos.",@gplusss,46.248153,10.154649,32TNS8900622267,Después,Graubünden/Grischun/Grigioni,Bernina,meadow,cache,2025-11-11T16:22:10,2025-11-11T16:22:10
126,libia,Terrorismo,"El periódico advirtió de que Libia se había convertido en una firme candidata a las actividades de las organizaciones terroristas, habida cuenta de su delicada ubicación geográfica y de su participación en la frontera con el Sudán, el Chad y el Níger.",@jraimalmlyshyat,,,,una firme candidata a las actividades de las organizaciones terroristas,,,,mensajes,2025-11-11T16:22:11,2025-11-11T16:22:11
127,libia,Sin clasificar,"- Después del asesinato de Gadafi, 14 años después, Libia seguía dividida en facciones beligerantes diferentes y cientos de milicias estaban trabajando en un país de 7 millones de habitantes.",@libyapress,,,,facciones beligerantes diferentes y cientos de milicias estaban trabajando en un país de 7 millones de habitantes,,,,mensajes,2025-11-11T16:22:11,2025-11-11T16:22:11
128,libia,Terrorismo,- El Fiscal General ordena la detención de funcionarios del Banco de la Unidad y del Comisionado de Administración de una sociedad anónima por haber tomado más de 800.000 dinares. - El Fiscal General: los acusados conspiraron para concertar transferencias financieras ilícitas de la cuenta de compensación a la cuenta de la empresa en la sucursal del Banco.,@libyapress,36.720107,-4.415633,30SUF7357864757,sucursal del Banco,Andalucía,Málaga-Costa del Sol,bank,cache,2025-11-11T16:22:11,2025-11-11T16:22:11
129,libia,Sin clasificar,"– El banco central se equivocó al hacer promesas y filtrar noticias optimistas de que el tipo de cambio disminuiría a principios del mes 10, debido a la retirada del billete de 20 y la apertura de las oficinas de cambio y a la reducción de los derechos sobre el dólar en un 5%.",@libyapress,22.314948,114.183639,50QKK0985570397,un 5%,香港 Hong Kong,九龍城區 Kowloon City District,residential,cache,2025-11-11T16:22:11,2025-11-11T16:22:11
130,libia,Sin clasificar,"La Fiscalía Anticorrupción de Trípoli ordena la detención de dos empleados del Banco de la Unidad y del Director de una empresa, en espera de una investigación, por haberse apoderado de 875.000 dinares mediante transferencias financieras ilícitas de la cuenta de compensación del Banco a la cuenta de la empresa de una sucursal del Banco.",@sefr0ly,,,,espera de una investigación,,,,mensajes,2025-11-11T16:22:13,2025-11-11T16:22:13
131,libia,Sin clasificar,"Iniciación de la Tercera Conferencia Científica Internacional en la Universidad de Zeitouneh, en la ciudad de Tarhuna, cuyo objetivo es examinar los medios de mejorar la calidad de la educación en los medios de comunicación en las universidades libias y árabes, y examinar las experiencias e investigaciones científicas más recientes en la elaboración de programas de estudios y técnicas de comuni...",@sefr0ly,,,,Universidad de Zeitouneh,,,,mensajes,2025-11-11T16:22:13,2025-11-11T16:22:13
132,libia,Sin clasificar,"Apuñalado por un cuchillo, un estudiante de la escuela secundaria del mercado de los martes en Zelton fue herido durante una pelea con otro estudiante, que pronto se arrepintió, y el otro estudiante usó un cuchillo para apuñalar a su compañero, y la escuela anunció la suspensión hasta que se tomaran las medidas necesarias contra el agresor.",@sefr0ly,,,,Zelton fue herido durante una pelea con otro estudiante,,,,mensajes,2025-11-11T16:22:13,2025-11-11T16:22:13
133,libia,Sin clasificar,El Club de las velas es elegido por el hermano de Ibrahim Dabba como presidente de la junta del club.,@sefr0ly,3.028902,30.902228,36NTJ6684235013,Club,Arua,,village,cache,2025-11-11T16:22:13,2025-11-11T16:22:13
134,libia,Sin clasificar,Las aplicaciones de las aplicaciones de las aplicaciones de las aplicaciones de las aplicaciones de las aplicaciones de las aplicaciones de las aplicaciones de las aplicaciones de las aplicaciones de las aplicaciones de las aplicaciones de las aplicaciones de las aplicaciones de las aplicaciones de las aplicaciones de las aplicaciones de las aplicaciones de las aplicaciones de las aplicaciones...,WEB libyaobserver.ly,,,,realm of materials science,,,,mensajes,2025-11-11T16:25:08,2025-11-11T16:25:08
135,libia,Sin clasificar,Un analista político: el diálogo estructurado es una herramienta para la supervivencia de los corruptos y no para la solución de la crisis.,WEB gplusss.com,,,,Un analista político,,,,mensajes,2025-11-11T16:25:49,2025-11-11T16:25:49
136,libia,Sin clasificar,"Evacuación masiva, repatriación de cientos de bengalíes de Libia a Bangladesh.",@almasartvlibya,-33.587361,-70.677317,19HCC4434982334,Evacuación,Región Metropolitana de Santiago,Provincia de Maipo,railway,cache,2025-11-11T16:28:50,2025-11-11T16:28:50
137,libia,Sin clasificar,"Tecnología de telecomunicaciones: El pulso de la conectividad moderna https://libyaobserver.ly/cdn-cgi/content?id=hV6bIjEmqYl8KkH1nr5BEWKc4sPyfcM1veyOphtF_Qg-1762871669.3559875-1.0.1.1-ioirD3Nyh.DvQvyW42qy3sFS_zZPOQ2Mloxd2vfu3zg Ingeniería de telecomunicaciones: El pulso de la conectividad moderna En la vasta extensión de la tecnología moderna, la ingeniería de telecomunicaciones se erige como...",WEB libyaobserver.ly,,,,vasta extensión de la tecnología moderna,,,,mensajes,2025-11-11T16:34:30,2025-11-11T16:34:30
138,libia,Sin clasificar,"El desarrollo de la tecnología de la tecnología de la información, la tecnología de la información, la tecnología de la información, la tecnología de la información, la tecnología de la información y las comunicaciones, la tecnología de la información y las comunicaciones, la tecnología de la información y las comunicaciones, la tecnología de la información y las comunicaciones, la tecnología d...",WEB libyaobserver.ly,,,,this article,,,,mensajes,2025-11-11T16:44:56,2025-11-11T16:44:56
139,libia,Sin clasificar,El Servicio de Inmigración Ilegal saca a docenas de inmigrantes ilegales de la nacionalidad nigeriana a través del aeropuerto internacional de Mateka.,@almasartvlibya,32.489258,-116.960143,11SNR0374494669,Servicio,Baja California,Municipio de Tijuana,residential,cache,2025-11-11T16:52:26,2025-11-11T16:52:26
140,libia,Sin clasificar,"• El economista confirmó que más de las dos terceras partes del gasto público no está sujeto actualmente a ningún tipo de revisión o control financiero. • El comisario añadió: esto incluye el gasto de altos funcionarios soberanos, como los Consejos de Representantes, el Estado, los Presidentes, los órganos judiciales, de control, de seguridad y militares y algunos organismos de ejecución.",@gplusss,33.649547,-117.650180,11SMT3971123489,Consejos,California,Orange County,residential,cache,2025-11-11T16:52:26,2025-11-11T16:52:26
141,libia,Sin clasificar,"Presidente del Comité Directivo del Sindicato General de Maestros, Salim Nasr: El Sindicato presentó una demanda contra Ali Al-Abed y su administración antes de su detención, y lo acusamos de corrupción en relación con el libro de texto escolar.",@libyapress,,,,relación con el libro de texto escolar,,,,mensajes,2025-11-11T16:52:27,2025-11-11T16:52:27
142,libia,Sin clasificar,"Reuters informa de que los precios del oro en las transacciones inmediatas subieron un 0,5% a 4137,06 dólares por onza, con lo que alcanzaron los niveles más altos en tres semanas.",@sefr0ly,,,,transacciones inmediatas subieron un 0,,,,mensajes,2025-11-11T16:52:27,2025-11-11T16:52:27
143,libia,Sin clasificar,"• En declaraciones transmitidas por el canal del evento, la liquidez distribuida de la Reserva Central de Benghazi tiene por objeto aliviar el sufrimiento del ciudadano libio.",@gplusss,,,,declaraciones transmitidas por el canal del evento,,,,mensajes,2025-11-11T16:54:46,2025-11-11T16:54:46
144,libia,Terrorismo,"Bioarchaeology: Unveiling the Secrets of the Past https://libyaobserver.ly/cdn-cgi/content?id=rGyUnfCbGhkKtgJc8ZNRt1KQRUokK34BCPMdzgX1762872938.330423-1.0.1.1-aiJ9mdS0Sv5lfILFBmwDRIX51rClGI1VSGfmblY8g Bioarchaeology, un subcampo de la arqueología, es un enfoque interdisciplinario que combina el estudio de los restos humanos con el contexto arqueológico para reconstruir las vidas de las sociedad...",WEB libyaobserver.ly,,,,Bioarchaeology,,,,mensajes,2025-11-11T16:55:39,2025-11-11T16:55:39
145,libia,Sin clasificar,":: Declaraciones importantes de Salem Nasr, Presidente del Comité Directivo del Sindicato General de Maestros: el Sindicato presentó una demanda contra Ali al-Abed y su administración antes de su detención por corrupción relacionada con el libro de texto escolar.",@libyabreaking,-0.128960,-78.481367,17MQV8035185732,Declaraciones,,Quito,yes,cache,2025-11-11T16:57:47,2025-11-11T16:57:47
146,libia,Sin clasificar,"Durante su reunión con el Sr. Tite, Abdul Aati renueva el apoyo de El Cairo a la solución política libia, sin interferencias externas.",@almasartvlibya,45.120063,7.062445,32TLQ4761098114,Durante,Piemonte,Torino,hamlet,cache,2025-11-11T17:00:46,2025-11-11T17:00:46
147,libia,Sin clasificar,– Rechazamos todas estas violaciones de los derechos humanos y no escatimaremos esfuerzos para evitar que se repitan y se enjuicie a los responsables.,@libyapress,,,,Rechazamos,,,,mensajes,2025-11-11T17:01:48,2025-11-11T17:01:48
148,libia,Sin clasificar,El sistema de mantenimiento de un sistema de mantenimiento de un sistema de mantenimiento de un sistema de mantenimiento de un sistema de mantenimiento de un sistema de mantenimiento de un sistema de mantenimiento de un sistema de mantenimiento de un sistema de mantenimiento de un sistema de mantenimiento de un sistema de mantenimiento de un sistema de mantenimiento de un sistema de mantenimien...,WEB libyaobserver.ly,11.275914,75.840241,43PEN9170746619,chest,Kerala,Kozhikode,bus_stop,cache,2025-11-11T17:05:27,2025-11-11T17:05:27
149,libia,Sin clasificar,*El Ministerio de Petróleo del gobierno de la Unidad anuncia miles de millones de ingresos en concepto de impuestos y regalías de las empresas concesionarias y de participación en octubre de 2025.,@almasartvlibya,,,,concepto de impuestos y regalías de las empresas concesionarias y de participación en octubre de 2025,,,,mensajes,2025-11-11T17:06:47,2025-11-11T17:06:47
150,libia,Sin clasificar,"*Aceleración de los medios de comunicación Mohammed Al-Qaraj: La entrada de insecticidas prohibidos y caducados desde 2007 en Libia a través de un portal *Gdams bajo el pretexto de la “asistencia para combatir la langosta sahariana”, resultaron ser sustancias tóxicas del tipo Deltarin 25 EC que requerían quemaduras en hornos térmicos especiales para su eliminación.",@jraimalmlyshyat,,,,Libia a través de un portal *Gdams bajo el pretexto de la “asistencia para combatir la langosta sahariana,,,,mensajes,2025-11-11T17:06:47,2025-11-11T17:06:47
151,libia,Sin clasificar,":: En la sesión del Consejo de Derechos Humanos de las Naciones Unidas sobre Libia, recomendamos que se intensifiquen los esfuerzos para poner fin a la transición en Libia, avanzar hacia la estabilidad constitucional y política, fortalecer el estado de derecho y la justicia de transición e impedir la impunidad.",@libyapress,,,,sesión del Consejo de Derechos Humanos de las Naciones Unidas sobre Libia,,,,mensajes,2025-11-11T17:14:47,2025-11-11T17:14:47
152,libia,Sin clasificar,"Desbloquear los secretos del lenguaje de expresión Pathology https://libyaobserver.ly/cdn-cgi/content?id=mX4NsDj57EPIvXn7SJVgxF2rpoVhoeB4OTOcppP4-1762874129.3410795-1.0.1.1-.bmXpw74PC_mRO1Xt3TPnbI8hTK0hMdWhIkdu2I Desbloquear los secretos del lenguaje de expresión Pathology En el ámbito de la comunicación humana, la patología del lenguaje de voz se centra en la evaluación, el diagnóstico y el tr...",WEB libyaobserver.ly,,,,ámbito de la comunicación humana,,,,mensajes,2025-11-11T17:15:30,2025-11-11T17:15:30
153,libia,Sin clasificar,"La estabilización del precio oficial del dólar se ha convertido en una garantía para los especuladores y no para los ciudadanos ni para la economía, y hay que adoptar una nueva política que restablezca el equilibrio real del mercado.",@sefr0ly,,,,una garantía para los especuladores y no para los ciudadanos ni para la economía,,,,mensajes,2025-11-11T17:16:47,2025-11-11T17:16:47
154,libia,Sin clasificar,"La investigación de los meteoritos: Unveiling the Secrets of the Cosmos https://libyaobserver.ly/cdn-cgi/content?id=QQzE63qsKha45bE7aLlPXs9llSWEl_LN8.hiAI6Da5A-1762874737377-1.0.1.1-dodA9QOCMUwpJZs_x11_SmNV13FC35_hIdtS.9RHk Meteorite Research: A Journey Through Space and Time Como un científico agrícola de 74 años convertido en escritor, viviendo en Mali, siempre he estado fascinado por los mis...",WEB libyaobserver.ly,20.541674,-97.424339,14QPH6426672217,escritor,Veracruz,Poza Rica de Hidalgo,residential,cache,2025-11-11T17:25:28,2025-11-11T17:25:28
155,libia,Sin clasificar,El Comité Directivo del Sindicato de Maestros pide que se asigne a un nuevo ministro en lugar de a Abid.,@gplusss,,,,lugar de a Abid,,,,mensajes,2025-11-11T17:33:49,2025-11-11T17:33:49
156,libia,Sin clasificar,"Cheminformática: Unlocking the Secrets of Molecular Interactions https://libyaobserver.ly/cdn-cgi/content?id=zldpTugRXs0Bg3Q3En48HD3cyPzn50vhvfK.Pyh1k-1762875329.6059659-1.01.1-GEQXkrfuFStAOl4nD0mFTFgk9MkLDXBhIck3r06Rs8 Cheminformática: una sinfonía de los materiales y datos En el ámbito de la quimioinformática, los límites entre la química y los patrones científicos se difuminan, dando lugar a...",WEB libyaobserver.ly,,,,ámbito de la quimioinformática,,,,mensajes,2025-11-11T17:35:30,2025-11-11T17:35:30
157,libia,Sin clasificar,"• Según la declaración del Consejo, en la reunión se examinaron los esfuerzos de la Corporación Petrolera por estabilizar las tasas de producción y los planes de desarrollo de la infraestructura del sector del petróleo y el gas en Libia.",@gplusss,,,,reunión se examinaron los esfuerzos de la Corporación Petrolera por estabilizar las tasas de producción y los planes de desarrollo de la infraestructura del sector del petróleo y el gas en Libia,,,,mensajes,2025-11-11T17:37:46,2025-11-11T17:37:46
158,libia,Sin clasificar,"El escritor y el investigador político Mohamed Boucher confirma que sus hechos e información son un intento de sensibilización e iluminación, y niega ser un verdadero opositor de ""Funter"" porque no trata de derribarlo a través de la violencia, haciendo hincapié en que rechaza la violencia política y cree que está devolviendo décadas al país.",@sefr0ly,34.368879,-5.211795,30STD9661405274,Mohamed Boucher,Fès-Meknès ⴼⴰⵙ-ⵎⴽⵏⴰⵙ فاس-مكناس,pachalik du Karia,restaurant,cache,2025-11-11T17:39:47,2025-11-11T17:39:47
159,libia,Sin clasificar,Pantalla de panel plano: una ventana en el Reino Digital https://libyaobserver.ly/cdn-cgi/content?id=pwO0STVDVsrzfsKNSrLIEb6Ukdgq4swb9TvjIeGlac-17399887-1.0.1.1-5YcUx6hZVXs_8TrqQlx21UWoM56ramttzHk Una pantalla plana (FPD) es un tipo de pantalla electrónica que utiliza una capa de píxeles para producir imágenes.,WEB libyaobserver.ly,,,,Reino Digital https://libyaobserver,,,,mensajes,2025-11-11T17:46:09,2025-11-11T17:46:09
160,libia,Sin clasificar,"El Banco Central de Libia, en su informe de 2025 hasta octubre pasado, declara ingresos de 103.400 millones de dinares, de los cuales 86.600 millones corresponden a ventas de petróleo, mientras que los gastos superan los 95.000 millones.",@sefr0ly,,,,su informe de 2025 hasta octubre pasado,,,,mensajes,2025-11-11T17:51:47,2025-11-11T17:51:47
161,libia,Sin clasificar,"En su declaración de ingresos y gastos públicos durante el mes de octubre, el Banco Central de Libia registra un déficit de 6.700 millones de dólares, debido a la disminución de los ingresos del petróleo suministrado, y se refiere a la cobertura del déficit con los ingresos de las inversiones de los depósitos centrales y la cartera de oro, al tiempo que confirma un superávit de la balanza de pa...",@sefr0ly,,,,su declaración de ingresos y gastos públicos durante el mes de octubre,,,,mensajes,2025-11-11T17:54:47,2025-11-11T17:54:47
162,libia,Sin clasificar,La gestión de la salud: un modelo de gestión de la salud: un modelo de gestión de la salud: un modelo de gestión de la salud: un modelo de gestión de la salud: un modelo de gestión de la salud: un modelo de gestión de la salud: un modelo de gestión de la salud: un modelo de gestión de la salud: un modelo de gestión de la salud: un modelo de gestión de la salud: un modelo de gestión de la salud:...,WEB libyaobserver.ly,28.464689,-16.262676,28RCS7638149329,gestión de la salud,,Salud-La Salle,estate_agent,cache,2025-11-11T17:55:47,2025-11-11T17:55:47
163,libia,Sin clasificar,"El boletín de noticias 6 de la televisión de la ruta Hana Titeh confirma la importancia de un proceso político conducente a las elecciones internacionales de migración que ha afectado a cerca de 24.000 inmigrantes desde el comienzo de este año. Oficina del Alto Comisionado: entrega de más de 61.000 tarjetas en el tercer grupo, https://yotube.com/live/f03x_z-bJ4Q",@almasartvlibya,-17.444978,-66.117841,19KHA0615968908,tercer grupo,Cochabamba,Cercado,neighbourhood,cache,2025-11-11T18:00:46,2025-11-11T18:00:46
164,libia,Sin clasificar,"El Banco Central de Libia revela que, hasta octubre pasado, los ingresos y regalías procedentes del petróleo ascendían a unos 19.300 millones de dólares, mientras que el total de activos extranjeros ascendía a 98.800 millones de dólares, frente a unos 95.500 millones a finales de 2024, y señaló que los ingresos de la tasa de ventas de divisas ascendían a 19.500 millones de dinares.",@sefr0ly,-14.492116,-39.419962,24LVJ5474597805,Banco Central,Bahia,Banco Central,administrative,cache,2025-11-11T18:02:47,2025-11-11T18:02:47
165,libia,Sin clasificar,"Embryology: The Wondorous Journey of Life https://libyaobserver.ly/cdn-cgi/content?id=jedQelzcyuckPOCEvveWwo.p8l2HJOCKsl2lfmR09g-176287316118-1.01.1-K3dBCD1Z.SWhWMacFsKJnx1MMzi5N2w30vsgsgsJ4yS1Y En el ámbito de la biología, pocos campos son tan fascinantes como el estudio de la embriología, el desarrollo de embriones desde la fertilización hasta el nacimiento.",WEB libyaobserver.ly,,,,ámbito de la biología,,,,mensajes,2025-11-11T18:05:33,2025-11-11T18:05:33
166,libia,Sin clasificar,Los miembros del cuerpo docente y los investigadores del Centro de Investigación y Estudios Islámicos Blancos piden en una declaración a la Cámara de Representantes que asuma sus responsabilidades abriendo el camino a la presentación de candidaturas a la presidencia.,@libyapress,,,,una declaración a la Cámara de Representantes,,,,mensajes,2025-11-11T18:05:48,2025-11-11T18:05:48
167,libia,Sin clasificar,"*Acelera la puerta* *Salarios y apoyos que representan el 91,6% del gasto total desde principios de año hasta octubre, más de 87.000 millones de dinares, frente a 4.200 millones de dólares de gastos administrativos y 3,7 millones de dólares de desarrollo. *Libia*",@sefr0ly,-21.786160,-48.203842,22KGA8913688221,Acelera,São Paulo,Araraquara,car,cache,2025-11-11T18:07:48,2025-11-11T18:07:48
168,libia,Sin clasificar,El Dr.,@jraimalmlyshyat,,,,,,,,mensajes,2025-11-11T18:10:46,2025-11-11T18:10:46
169,libia,Sin clasificar,"El Banco Central de Libia revela la distribución de 90.600 millones de dinares en efectivo a través de los bancos comerciales de todo el país hasta octubre, es decir, 8.000 millones de dinares más que septiembre, mientras que el total de retiradas a través de los cajeros automáticos ascendió a 9.600 millones de dinares en el mismo período.",@sefr0ly,,,,efectivo a través de los bancos comerciales de todo el país hasta octubre,,,,mensajes,2025-11-11T18:10:47,2025-11-11T18:10:47
170,libia,Sin clasificar,"• Los medios de comunicación han revelado que el nombre claro en la correspondencia oficial es Hussein Masood Al-Biriki, Presidente del Comité de Recepción, y que estos materiales se han distribuido a las sucursales como utilizables.",@gplusss,,,,correspondencia oficial es Hussein Masood Al-Biriki,,,,mensajes,2025-11-11T18:16:48,2025-11-11T18:16:48
171,libia,Sin clasificar,"El concepto de superficie: Unveiling the Mysteries of Interfaces https://libyaobserver.ly/cdn-cgi/content?id=jtLA3vI1vwW61Xjye4p8sOXB5DW5aV2i0TKImFuhBKI8773.9487464-1.0.1.1-otUIoANzK9ag06jUlV0Ykcuqn2C2W7.mGhblcBU Surface Chemistry: The Science of Interfaces La química de superficie, un fascinante campo de estudio, profundiza en el intrincado mundo de las interfaces, donde se encuentran dos o má...",WEB libyaobserver.ly,,,,intrincado mundo de las interfaces,,,,mensajes,2025-11-11T18:22:55,2025-11-11T18:22:55
172,libia,Sin clasificar,Genomic Imprinting: The Epigenetic Enigma https://libyaobserver.ly/cdn-cgi/content?id=5fJZCDVXsA0nVop7V7eiPabMCFRUBD45jufSpTmyeE-17628780.273112-1.0.1.1-oqeUPurejvA.Pruv7QSPnXeerMgTAmg6er2KuoqA0 Genomic Imprinting: Unveiling the Mysteries of Parental Gene Expression Deep in the labertinen region of genetrion.Pruv7QeerGenomic Impacting: Genomic Impacting of the Genegenetive Genegenetive Genetive...,WEB libyaobserver.ly,,,,labertinen region of genetrion,,,,mensajes,2025-11-11T18:33:02,2025-11-11T18:33:02
173,libia,Sin clasificar,"Plataforma libia – Equipo se reúne por primera vez con la Sala Común de Seguridad encargada de la seguridad de la zona de Almenassa, https://almenassa.ly/2025/11/%d8 %7%d9%d9%d8%d8%d8%d8%d9%d9%d9%d8%d8%d9%d9%d8%d9%d8%d9%d9%d9%d%d9%d9%d%d9%d8a%a%d8%d8%d8%d8%f-%d8%d8%d8%d%d9%d8%d8a%a%d8a%d8a%d8%d8a%d8a%d8a%d8%d%d8a%d8a%d8a%d8a%d8a%d8a%d8a%d8a%d8a%d8a%d8a%d%d9%85%d%d%dov.",WEB almenassa.ly,,,,Plataforma libia,,,,mensajes,2025-11-11T18:33:06,2025-11-11T18:33:06
174,libia,Sin clasificar,"El Grupo de Expertos, el primer rincón de Khaled Hafter, se reúne con los ancianos, los ojos y los jóvenes infieles y subraya la importancia de la reconciliación y la reparación entre todas las tribus de la región meridional, https://almenassa.ly/2025/11/%d8 %7 %d9%84%d9%d8%d8%d1%d9%d8%d8%d9%d8%d9%d9%83%86-%d8a%d8a%d8a%d8%d8%8a%8a%d7%d9%d9%d9%8%%d8%%d8%d8%d%d8 %d9%%d9%8%d%d%d8%d9%d%d%d8%d8%d%d8...",WEB almenassa.ly,40.557016,-3.617237,30TVK4774389766,Grupo,Comunidad de Madrid,,company,nominatim,2025-11-11T18:33:07,2025-11-11T18:33:07
175,libia,Sin clasificar,"Fouling Research: Unveiling the Mysteries of Surface Interactions https://libyaobserver.ly/cdn-cgi/content?id=vZM6AvDeUbkXu.y3V3X_i8Tsbh4oz6ern0uNCMtOo-1762879385.6596041.0.1.1-NUpQM5S7_BeISCyPI7p9Zo8Xp6eukHb.wafwF2M Investigación: Una inmersión profunda en el mundo de las interacciones de la superficie Fouling, un fenómeno en el que las sustancias no deseadas se acumulan en las superficies, la...",WEB libyaobserver.ly,,,,mundo de las interacciones de la superficie Fouling,,,,mensajes,2025-11-11T18:43:06,2025-11-11T18:43:06
176,libia,Sin clasificar,"Embriology: The Wondormous Journey of Life https://libyaobserver.ly/cdn-cgi/content?id=D.f.5WzpYv6voftoguHXZtPjD_GdyzxFkPqEL6eYfE-176288000.4146016-1.0.1.1-ofzjdIAKT8YcHfNxe la genealogía, genealogía, genealogía, genealogía, genealogía, genealogía, genealogía, genealogía, genealogía, genealogía, genealogía, genealogía, genealogía, genealogía, genealogía, genealogía, genealogía, genealogía, gene...",WEB libyaobserver.ly,,,,Embriology,,,,mensajes,2025-11-11T18:53:22,2025-11-11T18:53:22
177,libia,Sin clasificar,"El Director de Seguridad del Gran Benghazi, General Salah Huidi, está investigando con el Viceministro del Interior de Belarús la cooperación en materia de seguridad en programas de capacitación especializada e intercambio de experiencias técnicas y de seguridad en los siguientes ámbitos: https://almenassa.ly/2025/11/%d9 %85%d8%d8%d8%%d8%d8%%d8%d9%d9%%d8%dh%d8%d8%%d8%d8%d8%d8%d8%d8%8%d8%d8%%d8%...",WEB almenassa.ly,,,,materia de seguridad en programas de capacitación especializada e intercambio de experiencias técnicas y de seguridad,,,,mensajes,2025-11-11T18:53:29,2025-11-11T18:53:29
178,libia,Sin clasificar,El Embajador de Omán en Túnez recibe al Sr.,WEB almenassa.ly,,,,Túnez recibe al Sr,,,,mensajes,2025-11-11T18:53:30,2025-11-11T18:53:30
179,libia,Sin clasificar,La geología de la geología de la geología de la geología de la geología de la geología de la geología de la geología de la geología de la geología de la geología de la geología de la geología de la geología de la geología de la geología de la geología de la geología de la geología de la geología de la geología de la geología de la geología de la geología de la geología de la geología de la geol...,WEB libyaobserver.ly,,,,this article,,,,mensajes,2025-11-11T19:03:10,2025-11-11T19:03:10
180,libia,Sin clasificar,"Insulator Engineering: The Unsung Heroes of Energy Efficiency https://libyaobserver.ly/cdn-cgi/content?id=26mlN9dWkopmJpNhEXEqekDb.eIp_07EPuHtco F6zg-176288.7666514-1.0.1.1-r0qsOt0xT6wymiFZ_akY.UdL5uvauj8FBGY.Z6eTnU Insulation En el ámbito de la ciencia de materiales, los aisladores desempeñan un papel crucial en la regulación de la transferencia de calor y la eficiencia energética.",WEB libyaobserver.ly,,,,ámbito de la ciencia de materiales,,,,mensajes,2025-11-11T19:13:20,2025-11-11T19:13:20
181,libia,Sin clasificar,"Eléctrico Insulation: The Unseen Guardian of Modern Technology https://libyaobserver.ly/cdn-cgi/content?id=tVJvjXr81q1HwPQOiN9P1laexpfBm2YlHS5DtUXWcc1799.8940823-1.0.1.1-9q062NFRkSOvNZG3oTi3k.70enmeTVGGGvcIkKYA Electrical Insulation: The Unseen Guardian of Modern Technology A medida que ahondamos en el ámbito de la ingeniería eléctrica, un aspecto crucial que a menudo pasa desapercibido es el a...",WEB libyaobserver.ly,,,,ámbito de la ingeniería eléctrica,,,,mensajes,2025-11-11T19:23:21,2025-11-11T19:23:21
182,libia,Sin clasificar,"La medicina de transfusiones: The Science of Saving Lives https://libyaobserver.ly/cdn-cgi/content?id=C4LyV4Wo_8NUcB6ks7t2_Rab04JoQ24iPKJYXReRkc-1762882395.3603978-1.0.1.1-MbSwMmpsnln9ZkcPlr3_lvb5cP2Q0XdPUAv.ZbY La medicina de transfusiones de sangre: una diva poética en el mundo de las transfusiones de sangre En el ámbito de la medicina, pocos campos son tan intrincados y vitales como la medic...",WEB libyaobserver.ly,,,,mundo de las transfusiones de sangre,,,,mensajes,2025-11-11T19:33:19,2025-11-11T19:33:19
183,libia,Sin clasificar,"Estudios francófonos: Unveiling the Complejity of Language and Culture https://libyaobserver.ly/cdn-cgi/content?id=FeezPmyALcLwV7hnMQQDouC1qilF88AeMLuNT19r8I-1762883002.8362794-1.0.1.1-tBVw8QH1gMK5oqwX.KgY6aTk3zUKZ6bAo1L_VoT7z8 Estudios francófonos, un campo de investigación multidisciplinar, se centra en las complejidades del idioma francés y la cultura en varias regiones del mundo.KgY6aTk3zUK...",WEB libyaobserver.ly,,,,complejidades del idioma francés y la cultura en varias regiones del mundo,,,,mensajes,2025-11-11T19:43:25,2025-11-11T19:43:25
184,libia,Sin clasificar,"La ciencia de Saving Lives https://libyaobserver.ly/cdn-cgi/content?id=34qc.cBR_f_UJhbu8xTtByBtO54sFoGZtLWd6Cpw-1762883655.1817899-1.0.1.1-dR3AyAriouOyDgdOUH9JakEr6ofMFGGigGQ Cuadernización de la sangre en el mundo de las transfusiones de sangre En el ámbito de la medicina, pocos campos son tan intrincados y vitales como la medicina de transfusión.",WEB libyaobserver.ly,,,,mundo de las transfusiones de sangre,,,,mensajes,2025-11-11T19:54:19,2025-11-11T19:54:19
185,libia,Sin clasificar,"Xenobotany: The Uncharted Realm of Alien Plant Life https://libyaobserver.ly/cdn-cgi/content?id=uWfsUmVqVXu76kNkfkblGJNOLqHZcEgnUgw5jdYqE-176288866947-1.0.1.1-VT.yU1hB_I3b7.A_BCTr29CpNpRJBKUDMIdFpag Xenobotany: The Uncharted Realm of Alien Plant Life Deep en el ámbito de la astrobiología, un campo de estudio fascinante en el territorio no explorado de la flora extraterrestre, en la medida en qu...",WEB libyaobserver.ly,,,,ámbito de la astrobiología,,,,mensajes,2025-11-11T20:03:08,2025-11-11T20:03:08
186,libia,Sin clasificar,"Agricultural Economics: The Hidden Patterns https://libyaobserver.ly/cdn-cgi/content?id=ibDKEyelU1qNUF3WkmUukJ7g5DRNsn2_C8npE1EgSMo-17628814.75713-1.0.1.1-egF0nbz5OeybiJ.MDMlATbqQ.8dSbRhwggMt38xA4 Agricultural Economics: Unveiling the Intriacy En el ámbito de la economía agrícola, un mundo de patrones intrincados y delicados equilibrios que esperan.Al profundizar en este fascinante campo, encon...",WEB libyaobserver.ly,,,,ámbito de la economía agrícola,,,,mensajes,2025-11-11T20:13:36,2025-11-11T20:13:36
187,libia,Sin clasificar,"Plataforma libia – Equipo: el primer rincón de Saddam Hafter, Comandante General Adjunto de las Fuerzas Armadas, se reúne con el jefe de operaciones y los mandos de las zonas militares, https://almenassa.ly/2025/11/%d8%d9%%d9%d9%83%d9%d9%d8%d8%d8%d8%d9%%d8%d8%d8%d9%%d8%8%d8%d8%8%d8%d8%d8%d8%d8%d8%d9%d%d9%d8a7%d9%85%d8%d8%d8%d9%d8%d9%d8%d9%d%d9%d8%d%d9%d8%d9%d%d8%d%d%d8%d8%d8%d%d8%d8%d%d8%d8%d8%...",WEB almenassa.ly,,,,Plataforma libia,,,,mensajes,2025-11-11T20:14:11,2025-11-11T20:14:11
188,libia,Sin clasificar,Xenobottherany: The Uncharted Realm of Alien Plant Life https://libyaobserver.ly/cdn-cgi/content?id=veaZIGNFz5d9fbby6lA5O3DzzX007KBsRCNcnCSVI-1762885399.370139-1.0.1.1-NEFHO8FBNGOzykaoz4.BUM9iA3yk0 en las instalaciones de la planta de la planta de la planta de la planta de la planta de la planta de la planta de la planta de la planta de la planta de la planta de la planta de la planta de la pla...,WEB libyaobserver.ly,,,,instalaciones de la planta de la planta de la planta de la planta de la planta de la planta de la planta de la planta de la planta de la planta de la planta de la planta de la planta de la pla,,,,mensajes,2025-11-11T20:23:21,2025-11-11T20:23:21
189,libia,Sin clasificar,Flapping Wing Research: Unveiling the Aerodinamics of Bio-Inspired Flight wing https://libyaobserver.ly/cdn-cgi/content?id=2898gO9ZowFUosEXYqBJF_gLn1WTmy5hma29ouuYd4-17628859.3358815-1.0.1.1-6SB2CNVtgiFLrIT3p3dT9b5kqzKMwX0xEblV9FbpA Wing Research: Unveiling the Aerodynamics of Bio-Inspired Flight Flapping flamping flamping flamping flamping flamping flamping flamping flamping flamping flamping...,WEB libyaobserver.ly,,,,Flapping Wing Research,,,,mensajes,2025-11-11T20:33:11,2025-11-11T20:33:11
190,libia,Sin clasificar,Unveiling the Mystique of High Temperature Superconductivity https://libyaobserver.ly/cdn-cgi/content?id=BOigll4QW_PewdnFTogfrz.2WHzCtZUlkoMu7fkMaE-17628871582555-1.0.1.1-nnz_ARf9YvUbgK2mjTlJcGGGGGGGGGGGGGGGGGGGGGGGGGGGGGGGGGGGGGGGGGGGGGGGGGGGGGGGGGGGGGGGGGGGGGGGGGGGGGGGGGGGGGGGGGGGGGGGGGGGGGGGGGGGGGGGGGGGGGGGGGGGGGGGGGGGGGGGGGGGGGGGGGGGGGGGGGGGGGGGGGGGGGGGGGGGGGGGGGGGGGGGGGGGGGGGGGGGGGGGGGGGGG...,WEB libyaobserver.ly,-33.721464,150.333180,56HKH5288965532,Unveiling,New South Wales,Blue Mountains City Council,memorial,cache,2025-11-11T20:53:04,2025-11-11T20:53:04
191,libia,Terrorismo,"Bioarchaeology: Unveiling the Secrets of the Past https://libyaobserver.ly/cdn-cgi/content?id=17s9pSyUsUcN4NdD31ByX_zGP16X6hATuJa89ix5zJk-1762887864-1.0.1.1-YMbxlyXEIvNfe75.xZs6xFsLGJ7sizd.L5JOSVJU Bioarchaeology, un subcampo de arqueología, es un enfoque interdisciplinario que combina el estudio de los restos humanos con el contexto arqueológico para reconstruir las vidas de las sociedades pas...",WEB libyaobserver.ly,,,,Bioarchaeology,,,,mensajes,2025-11-11T21:03:07,2025-11-11T21:03:07
192,libia,Sin clasificar,"Para la conservación de la población: El Delicate Balance https://libyaobserver.ly/cdn-cgi/content?id=BGZ3am97Uq0fbhxaiQzsTpPuDUD5yXl_BPn_qP6IuP4-176288012127-1.01.1-.oE6sxsQ_KDG5wnbXM9dnofZ3FoZSnzhSrmxRQ En el gran tapiz de la vida, la ecología de la población es un campo fascinante que explora las relaciones intrincadas entre los organismos y su medio ambiente.Es un ámbito en el que las matem...",WEB libyaobserver.ly,,,,gran tapiz de la vida,,,,mensajes,2025-11-11T21:13:22,2025-11-11T21:13:22
193,libia,Sin clasificar,"La teoría del juego Evolutionary Game Theory: The Dance of Strategies https://libyaobserver.ly/cdn-cgi/content?id=tpF7BWPxV2oG1eTUtuDOl.U9JTNXmJCMm7TzrRaarwk7.8640552-1.0.1.1.SmCBb4Us8HCe7sCifvJnHgntjZlUc.3BTdtAgeSE_0 Evolutionary Game Theory: The Dance of Strategies Deep en el ámbito de la biología evolutiva y la teoría de juegos, surge un campo fascinante, donde los principios de la competenc...",WEB libyaobserver.ly,,,,ámbito de la biología evolutiva y la teoría de juegos,,,,mensajes,2025-11-11T21:23:29,2025-11-11T21:23:29
194,libia,Sin clasificar,"La tecnología de la tecnología de la información, la tecnología de la información y la tecnología de la información, la tecnología de la información, la tecnología de la información y las comunicaciones, la tecnología de la información y las comunicaciones, la tecnología de la información y la comunicación, la tecnología de la información y las comunicaciones, la tecnología de la información y...",WEB libyaobserver.ly,,,,this article,,,,mensajes,2025-11-11T21:33:58,2025-11-11T21:33:58
195,libia,Sin clasificar,En el caso de las aplicaciones de control de la calidad de la calidad de la calidad de la calidad de la calidad de la calidad de la calidad de la calidad de la calidad de la calidad de la calidad de la calidad de la calidad de la calidad de la calidad de la calidad de la calidad de la calidad de la calidad de la calidad de la calidad de la calidad de la calidad de la calidad de la calidad de la...,WEB libyaobserver.ly,,,,caso de las aplicaciones de control de la calidad de la calidad de la calidad de la calidad de la calidad de la calidad de la calidad de la calidad de la calidad de la calidad de la calidad de la calidad de la calidad de la calidad de la calidad de la calidad de la calidad de la calidad de la calidad de la calidad de la calidad de la calidad de la calidad de la calidad de la calidad de la,,,,mensajes,2025-11-11T21:43:32,2025-11-11T21:43:32
196,libia,Sin clasificar,"Volcanología: Unveiling the Secrets of Earth's Fiery Profundities https://libyaobserver.ly/cdn-cgi/content?id=2WuRTpFOtHvc79Lwrc9nZKADJeCPwfNDtZS1vHf2Ig-1762890839.808612-1.0.1.1-8xTy4ZcS7Bc_wVdHxnB7WydzxiiF9YAJ5sC2N2O Volcanología: Un viaje al corazón del fuego Profundo en la corteza de la Tierra, un caldero de rocas fundidas y minerales que se acumulan a través de la capa de fuego, tierra y a...",WEB libyaobserver.ly,,,,corteza de la Tierra,,,,mensajes,2025-11-11T21:54:02,2025-11-11T21:54:02
197,libia,Sin clasificar,"Cronobiology: The Rhythms of Life https://libyaobserver.ly/cdn-cgi/content?id=oCohPX771AKs5_YxLwMV1pYR0rgt1Woj0wxDvg_ZlsM-1762891436.671977-1.0.1.1-3Qxt7z_sLTo7Viemo8zEwGu6dIkg_Fc.Qz_WUF0 Profundo en el tejido de nuestra existencia, un mundo oculto de ritmos y ciclos gobierna la danza intrincada de la vida.",WEB libyaobserver.ly,,,,tejido de nuestra existencia,,,,mensajes,2025-11-11T22:03:57,2025-11-11T22:03:57
198,libia,Sin clasificar,"Paleoecology: Unveiling the Secrets of Ancient Ecosystems https://libyaobserver.ly/cdn-cgi/content?id=wRSQiqHUAnZ3hw0hW1dXw7eRKNAEbRTPD2_XYy.JFM-176289043-1.0.1.1-jjjBGJ5GErokXdm8bgu6aGo6DzUz0lKnQ_ATmho Paleoecología, una disciplina en la intersección de la ecología, la paleontología y la geología, busca reconstruir y comprender los ecosistemas del pasado.",WEB libyaobserver.ly,,,,intersección de la ecología,,,,mensajes,2025-11-11T22:13:28,2025-11-11T22:13:28
199,libia,Sin clasificar,"Continuum Mechanics: A Poetic Dive into the Realm of Deformable Bodies https://libyaobserver.ly/cdn-cgi/content?id=c.RwSKvAaSUH3vTaSzK.QNVqhnG3bxVP6Lfvt6VWr0-1762892459.266534-1.0.1.1-YbLSHBBZ58Fnep.dacaK8LzhD.tnT4CielCYXOw Continuum Mechanics: A Poetic Dive in the Realm of Deformable Bodies En el ámbito de la física, las fuerzas y los movimientos entrelanzan la materia, la danza en la armonía.",WEB libyaobserver.ly,,,,Realm of Deformable Bodies,,,,mensajes,2025-11-11T22:21:00,2025-11-11T22:21:00
200,libia,Sin clasificar,"Bioarchaeology: Unveiling the Secrets of the Past https://libyaobserver.ly/cdn-cgi/content?id=cIjtukLVh498FPvIkb9dAul4eLYLrkLzJadBjzOD.Q8-1762893014.118507-1.0.1.1-ZDGMMkYI8HCa8RtHtYaCU049T_3CBLMBYGvY7eSVA Bioarchaeology, un subcampo de la arqueología, es un enfoque interdisciplinario que combina el estudio de los restos humanos con el contexto arqueológico para reconstruir las vidas de las soc...",WEB libyaobserver.ly,,,,Bioarchaeology,,,,mensajes,2025-11-11T22:30:15,2025-11-11T22:30:15
201,libia,Sin clasificar,"Unveiling the Mystique of High Temperature Superconductivity https://libyaobserver.ly/cdn-cgi/content?id=Kgue5akeOoI_5_yRhGKZqLGuLD.Ohdk3uhayE0W6w-1762893581.1463842-1.0.1.1-kjWxwlkIaPSyz86wHpNW5doyqxErqw1ZDT8pkhNic Unveiling the Mystique of High Temperature Superconductivity High Temperature superconductivity, un fenómeno que ha cautivado a científicos e ingenieros por igual durante décadas, c...",WEB libyaobserver.ly,-33.721464,150.333180,56HKH5288965532,Unveiling,New South Wales,Blue Mountains City Council,memorial,cache,2025-11-11T22:39:44,2025-11-11T22:39:44
202,libia,Sin clasificar,"flapping Wing Research: Unveiling the Aerodinamics of Bio-Inspired Flight https://libyaobserver.ly/cdn-cgi/content?id=tKjmnpKSMBOJaiTIfEICwpkuxZTbmGcuKRGhdQuos-1762894182.5086732-1.0.1.1-zgFlapping flypXEr9UYBVmA7DHbQ3BhquMV_RsE9rP9kCWA Flapping Wing Research: Unveiling the Aerodinamics of Bio-Inspired Flight Flapping search ha obtenido una gran atención en los últimos años, científicos e ingen...",WEB libyaobserver.ly,,,,últimos años,,,,mensajes,2025-11-11T22:49:44,2025-11-11T22:49:44
203,libia,Sin clasificar,"Volcanología: Unveiling the Secrets of Earth's Fiery Profundities https://libyaobserver.ly/cdn-cgi/content?id=CK7VbtrJb6sWYKhM02FD67FvZhI3VA2rK3ifv0vQb98-176289515255837-1.0.1.1-xca35n4WAFq5HkBCMbItLSB30B8B62kREPWB7rrN4 Volcanología: Un viaje al corazón del fuego Profundo dentro de la corteza terrestre, un caldero de rocas fundidas y minerales simmers, a la espera de desatar su furia sobre la s...",WEB libyaobserver.ly,,,,Volcanología,,,,mensajes,2025-11-11T23:05:54,2025-11-11T23:05:54
204,libia,Sin clasificar,Diseño de ropa deportiva: The Intersection of Science and Style https://libyaobserver.ly/cdn-cgi/content?id=Xmqi8x6PAK.YDPbuoHVdahogamReforma de la capacidad de trabajo de las instalaciones de trabajo de las instalaciones de trabajo de las instalaciones de trabajo.YDPbuoHdhogamSR9xT0_KhWeoJPjEY-17625365.7092056-1.01.1-ZNQ1fTmsIILJndaWMphY2W.fqk2EdIzJouCmsX20mdI Sportswear Design: The Intersecti...,WEB libyaobserver.ly,,,,Diseño de ropa deportiva,,,,mensajes,2025-11-11T23:09:27,2025-11-11T23:09:27
205,libia,Sin clasificar,"Astronomía: Unveiling the Mysteries of Deep Space https://libyaobserver.ly/cdn-cgi/content?id=.WgG72XiOocb82LvIJhTqf4rCnMDUYiJut71TGfeYk-17628981.037105-1.0.1.1-k9K_UmGNLi2d2.HtnqIMVR5vY3N.EOzIS6Wlvo3Q En la vasta extensión del universo, la astronomía ha sido durante mucho tiempo un tema de fascinación, que despierta la curiosidad humana y nos lleva a explorar lo desconocido.",WEB libyaobserver.ly,,,,vasta extensión del universo,,,,mensajes,2025-11-11T23:19:42,2025-11-11T23:19:42
206,libia,Sin clasificar,"La investigación de meteoritos: Unveiling the Secrets of the Cosmos https://libyaobserver.ly/cdn-cgi/content?id=vX8u0owMU7Bzul77Ypg0V5hgMvpT3wL7qPPIfUyMyqE-1762896546.6988504-1.0.1.1-OqbB4zv05Qh0lfFt0m3LyM.69rkLa investigación de meteoritos: un viaje a través del espacio y el tiempo Como un científico agrícola de 74 años convertido en escritor, viviendo en Mali, siempre he estado fascinado por...",WEB libyaobserver.ly,20.541674,-97.424339,14QPH6426672217,escritor,Veracruz,Poza Rica de Hidalgo,residential,cache,2025-11-11T23:29:07,2025-11-11T23:29:07
207,libia,Sin clasificar,"En los modelos de educación basados en el conocimiento, en los modelos de educación basados en el conocimiento, en los modelos de educación basados en el conocimiento, en los modelos de educación basados en el conocimiento, en los modelos de educación basados en el conocimiento, en los modelos de educación basados en el conocimiento, en los modelos de educación basados en el conocimiento, en lo...",WEB libyaobserver.ly,,,,modelos de educación basados,,,,mensajes,2025-11-11T23:40:18,2025-11-11T23:40:18
208,libia,Sin clasificar,"Argumentation Theory: Unveiling the Science of Persuasion https://libyaobserver.ly/cdn-cgi/content?id=LMfdVkxTV7perKUZc.hShVRi.ve.3Qj0QExXcq8rUs-17628978309284-1.01.1-RCa2Hl7otPQlzpO0rQrmRlnMO4.yGUtM.p6WrhbE Argumentation Theory: A Deep Dive into the Realm of Razonating Argumentation teory, and persuar a otros.",WEB libyaobserver.ly,,,,Argumentation Theory,,,,mensajes,2025-11-11T23:49:10,2025-11-11T23:49:10
209,libia,Sin clasificar,"La teoría del juego se basa en la teoría del juego evolutivo, mientras que la teoría del juego se basa en la teoría del juego evolutivo, se basa en la teoría del juego evolutivo y se basa en el concepto de la ""capacidad del juego"" en la que los individuos pueden interactuar con la teoría del juego.",WEB libyaobserver.ly,,,,teoría del juego evolutivo,,,,mensajes,2025-11-11T23:59:16,2025-11-11T23:59:16
210,libia,Sin clasificar,"La tecnología de la tecnología de la información y la tecnología de la tecnología de la información y la tecnología de la información y la tecnología de la información y las comunicaciones.La tecnología de la tecnología de la información y las comunicaciones, la tecnología de la información y las comunicaciones, la tecnología de la información y las comunicaciones, la tecnología de la informaci...",WEB libyaobserver.ly,,,,this article,,,,mensajes,2025-11-12T00:09:24,2025-11-12T00:09:24
211,libia,Sin clasificar,Las aplicaciones de la aplicación de la aplicación de la tecnología de la tecnología de la tecnología de la tecnología de la tecnología de la tecnología de la tecnología de la tecnología de la tecnología de la tecnología de la tecnología de la tecnología de la tecnología de la tecnología de la tecnología de la tecnología de la tecnología de la tecnología de la tecnología de la tecnología de la...,WEB libyaobserver.ly,,,,recent years,,,,mensajes,2025-11-12T00:19:39,2025-11-12T00:19:39
212,libia,Sin clasificar,"Cronobiologia: The Rhythms of Life https://libyaobserver.ly/cdn-cgi/content?id=3DP.PkrRXfuVoyJlmWcdWUTylQjxDyhFUSsjMB78.7988784-1.0.1.1-FgPWGngOLXmryfJnckT3.QUyNybErTfD8lvCDqTI Deep dentro del tejido de nuestra existencia, un mundo oculto de ritmos y ciclos rige la intrincada danza de la vida.",WEB libyaobserver.ly,,,,Cronobiologia,,,,mensajes,2025-11-12T00:29:40,2025-11-12T00:29:40
213,libia,Sin clasificar,"De la energía de la superficie: Unveiling the Mysteries of Interfaces https://libyaobserver.ly/cdn-cgi/content?id=KACkxKzPzGT4ribirejdysYiI.Jj3lMtBazKx6vyXdc-1762900772.81438-1.0.1.1-7QrSiA329LQrBA0vWh8fvZw.okva7nYCDIxL6VKA8 Surface Chemistry: The Science of Interfaces Surface chemistry, un fascinante campo de estudio, se adentra en el intrincado mundo de las interfaces, donde dos o más fases s...",WEB libyaobserver.ly,,,,intrincado mundo de las interfaces,,,,mensajes,2025-11-12T00:39:34,2025-11-12T00:39:34
214,libia,Sin clasificar,"Paleofecology: Unveiling the Secrets of Ancient Ecosystems https://libyaobserver.ly/cdn-cgi/content?id=nJifoJ6Benw.Utrnwq_WF6ydzNT0OM1JpPUEA99nqOQ-1762969033-1.0.1.1-WeHFINpOzDw0LhM8D8WECYDzMzun1Q9LM Paleoecología, una disciplina en la intersección de la ecología, la paleontología y la geología, busca reconstruir y comprender los ecosistemas del pasado.",WEB libyaobserver.ly,,,,intersección de la ecología,,,,mensajes,2025-11-12T00:49:18,2025-11-12T00:49:18
215,libia,Sin clasificar,"Estudios francófonos: Unveiling the Complejity of Language and Culture https://libyaobserver.ly/cdn-cgi/content?id=6s7TTTQawOq_5nG9UW.4YEWQwquWTGHXk6ltvJ4QA-1762901954.1761811-1.0.1.1-M3hLwB.m4IxVs1Zvdo.y5QE5_z.Jfkib9cL6ktHdb4 estudios francófonos, un campo multidisciplinario de investigación, profundiza en las complejidades de la lengua francesa y la cultura en diversas regiones del mundo.Con...",WEB libyaobserver.ly,,,,complejidades de la lengua francesa y la cultura en diversas regiones del mundo,,,,mensajes,2025-11-12T00:59:16,2025-11-12T00:59:16
216,libia,Sin clasificar,"Reliability Engineering: The Science of Failure Prevention https://libyaobserver.ly/cdn-cgi/content?id=byScIsWDCC42X.2.p7qQ2tyognaoB2p_AyXioyIo-17629073.32782-1.0.1.1-d4Ra4qQC4c6SesKq73eYBO2aVPWRxmSraIT8pKg_aM Reliability Engineering: The Science of Failure Prevention A medida que navegamos las complejidades de la tecnología moderna, la importancia de la ingeniería de fiabilidad no se puede exa...",WEB libyaobserver.ly,22.319494,87.315447,45QWE3248768225,Reliability Engineering,West Bengal,Kharagpur-I,university,nominatim,2025-11-12T01:19:35,2025-11-12T01:19:35
217,libia,Sin clasificar,El sistema de mantenimiento del corazón es un sistema de mantenimiento del corazón que combina el sistema de mantenimiento del corazón con el sistema de mantenimiento del corazón.El sistema de mantenimiento del corazón es un sistema de mantenimiento del corazón que ha fascinado a los científicos y a los profesionales médicos durante siglos.Uno de los avances más significativos en la medicina ca...,WEB libyaobserver.ly,39.238294,9.126761,32SNJ1093943228,medicina ca,Sardigna/Sardegna,Casteddu/Cagliari,school,nominatim,2025-11-12T01:29:18,2025-11-12T01:29:18
218,libia,Sin clasificar,"Xenobotany: The Uncharted Realm of Alien Plant Life https://libyaobserver.ly/cdn-cgi/content?id=r0QrsKMNV2GcHbMx5lbxLjcTf7hj8RhI661M1MILo-1762904367.743084-1.01.1-QoLYc2gqpvLk8Fi56M6MvMxLb1nNj5ST_mvE Xenobotany: The Uncharted Realm of Alien Plant Life Deep en el ámbito de la astrobiología, un campo de estudio fascinante en el territorio no explorado de la flora extraterrestre en la que se encue...",WEB libyaobserver.ly,,,,ámbito de la astrobiología,,,,mensajes,2025-11-12T01:39:28,2025-11-12T01:39:28
219,libia,Sin clasificar,"Genomic Imprinting: The Epigenetic Enigma https://libyaobserver.ly/cdn-cgi/content?id=6cp0YpBHDQE55CwhNvPW9o_dk.z_pHnBwQuit15d46Q-1762906168027-1.0.1.1-gfXYlwQzMciZEiFbzM0c8j_bQm9HV_U956N2aQ Genomic Imprinting: Unveiling the Mysteries of Parental Gene Expresion Deep in the laberineine way of genetics, un fenómeno fascinante de los científicos intrigados desde hace mucho tiempo: este complejo pr...",WEB libyaobserver.ly,,,,laberineine way of genetics,,,,mensajes,2025-11-12T01:49:22,2025-11-12T01:49:22
220,libia,Sin clasificar,Green Roof Research: A Deep Dive into the Science of Vegetated Roofs https://libyaobserver.ly/cdn-cgi/content?id=bQ5MZ6t waterResponde a la tecnología de la tecnología de la tecnología de la tecnología de la tecnología de la tecnología de la tecnología de la tecnología de la tecnología de la tecnología de la tecnología de la tecnología de la tecnología de la tecnología de la tecnología de la te...,WEB libyaobserver.ly,,,,Green Roof Research,,,,mensajes,2025-11-12T01:59:12,2025-11-12T01:59:12
221,libia,Sin clasificar,Las aplicaciones de la tecnología de la tecnología de la tecnología de la tecnología de la tecnología de la tecnología de la tecnología de la tecnología de la tecnología de la tecnología de la tecnología de la tecnología de la tecnología de la tecnología de la tecnología de la tecnología de la tecnología de la tecnología de la tecnología de la tecnología de la tecnología de la tecnología de la...,WEB libyaobserver.ly,,,,realm of materials science,,,,mensajes,2025-11-12T02:09:17,2025-11-12T02:09:17
222,libia,Sin clasificar,"El desarrollo de la tecnología de la tecnología de la información, la tecnología de la información y la tecnología de la tecnología de la información y la tecnología de la tecnología de la información y la tecnología de la tecnología de la información y la tecnología de la información y las comunicaciones.",WEB libyaobserver.ly,47.534095,19.036573,34TCT5222566387,human body,Budapest,Budapest,massage,nominatim,2025-11-12T02:19:24,2025-11-12T02:19:24
223,libia,Sin clasificar,"Engineering traffic: The Pulse of Urban Mobility https://libyaobserver.ly/cdn-cgi/content?id=7N2DeuVfS5pf6G7BB0a9zncsSh50v18jHnBb3IoaB2U179079597336-1.01.1-VIh99aYrMxQ8UyndoqU1no3FCmd.yNFM0NgL Traffic Engineering: The Pulse of Urban Mobility Traffic ingineering es la columna vertebral de la planificación urbana, garantizando el flujo fluido de vehículos, peatones y mercancías a través de ciudades.",WEB libyaobserver.ly,43.032042,-87.931505,16TDN2411364793,Engineering traffic,Wisconsin,Milwaukee County,industrial,cache,2025-11-12T02:29:20,2025-11-12T02:29:20
224,libia,Sin clasificar,"El Labyrinth of Knowledge: Una Odyssey into Epistemology https://libyaobserver.ly/cdn-cgi/content?id=OXEHTUMRriIgtLF2fK5msg8_x.0RtywusmJ4mTsro-17629059.81212-1.01.1-v7UXsbMAeVf17TE0yfr3mVCMnx3_dr8XuBz5sheEl Labyrinth of Knowledge: Una Odyssey into Epistemology En la búsqueda de la comprensión, la humanidad siempre ha sido enredada en una compleja red de preguntas y respuestas, dudas y certezas.",WEB libyaobserver.ly,,,,búsqueda de la comprensión,,,,mensajes,2025-11-12T02:39:21,2025-11-12T02:39:21
225,libia,Sin clasificar,"Volcanología: Unveiling the Secrets of Earth's Fiery Profundities https://libyaobserver.ly/cdn-cgi/content?id=9CmyzSaqjjCd61K0_UBw1OE6CVvd.UeGtGncfgVlayg-17,62713-1.01.1-QRyQ3okDjDj7qA7o9Lim18bR0aMDVrBz329s3lgqHAY Volcanología: un viaje al corazón del fuego Profundo de la Tierra, un caldero de rocas fundidas y minerales se alimentan a través de la gema, la gema y el agua, donde los límites entr...",WEB libyaobserver.ly,,,,Volcanología,,,,mensajes,2025-11-12T02:50:14,2025-11-12T02:50:14
226,libia,Sin clasificar,"food Service Management: The Art of Culinary Harmony https://libyaobserver.ly/cdn-cgi/content?id=jPN_zXUlAmQ3kIhQALmKg6cZcHc5BPpcgOb.G7Jg-1762909203.391043-1.01.1-QOaukcPzoaTuWOrCPhX0lCzelQ8MwlB3kOCI Food Service Management: The Art of Culinary Harmony En el ámbito de la gestión de los servicios alimentarios, una sinfonía de elementos se une para crear una experiencia gastronómica inolvidable.",WEB libyaobserver.ly,,,,ámbito de la gestión de los servicios alimentarios,,,,mensajes,2025-11-12T03:00:05,2025-11-12T03:00:05
227,libia,Sin clasificar,La genealogía de la genealogía de la genealogía de la genealogía de la genealogía de la genealogía de la genealogía de la genealogía de la genealogía de la genealogía de la genealogía de la genealogía de la genealogía de la genealogía de la genealogía de la genealogía de la genealogía de la genealogía de la genealogía de la genealogía de la genealogía de la genealogía de la genealogía de la gen...,WEB libyaobserver.ly,,,,this article,,,,mensajes,2025-11-12T03:10:18,2025-11-12T03:10:18
228,libia,Sin clasificar,"Agricultural Economics: The Backbone of Human Civilization https://libyaobserver.ly/cdn-cgi/content?id=xY7QPGhtgD0P2FPGNkfeXlITXw5TsNiNNHGtJes940-1762911556.37998-1.0.1.1-fHaF2aPlRtCmW3eDvK0quOqWb0ep0jFxnYskpIzbaUS Agricultural Economics: The Backbone of Human Civilization Agricultural economys, un campo que puede parecer mundano, es de hecho una disciplina vibrante y compleja que sustenta las...",WEB libyaobserver.ly,39.959688,116.318889,50SMK4182623505,Agricultural Economics,北京市,北下关街道,research,cache,2025-11-12T03:39:17,2025-11-12T03:39:17
229,libia,Sin clasificar,"La ciencia de Saving Lives https://libyaobserver.ly/cdn-cgi/content?id=g27gbtwEXA317x1y7TuN60keKSctv7jt9x7gaXvpfY-1762912134.9684613-1.01.1-CZWx.ekdOik_DSUcsDQY6ob0ABoQGQG4lQkQnec Transfusion Medicine es un método de análisis de la sangre en el mundo de las transfusiones de sangre.En el ámbito de la medicina, pocos campos son tan intrincados y vitales como la medicina de transfusiones.La cienci...",WEB libyaobserver.ly,,,,mundo de las transfusiones de sangre,,,,mensajes,2025-11-12T03:48:56,2025-11-12T03:48:56
230,libia,Sin clasificar,"Argumentation Theory: Unveiling the Science of Persuasion https://libyaobserver.ly/cdn-cgi/content?id=cB.9CKbZsP6Ecr4J.JSo9W4TvXHJMG9gY_WbPM-1762912745.125658-1.0.1.1-UIcL7MnU_DhXdc97VB7ByFybNRft8hRQEKS9E8 Argumentation Theory: A Deep Dive in the Realm of Razonating Argumentation teory, una rama de la teoría de la lógica y de los argumentos es el estudio sistemático de cómo se construyen, se pr...",WEB libyaobserver.ly,,,,Realm of Razonating Argumentation teory,,,,mensajes,2025-11-12T03:59:06,2025-11-12T03:59:06
231,libia,Sin clasificar,"Paleoecology: Unveiling the Secrets of Ancient Ecosystems https://libyaobserver.ly/cdn-cgi/content?id=clpbpPnk8Ga6QFyEmLUGBEo0Lrl.btMoZmthJBn59Sk-1762913351.01147-1.0.1.1-pIs1LkDZsCd0mG9pJyK5axFmnP42LQdp6jE9sbAA Paleoecology, una disciplina en la intersección de la ecología, la paleontología y la geología, busca reconstruir y comprender los ecosistemas del pasado.",WEB libyaobserver.ly,,,,intersección de la ecología,,,,mensajes,2025-11-12T04:09:12,2025-11-12T04:09:12
232,libia,Sin clasificar,"En este artículo, la especialidad médica que utiliza la radiación para diagnosticar y tratar enfermedades, ha revolucionado el campo de la salud, explorando sus principios, aplicaciones y los avances más recientes en el campo de la radiación, la radiología se ha convertido en una herramienta indispensable tanto para médicos como para investigadores.En este artículo, profundizaremos en el mundo...",WEB libyaobserver.ly,,,,este artículo,,,,mensajes,2025-11-12T04:19:27,2025-11-12T04:19:27
233,libia,Sin clasificar,"En el campo de la geología, la geología de la geología, la geología y la geología de la geología, la geología y la geología de la geología, la geología y la geología de la geología, la geología de la geología, la geología y la geología de la geología.",WEB libyaobserver.ly,38.756088,-9.157754,29SMC8629389721,campo de la geología,,Lisboa,research,cache,2025-11-12T04:29:07,2025-11-12T04:29:07
234,libia,Sin clasificar,"Relaciones Internacionales: una Delicate Dance of Diplomacy https://libyaobserver.ly/cdn-cgi/content?id=urYnfijc_pSpxyjTyLS9kSnt5Z9cTGNdS6hH9KEBxzM-1762915171.262875-1.0.1.1-j27cdutwIwFh1FPfU7Tg9ZxfbQhKuXt_O3jJRTp87X0 Relaciones Internacionales: una Delicate Dance of Diplomacy A medida que el mundo se interconecta, las relaciones internacionales juegan un papel vital en la configuración de la p...",WEB libyaobserver.ly,,,,configuración de la p,,,,mensajes,2025-11-12T04:39:32,2025-11-12T04:39:32
235,libia,Sin clasificar,"Signal Transduction: The Cellular Symphony https://libyaobserver.ly/cdn-cgi/content?id=.0CX0GoPAVWgst EO_cdL9m6FNCM5zrknnsGyVMUxB8-17626353.90191-1.0.1-jDaMtpMncWFS82Nvr4DbFqndlJ.Hw3kr5vAndNo Signal Transduction: The Cellular Symphony Deep dentro del complejo paisaje de la biología celular, una red compleja de interacciones moleculares se desarrolla, que rige el tejido de la vida.",WEB libyaobserver.ly,,,,Signal Transduction,,,,mensajes,2025-11-12T04:59:15,2025-11-12T04:59:15
236,libia,Sin clasificar,Drilling Engineering: The Science of Borehole Optimization https://libyaobserver.ly/cdn-cgi/content?id=GRCM0Q0FLUIxK5taUEp GDG0GPD6RwcYOwSLd1ovqnY-17626954.812755-1.0.1.1-8BW2Vg.PHNMDMG2T_7J6w_FPDb2rXCBq6kadKU Drilling Engineering: The Science of Borehole Optimization Drilling ingineering es un campo multidisciplinar que implica la aplicación de los principios matemáticos y científicos para opt...,WEB libyaobserver.ly,22.243337,114.153937,50QKK0664462520,Drilling Engineering,香港 Hong Kong,南區 Southern District,company,nominatim,2025-11-12T05:09:16,2025-11-12T05:09:16
237,libia,Sin clasificar,Estudios de la Paz: Unveiling the Mystique La aplicación de la geología de la geología de la geología de la geología de la geología de la geología de la geología de la geología de la geología de la geología de la geología de la geología de la geología de la geología de la geología de la geología de la geología de la geología de la geología de la geología de la geología de la geología de la geol...,WEB libyaobserver.ly,-16.537452,-68.085682,19KEB9756271391,Estudios de la Paz,La Paz,Pedro Domingo Murillo,yes,nominatim,2025-11-12T05:19:29,2025-11-12T05:19:29
238,libia,Sin clasificar,"Xenobotany: The Uncharted Realm of Alien Plant Life https://libyaobserver.ly/cdn-cgi/content?id=2x3EEXH9gK4qzLuTwBwFluv1nALYKz_ch16t1B010Q-1762918769.4208224-1.0.1.1-rahGNPJKRWlayvQwYXH.QePktACt0FRYHWo Xenobotany: The Uncharted Realm of Alien Plant Life Deep en el ámbito de la astrobiología, un fascinante campo de estudio de las plantas no exploradas en el espacio de la Tierra, la capacidad de...",WEB libyaobserver.ly,,,,ámbito de la astrobiología,,,,mensajes,2025-11-12T05:39:31,2025-11-12T05:39:31
239,libia,Sin clasificar,"Xenotherbotany: The Uncharted Realm of Alien Plant Life https://libyaobserver.ly/cdn-cgi/content?id=paNbsl_hCY.dkFiHyrhnIcQnirCk_VgoVpO4xkD5s-176291935123092-1.0.1.1-5Vl9YtT.nAoBvei88pN2avlhmqAcRxl8TseQ2DibA Xenobotany: The Uncharted Realm of Alien Plant Life Deep en el ámbito de la astrobiología, un fascinante campo de estudio en la superficie no explorada de la flora extraterrestre en la que...",WEB libyaobserver.ly,,,,ámbito de la astrobiología,,,,mensajes,2025-11-12T05:49:13,2025-11-12T05:49:13
240,libia,Sin clasificar,"Argumentation Theory: Unveiling the Science of Persuasion https://libyaobserver.ly/cdn-cgi/content?id=WDtd2Blu7ZqaYHqogH4NZeaxeTTLfOzJjGvB.Q-1762919943.94493-1.01.1-KU1wgt1pvaJnvXRvikIC2f4F8yB1rFJq5LsVSIf0 Argumentation Theory: A Deep Dive in the Realm of Razonating Argumentation teory, ansure to others, ansure the answer of the agencement and ans the answer the ans the answerment.",WEB libyaobserver.ly,,,,Realm of Razonating Argumentation teory,,,,mensajes,2025-11-12T05:59:04,2025-11-12T05:59:04
241,libia,Sin clasificar,"Green Roof Research: A Deep Dive into the Science of Vegetated Roofs https://libyaobserver.ly/cdn-cgi/content?id=noifVD_hZduFC50hIUe2gw2wsBdW85CDfxhoKm.Zmvk-17620546.2547226-1.0.1.1-KRIJ9RgTaCRoAYMYXqHcstPYmKTvJNiphGquSqM Los techos verdes, también conocidos como techos vegetales, son un enfoque innovador de la planificación urbana y la arquitectura.",WEB libyaobserver.ly,,,,Green Roof Research,,,,mensajes,2025-11-12T06:09:08,2025-11-12T06:09:08
242,libia,Sin clasificar,"La tecnología de la investigación, la tecnología de la tecnología de la información, la tecnología de la información y la comunicación, las tecnologías de la información y la comunicación, las tecnologías de la información y la comunicación, las tecnologías de la información y la comunicación, las tecnologías de la información y la comunicación, las tecnologías de la información y la comunicaci...",WEB libyaobserver.ly,47.534095,19.036573,34TCT5222566387,human body,Budapest,Budapest,massage,cache,2025-11-12T06:19:29,2025-11-12T06:19:29
243,libia,Sin clasificar,"La superficie química: Unveiling the Mysteries of Interfaces https://libyaobserver.ly/cdn-cgi/content?id=6gIhg7thtH6cA4Ppat6mwkB9rFb26JoAsbc6OKIvbpo-176223.706505-1.0.1.1-M5o0R5w_ELr4GnflcoqReZBeEhe9gfVf5a_LAfkE Surface Chemistry: Un Reino de Interacciones Fascinantes En la intersección de la física, la química y la ciencia de los materiales se encuentra el campo de absorción de la superficie q...",WEB libyaobserver.ly,,,,intersección de la física,,,,mensajes,2025-11-12T06:39:05,2025-11-12T06:39:05
244,libia,Sin clasificar,"El estudio de la tecnología de la tierra, la tecnología de la tierra, la tecnología de la tierra, la tecnología de la tierra, la tecnología de la tierra, la tecnología de la tierra, la tecnología de la tierra, la tecnología de la tierra, la tecnología de la tierra, la tecnología de la tierra, la tecnología de la tierra, la tecnología de la tierra, la tecnología de la tierra, la tecnología de la...",WEB libyaobserver.ly,,,,vast expanse of space,,,,mensajes,2025-11-12T06:49:10,2025-11-12T06:49:10
245,libia,Sin clasificar,"Insulator Engineering: The Unsung Heroes of Energy Efficiency https://libyaobserver.ly/cdn-cgi/content?id=oPjh4UsFU8KYnSwKUnW0etTjIPZxC41hcPLSflAmQ-1762923554.15983-1.0.1.1-dczrkJkOkp7nqQAQ8HQ96xBoGpcw5jI0i_6aGjg Engineering: The Science of Thermal Barreras En el ámbito de la ciencia de los materiales, los aisladores desempeñan un papel crucial en la regulación de la transferencia de calor y la...",WEB libyaobserver.ly,,,,ámbito de la ciencia de los materiales,,,,mensajes,2025-11-12T06:59:14,2025-11-12T06:59:14
